POSTALCODE,STATE,STFIPS,Percent with at least 3Mbps,PC_NAME,PA_NAME,PA_FIPS,COUNTY,CTYFIPS
22572,VA,51,74.9,WARSAW,WARSAW,83168,RICHMOND,159
22405,VA,51,74.7,FREDERICKSBURG,FREDERICKSBURG,,STAFFORD,179
22556,VA,51,74.7,STAFFORD,STAFFORD,,STAFFORD,179
22485,VA,51,74.7,KING GEORGE,KING GEORGE,42568,KING GEORGE,99
22656,VA,51,74.7,STEPHENSON,STEPHENSON,75360,FREDERICK,69
22427,VA,51,74.7,BOWLING GREEN,BOWLING GREEN,8888,CAROLINE,33
22630,VA,51,74.7,FRONT ROYAL,FRONT ROYAL,29968,WARREN,187
22715,VA,51,74.6,BRIGHTWOOD,BRIGHTWOOD,9752,MADISON,113
22504,VA,51,74.5,LANEVIEW,LANEVIEW,43832,ESSEX,57
23237,VA,51,74.4,RICHMOND,RICHMOND,,CHESTERFIELD,41
23050,VA,51,74.4,DUTTON,DUTTON,24080,GLOUCESTER,73
23308,VA,51,74.2,BLOXOM,BLOXOM,8120,ACCOMACK,1
24138,VA,51,74.1,PILOT,PILOT,62232,MONTGOMERY,121
22980,VA,51,74,WAYNESBORO,WAYNESBORO,83680,WAYNESBORO CITY,820
22535,VA,51,73.9,PORT ROYAL,PORT ROYAL,63928,CAROLINE,33
24377,VA,51,73.8,TANNERSVILLE,TANNERSVILLE,77552,TAZEWELL,185
24250,VA,51,73.7,FORT BLACKMORE,FORT BLACKMORE,29024,SCOTT,169
24553,VA,51,73.6,GLADSTONE,GLADSTONE,31088,NELSON,125
24556,VA,51,73.6,GOODE,GOODE,31840,BEDFORD,19
23845,VA,51,73.2,EBONY,EBONY,24816,BRUNSWICK,25
23337,VA,51,73.1,WALLOPS ISLAND,WALLOPS ISLAND,,ACCOMACK,1
23111,VA,51,73.1,MECHANICSVILLE,MECHANICSVILLE,50856,HANOVER,85
22709,VA,51,73.1,ARODA,ARODA,3192,MADISON,113
22967,VA,51,73.1,ROSELAND,ROSELAND,68944,NELSON,125
24067,VA,51,72.9,CALLAWAY,CALLAWAY,12200,FRANKLIN,67
23418,VA,51,72.9,ONLEY,ONLEY,59384,ACCOMACK,1
23180,VA,51,72.8,WATER VIEW,WATER VIEW,83504,MIDDLESEX,119
22436,VA,51,72.6,CARET,CARET,13000,ESSEX,57
22520,VA,51,72.6,MONTROSS,MONTROSS,52952,WESTMORELAND,193
22842,VA,51,72.5,MOUNT JACKSON,MOUNT JACKSON,53992,SHENANDOAH,171
24185,VA,51,72.4,WOOLWINE,WOOLWINE,87792,PATRICK,141
22026,VA,51,72.4,DUMFRIES,DUMFRIES,23760,PRINCE WILLIAM,153
22554,VA,51,72.2,STAFFORD,STAFFORD,,STAFFORD,179
24167,VA,51,72.1,STAFFORDSVILLE,STAFFORDSVILLE,74944,GILES,71
24083,VA,51,71.8,DALEVILLE,DALEVILLE,21152,BOTETOURT,23
24072,VA,51,71.7,CHECK,CHECK,,FLOYD,63
24104,VA,51,71.6,HUDDLESTON,HUDDLESTON,38760,BEDFORD,19
20152,VA,51,71.6,CHANTILLY,CHANTILLY,,LOUDOUN,107
23192,VA,51,71.4,MONTPELIER,MONTPELIER,52856,HANOVER,85
23851,VA,51,71.4,FRANKLIN,FRANKLIN,29600,FRANKLIN CITY,620
23915,VA,51,71.2,BASKERVILLE,BASKERVILLE,4856,MECKLENBURG,117
24541,VA,51,70.8,DANVILLE,DANVILLE,21344,DANVILLE CITY,590
22815,VA,51,70.5,BROADWAY,BROADWAY,10040,ROCKINGHAM,165
23838,VA,51,70.5,CHESTERFIELD,CHESTERFIELD,16192,CHESTERFIELD,41
24479,VA,51,70.5,SWOOPE,SWOOPE,77216,AUGUSTA,15
24112,VA,51,70.5,MARTINSVILLE,MARTINSVILLE,49784,MARTINSVILLE CITY,690
20176,VA,51,70.4,LEESBURG,LEESBURG,44984,LOUDOUN,107
24343,VA,51,70.3,HILLSVILLE,HILLSVILLE,37336,CARROLL,35
24549,VA,51,70.1,DRY FORK,DRY FORK,23600,PITTSYLVANIA,143
23035,VA,51,70,COBBS CREEK,COBBS CREEK,17888,MATHEWS,115
24333,VA,51,69.9,GALAX,GALAX,30208,GALAX CITY,640
20166,VA,51,69.6,STERLING,STERLING,75376,LOUDOUN,107
23970,VA,51,69.4,SOUTH HILL,SOUTH HILL,73904,MECKLENBURG,117
22936,VA,51,69.4,EARLYSVILLE,EARLYSVILLE,24272,ALBEMARLE,3
22538,VA,51,68.6,RAPPAHANNOCK ACADEMY,RAPPAHANNOCK ACADEMY,65712,CAROLINE,33
22938,VA,51,68.5,FABER,FABER,26432,NELSON,125
24053,VA,51,68.3,ARARAT,ARARAT,2152,PATRICK,141
22539,VA,51,68.2,REEDVILLE,REEDVILLE,66304,NORTHUMBERLAND,133
24076,VA,51,68,CLAUDVILLE,CLAUDVILLE,17056,PATRICK,141
22712,VA,51,67.9,BEALETON,BEALETON,5336,FAUQUIER,61
24059,VA,51,67.8,BENT MOUNTAIN,BENT MOUNTAIN,6776,ROANOKE,161
23511,VA,51,67.7,NORFOLK,NORFOLK,57000,NORFOLK CITY,710
22546,VA,51,67.5,RUTHER GLEN,RUTHER GLEN,69616,CAROLINE,33
24314,VA,51,67.4,BASTIAN,BASTIAN,4904,BLAND,21
22503,VA,51,67,LANCASTER,LANCASTER,43704,LANCASTER,103
23106,VA,51,66.9,MANQUIN,MANQUIN,49096,KING WILLIAM,101
24613,VA,51,66.7,FALLS MILLS,FALLS MILLS,27232,TAZEWELL,185
24137,VA,51,66.5,PENHOOK,PENHOOK,61464,FRANKLIN,67
22578,VA,51,66.5,WHITE STONE,WHITE STONE,85600,LANCASTER,103
23306,VA,51,66.4,BELLE HAVEN,BELLE HAVEN,5912,ACCOMACK,1
24122,VA,51,66.4,MONTVALE,MONTVALE,52968,BEDFORD,19
23072,VA,51,66.3,HAYES,HAYES,35896,GLOUCESTER,73
24588,VA,51,66.2,RUSTBURG,RUSTBURG,69536,CAMPBELL,31
22482,VA,51,66.1,KILMARNOCK,KILMARNOCK,42424,LANCASTER,103
20132,VA,51,66.1,PURCELLVILLE,PURCELLVILLE,65008,LOUDOUN,107
24529,VA,51,66,BUFFALO JUNCTION,BUFFALO JUNCTION,11112,MECKLENBURG,117
24293,VA,51,65.8,WISE,WISE,87072,WISE,195
22902,VA,51,65.8,CHARLOTTESVILLE,CHARLOTTESVILLE,14968,CHARLOTTESVILLE CITY,540
23005,VA,51,65.8,ASHLAND,ASHLAND,3368,HANOVER,85
24580,VA,51,65.7,NELSON,NELSON,55416,MECKLENBURG,117
22657,VA,51,65.7,STRASBURG,STRASBURG,76000,SHENANDOAH,171
23079,VA,51,65.3,JAMAICA,JAMAICA,40360,MIDDLESEX,119
24477,VA,51,65,STUARTS DRAFT,STUARTS DRAFT,76272,AUGUSTA,15
23960,VA,51,64.9,PROSPECT,PROSPECT,64688,PRINCE EDWARD,147
24245,VA,51,64.9,DUNGANNON,DUNGANNON,23952,SCOTT,169
24060,VA,51,64.8,BLACKSBURG,BLACKSBURG,7784,MONTGOMERY,121
20181,VA,51,64.8,NOKESVILLE,NOKESVILLE,56464,PRINCE WILLIAM,153
22963,VA,51,64.8,PALMYRA,PALMYRA,60392,FLUVANNA,65
22655,VA,51,64.7,STEPHENS CITY,STEPHENS CITY,75344,FREDERICK,69
22824,VA,51,64.6,EDINBURG,EDINBURG,25008,SHENANDOAH,171
22460,VA,51,64.6,FARNHAM,FARNHAM,27456,RICHMOND,159
24324,VA,51,64.5,DRAPER,DRAPER,23408,PULASKI,155
23231,VA,51,64.4,HENRICO,HENRICO,,HENRICO,87
24130,VA,51,64.3,ORISKANY,ORISKANY,59656,BOTETOURT,23
24380,VA,51,64.2,WILLIS,WILLIS,86288,FLOYD,63
24054,VA,51,64.1,AXTON,AXTON,3784,HENRY,89
20187,VA,51,64.1,WARRENTON,WARRENTON,83136,FAUQUIER,61
22903,VA,51,64,CHARLOTTESVILLE,CHARLOTTESVILLE,14968,CHARLOTTESVILLE CITY,540
24079,VA,51,64,COPPER HILL,COPPER HILL,19152,FLOYD,63
23921,VA,51,63.9,BUCKINGHAM,BUCKINGHAM,10840,BUCKINGHAM,29
23175,VA,51,63.9,URBANNA,URBANNA,80272,MIDDLESEX,119
24430,VA,51,63.8,CRAIGSVILLE,CRAIGSVILLE,19904,AUGUSTA,15
23421,VA,51,63.5,PARKSLEY,PARKSLEY,60680,ACCOMACK,1
20105,VA,51,63.2,ALDIE,ALDIE,772,LOUDOUN,107
22624,VA,51,63.2,CLEAR BROOK,CLEAR BROOK,17168,FREDERICK,69
23664,VA,51,63,HAMPTON,HAMPTON,35000,HAMPTON CITY,650
24319,VA,51,62.9,CHILHOWIE,CHILHOWIE,16480,SMYTH,173
24202,VA,51,62.8,BRISTOL,BRISTOL,,WASHINGTON,191
24277,VA,51,62.7,PENNINGTON GAP,PENNINGTON GAP,61560,LEE,105
24175,VA,51,62.5,TROUTVILLE,TROUTVILLE,79472,BOTETOURT,23
22511,VA,51,62.5,LOTTSBURG,LOTTSBURG,47112,NORTHUMBERLAND,133
22551,VA,51,62.5,SPOTSYLVANIA,SPOTSYLVANIA,74464,SPOTSYLVANIA,177
23188,VA,51,62.4,WILLIAMSBURG,WILLIAMSBURG,,JAMES CITY,95
23690,VA,51,62.4,YORKTOWN,YORKTOWN,88240,YORK,199
24550,VA,51,62,EVINGTON,EVINGTON,26336,CAMPBELL,31
24421,VA,51,61.9,CHURCHVILLE,CHURCHVILLE,16736,AUGUSTA,15
24312,VA,51,61.9,AUSTINVILLE,AUSTINVILLE,3656,WYTHE,197
24472,VA,51,61.8,RAPHINE,RAPHINE,65680,ROCKBRIDGE,163
23185,VA,51,61.7,WILLIAMSBURG,WILLIAMSBURG,,JAMES CITY,95
23103,VA,51,61.7,MANAKIN SABOT,MANAKIN SABOT,,GOOCHLAND,75
23420,VA,51,61.6,PAINTER,PAINTER,60296,ACCOMACK,1
22406,VA,51,61.6,FREDERICKSBURG,FREDERICKSBURG,,STAFFORD,179
24088,VA,51,61.1,FERRUM,FERRUM,27712,FRANKLIN,67
22438,VA,51,61,CHAMPLAIN,CHAMPLAIN,14632,ESSEX,57
24382,VA,51,61,WYTHEVILLE,WYTHEVILLE,88000,WYTHE,197
23456,VA,51,61,VIRGINIA BEACH,VIRGINIA BEACH,82000,VIRGINIA BEACH CITY,810
23084,VA,51,60.7,KENTS STORE,KENTS STORE,42024,FLUVANNA,65
23310,VA,51,60.7,CAPE CHARLES,CAPE CHARLES,12808,NORTHAMPTON,131
23139,VA,51,60.7,POWHATAN,POWHATAN,64384,POWHATAN,145
22971,VA,51,60.5,SHIPMAN,SHIPMAN,72080,NELSON,125
24360,VA,51,60.5,MAX MEADOWS,MAX MEADOWS,50312,WYTHE,197
24521,VA,51,60.4,AMHERST,AMHERST,1672,AMHERST,9
24457,VA,51,60.4,LOW MOOR,LOW MOOR,47352,ALLEGHANY,5
24368,VA,51,60.3,RURAL RETREAT,RURAL RETREAT,69456,WYTHE,197
24431,VA,51,60.2,CRIMORA,CRIMORA,20240,AUGUSTA,15
20117,VA,51,60.1,MIDDLEBURG,MIDDLEBURG,51448,LOUDOUN,107
22580,VA,51,59.8,WOODFORD,WOODFORD,87360,CAROLINE,33
24087,VA,51,59.7,ELLISTON,ELLISTON,25488,MONTGOMERY,121
24243,VA,51,59.2,DRYDEN,DRYDEN,23584,LEE,105
22560,VA,51,58.7,TAPPAHANNOCK,TAPPAHANNOCK,77568,ESSEX,57
24569,VA,51,58.6,LONG ISLAND,LONG ISLAND,,PITTSYLVANIA,143
24224,VA,51,58.6,CASTLEWOOD,CASTLEWOOD,13512,RUSSELL,167
23434,VA,51,58.5,SUFFOLK,SUFFOLK,76432,SUFFOLK CITY,800
22940,VA,51,58.4,FREE UNION,FREE UNION,29840,ALBEMARLE,3
24128,VA,51,58.4,NEWPORT,NEWPORT,55960,GILES,71
24147,VA,51,58.4,RICH CREEK,RICH CREEK,66896,GILES,71
24102,VA,51,58.3,HENRY,HENRY,36408,FRANKLIN,67
23124,VA,51,57.7,NEW KENT,NEW KENT,55800,NEW KENT,127
24301,VA,51,57.7,PULASKI,PULASKI,64880,PULASKI,155
24504,VA,51,57.6,LYNCHBURG,LYNCHBURG,47672,LYNCHBURG CITY,680
24330,VA,51,57.3,FRIES,FRIES,29920,GRAYSON,77
23433,VA,51,57.3,SUFFOLK,SUFFOLK,76432,SUFFOLK CITY,800
24631,VA,51,57.3,OAKWOOD,OAKWOOD,58632,BUCHANAN,27
22650,VA,51,57.1,RILEYVILLE,RILEYVILLE,67240,PAGE,139
22542,VA,51,57.1,RHOADESVILLE,RHOADESVILLE,66800,ORANGE,137
22079,VA,51,56.9,LORTON,LORTON,47064,FAIRFAX,59
24571,VA,51,56.7,LYNCH STATION,LYNCH STATION,47704,CAMPBELL,31
22845,VA,51,56.7,ORKNEY SPRINGS,ORKNEY SPRINGS,59672,SHENANDOAH,171
24090,VA,51,56.6,FINCASTLE,FINCASTLE,27824,BOTETOURT,23
24120,VA,51,56.2,MEADOWS OF DAN,MEADOWS OF DAN,,PATRICK,141
24244,VA,51,56.2,DUFFIELD,DUFFIELD,23680,SCOTT,169
24281,VA,51,56.1,ROSE HILL,ROSE HILL,68885,LEE,105
22508,VA,51,56.1,LOCUST GROVE,LOCUST GROVE,,ORANGE,137
24105,VA,51,56,INDIAN VALLEY,INDIAN VALLEY,39752,FLOYD,63
23966,VA,51,55.9,RICE,RICE,66832,PRINCE EDWARD,147
24614,VA,51,55.9,GRUNDY,GRUNDY,33648,BUCHANAN,27
24258,VA,51,55.6,HILTONS,HILTONS,37432,SCOTT,169
23015,VA,51,55.5,BEAVERDAM,BEAVERDAM,5448,HANOVER,85
24592,VA,51,55.3,SOUTH BOSTON,SOUTH BOSTON,73712,HALIFAX,83
23140,VA,51,55,PROVIDENCE FORGE,PROVIDENCE FORGE,64784,NEW KENT,127
24599,VA,51,54.9,WINGINA,WINGINA,,BUCKINGHAM,29
23129,VA,51,54.8,OILVILLE,OILVILLE,58904,GOOCHLAND,75
22509,VA,51,54.7,LORETTO,LORETTO,47000,ESSEX,57
20129,VA,51,54.7,PAEONIAN SPRINGS,PAEONIAN SPRINGS,60200,LOUDOUN,107
24558,VA,51,54.5,HALIFAX,HALIFAX,34064,HALIFAX,83
24531,VA,51,54.5,CHATHAM,CHATHAM,15000,PITTSYLVANIA,143
23102,VA,51,54.4,MAIDENS,MAIDENS,48728,GOOCHLAND,75
23146,VA,51,54.3,ROCKVILLE,ROCKVILLE,68464,HANOVER,85
24171,VA,51,54,STUART,STUART,76256,PATRICK,141
24340,VA,51,54,GLADE SPRING,GLADE SPRING,31056,WASHINGTON,191
23009,VA,51,53.9,AYLETT,AYLETT,3800,KING WILLIAM,101
23149,VA,51,53.8,SALUDA,SALUDA,70112,MIDDLESEX,119
22603,VA,51,53.6,WINCHESTER,WINCHESTER,,FREDERICK,69
24210,VA,51,53.5,ABINGDON,ABINGDON,148,WASHINGTON,191
23314,VA,51,53.1,CARROLLTON,CARROLLTON,13160,ISLE OF WIGHT,93
23898,VA,51,53.1,ZUNI,ZUNI,88464,ISLE OF WIGHT,93
23061,VA,51,53.1,GLOUCESTER,GLOUCESTER,31600,GLOUCESTER,73
23665,VA,51,53,HAMPTON,HAMPTON,,YORK,199
24651,VA,51,52.8,TAZEWELL,TAZEWELL,77792,TAZEWELL,185
23089,VA,51,52.8,LANEXA,LANEXA,43848,NEW KENT,127
24637,VA,51,52,POUNDING MILL,POUNDING MILL,64288,TAZEWELL,185
22737,VA,51,52,RIXEYVILLE,RIXEYVILLE,67768,CULPEPER,47
22937,VA,51,51.9,ESMONT,ESMONT,25968,ALBEMARLE,3
23322,VA,51,51.8,CHESAPEAKE,CHESAPEAKE,16000,CHESAPEAKE CITY,550
24590,VA,51,51.7,SCOTTSVILLE,SCOTTSVILLE,70800,ALBEMARLE,3
24354,VA,51,51.6,MARION,MARION,49464,SMYTH,173
22611,VA,51,51.6,BERRYVILLE,BERRYVILLE,6968,CLARKE,43
24133,VA,51,51.3,PATRICK SPRINGS,PATRICK SPRINGS,60984,PATRICK,141
24555,VA,51,51.2,GLASGOW,GLASGOW,31136,ROCKBRIDGE,163
24084,VA,51,51.1,DUBLIN,DUBLIN,23648,PULASKI,155
22473,VA,51,50.7,HEATHSVILLE,HEATHSVILLE,36216,NORTHUMBERLAND,133
22724,VA,51,50.5,JEFFERSONTON,JEFFERSONTON,40680,CULPEPER,47
22810,VA,51,50.3,BASYE,BASYE,4920,SHENANDOAH,171
24221,VA,51,50.1,BLACKWATER,BLACKWATER,7848,LEE,105
23442,VA,51,50.1,TEMPERANCEVILLE,TEMPERANCEVILLE,77856,ACCOMACK,1
23301,VA,51,50,ACCOMAC,ACCOMAC,180,ACCOMACK,1
23460,VA,51,50,VIRGINIA BEACH,VIRGINIA BEACH,82000,VIRGINIA BEACH CITY,810
20186,VA,51,49.9,WARRENTON,WARRENTON,83136,FAUQUIER,61
24162,VA,51,49.8,SHAWSVILLE,SHAWSVILLE,71632,MONTGOMERY,121
23662,VA,51,49.7,POQUOSON,POQUOSON,63768,POQUOSON CITY,735
24459,VA,51,49.4,MIDDLEBROOK,MIDDLEBROOK,51432,AUGUSTA,15
23153,VA,51,49.3,SANDY HOOK,SANDY HOOK,70288,GOOCHLAND,75
24634,VA,51,49.2,PILGRIMS KNOB,PILGRIMS KNOB,,BUCHANAN,27
24348,VA,51,49.2,INDEPENDENCE,INDEPENDENCE,39528,GRAYSON,77
23004,VA,51,49.1,ARVONIA,ARVONIA,3288,BUCKINGHAM,29
23083,VA,51,48.9,JETERSVILLE,JETERSVILLE,40952,AMELIA,7
23842,VA,51,48.6,DISPUTANTA,DISPUTANTA,22640,PRINCE GEORGE,149
23002,VA,51,48.5,AMELIA COURT HOUSE,AMELIA COURT HOUSE,1640,AMELIA,7
23603,VA,51,48.3,NEWPORT NEWS,NEWPORT NEWS,56000,NEWPORT NEWS CITY,700
22534,VA,51,48.1,PARTLOW,PARTLOW,60856,SPOTSYLVANIA,177
23415,VA,51,47.8,NEW CHURCH,NEW CHURCH,55608,ACCOMACK,1
22960,VA,51,47.5,ORANGE,ORANGE,59496,ORANGE,137
23927,VA,51,47.4,CLARKSVILLE,CLARKSVILLE,16992,MECKLENBURG,117
23126,VA,51,47.1,NEWTOWN,NEWTOWN,56144,KING AND QUEEN,97
24527,VA,51,47,BLAIRS,BLAIRS,7944,PITTSYLVANIA,143
23430,VA,51,46.9,SMITHFIELD,SMITHFIELD,73200,ISLE OF WIGHT,93
24649,VA,51,46.8,SWORDS CREEK,SWORDS CREEK,77232,RUSSELL,167
20180,VA,51,46.6,LOVETTSVILLE,LOVETTSVILLE,47208,LOUDOUN,107
22821,VA,51,46.4,DAYTON,DAYTON,21648,ROCKINGHAM,165
23437,VA,51,46.1,SUFFOLK,SUFFOLK,76432,SUFFOLK CITY,800
23069,VA,51,46,HANOVER,HANOVER,35160,HANOVER,85
20119,VA,51,45.8,CATLETT,CATLETT,13624,FAUQUIER,61
24263,VA,51,45.6,JONESVILLE,JONESVILLE,41272,LEE,105
24656,VA,51,45.6,VANSANT,VANSANT,80608,BUCHANAN,27
22642,VA,51,45.5,LINDEN,LINDEN,45880,WARREN,187
23123,VA,51,45.4,NEW CANTON,NEW CANTON,55576,BUCKINGHAM,29
22969,VA,51,45.3,SCHUYLER,SCHUYLER,70704,NELSON,125
23405,VA,51,45.2,MACHIPONGO,MACHIPONGO,48264,NORTHAMPTON,131
24363,VA,51,44.9,MOUTH OF WILSON,MOUTH OF WILSON,54408,GRAYSON,77
23047,VA,51,44.8,DOSWELL,DOSWELL,23120,HANOVER,85
24316,VA,51,44.7,BROADFORD,BROADFORD,,TAZEWELL,185
24270,VA,51,44.1,MENDOTA,MENDOTA,51096,WASHINGTON,191
23901,VA,51,44.1,FARMVILLE,FARMVILLE,27440,PRINCE EDWARD,147
20106,VA,51,44.1,AMISSVILLE,AMISSVILLE,,CULPEPER,47
24248,VA,51,44,EWING,EWING,26384,LEE,105
24292,VA,51,43.9,WHITETOP,WHITETOP,85632,GRAYSON,77
22728,VA,51,43.8,MIDLAND,MIDLAND,51544,FAUQUIER,61
23055,VA,51,43.8,FORK UNION,FORK UNION,28944,FLUVANNA,65
22645,VA,51,43.6,MIDDLETOWN,MIDDLETOWN,51512,FREDERICK,69
22943,VA,51,43.6,GREENWOOD,GREENWOOD,33120,ALBEMARLE,3
20135,VA,51,43.6,BLUEMONT,BLUEMONT,,CLARKE,43
23924,VA,51,43.4,CHASE CITY,CHASE CITY,14984,MECKLENBURG,117
23030,VA,51,43.3,CHARLES CITY,CHARLES CITY,14904,CHARLES CITY,36
23357,VA,51,43.3,GREENBUSH,GREENBUSH,32624,ACCOMACK,1
22973,VA,51,43.3,STANARDSVILLE,STANARDSVILLE,75008,GREENE,79
24165,VA,51,43.1,SPENCER,SPENCER,74368,HENRY,89
23958,VA,51,43.1,PAMPLIN,PAMPLIN,60488,APPOMATTOX,11
24219,VA,51,43,BIG STONE GAP,BIG STONE GAP,7480,WISE,195
24326,VA,51,42.9,ELK CREEK,ELK CREEK,25312,GRAYSON,77
22843,VA,51,42.8,MOUNT SOLON,MOUNT SOLON,54136,AUGUSTA,15
24603,VA,51,42.7,BIG ROCK,BIG ROCK,7448,BUCHANAN,27
23093,VA,51,42.6,LOUISA,LOUISA,47144,LOUISA,109
24450,VA,51,42.5,LEXINGTON,LEXINGTON,45512,LEXINGTON CITY,678
22623,VA,51,42.4,CHESTER GAP,CHESTER GAP,16240,RAPPAHANNOCK,157
22942,VA,51,42.3,GORDONSVILLE,GORDONSVILLE,31936,ORANGE,137
23874,VA,51,42.2,NEWSOMS,NEWSOMS,56096,SOUTHAMPTON,175
23937,VA,51,41.6,DRAKES BRANCH,DRAKES BRANCH,23376,CHARLOTTE,37
23148,VA,51,41.6,SAINT STEPHENS CHURCH,SAINT STEPHENS CHURCH,,KING AND QUEEN,97
23607,VA,51,41.4,NEWPORT NEWS,NEWPORT NEWS,56000,NEWPORT NEWS CITY,700
24266,VA,51,41.4,LEBANON,LEBANON,44696,RUSSELL,167
23032,VA,51,41.3,CHURCH VIEW,CHURCH VIEW,16720,MIDDLESEX,119
24416,VA,51,41.2,BUENA VISTA,BUENA VISTA,11032,BUENA VISTA CITY,530
23920,VA,51,41.2,BRODNAX,BRODNAX,10072,BRUNSWICK,25
24236,VA,51,41.1,DAMASCUS,DAMASCUS,21184,WASHINGTON,191
23508,VA,51,41.1,NORFOLK,NORFOLK,57000,NORFOLK CITY,710
24273,VA,51,41,NORTON,NORTON,57688,NORTON CITY,720
22654,VA,51,41,STAR TANNERY,STAR TANNERY,,FREDERICK,69
22923,VA,51,40.8,BARBOURSVILLE,BARBOURSVILLE,4392,ORANGE,137
24530,VA,51,40.7,CALLANDS,CALLANDS,12152,PITTSYLVANIA,143
23359,VA,51,40.3,HALLWOOD,HALLWOOD,34176,ACCOMACK,1
23837,VA,51,40.2,COURTLAND,COURTLAND,19600,SOUTHAMPTON,175
23040,VA,51,39.9,CUMBERLAND,CUMBERLAND,20768,CUMBERLAND,49
23936,VA,51,39.9,DILLWYN,DILLWYN,22560,BUCKINGHAM,29
23302,VA,51,39.7,ASSAWOMAN,ASSAWOMAN,,ACCOMACK,1
24283,VA,51,39.5,SAINT PAUL,SAINT PAUL,69936,WISE,195
22172,VA,51,39.4,TRIANGLE,TRIANGLE,79360,PRINCE WILLIAM,153
22610,VA,51,39.3,BENTONVILLE,BENTONVILLE,6792,WARREN,187
23022,VA,51,39.3,BREMO BLUFF,BREMO BLUFF,9448,FLUVANNA,65
24265,VA,51,38.6,KEOKEE,KEOKEE,42104,LEE,105
23011,VA,51,38.6,BARHAMSVILLE,BARHAMSVILLE,4504,NEW KENT,127
23947,VA,51,38.5,KEYSVILLE,KEYSVILLE,42264,CHARLOTTE,37
23917,VA,51,38.4,BOYDTON,BOYDTON,9016,MECKLENBURG,117
23177,VA,51,38.3,WALKERTON,WALKERTON,82608,KING AND QUEEN,97
24070,VA,51,38.3,CATAWBA,CATAWBA,13560,ROANOKE,161
22652,VA,51,38.3,FORT VALLEY,FORT VALLEY,,SHENANDOAH,171
24370,VA,51,37.6,SALTVILLE,SALTVILLE,70096,SMYTH,173
24522,VA,51,37.2,APPOMATTOX,APPOMATTOX,2072,APPOMATTOX,11
22514,VA,51,37.2,MILFORD,MILFORD,51832,CAROLINE,33
23023,VA,51,37.2,BRUINGTON,BRUINGTON,10584,KING AND QUEEN,97
22734,VA,51,37,REMINGTON,REMINGTON,66512,FAUQUIER,61
22931,VA,51,37,COVESVILLE,COVESVILLE,19696,ALBEMARLE,3
23856,VA,51,36.9,FREEMAN,FREEMAN,29776,BRUNSWICK,25
24311,VA,51,36.9,ATKINS,ATKINS,3512,SMYTH,173
23117,VA,51,36.8,MINERAL,MINERAL,52120,LOUISA,109
24485,VA,51,36.8,WEST AUGUSTA,WEST AUGUSTA,84144,AUGUSTA,15
23954,VA,51,36.7,MEHERRIN,MEHERRIN,50968,PRINCE EDWARD,147
23963,VA,51,36.5,RED HOUSE,RED HOUSE,,CHARLOTTE,37
22701,VA,51,36.4,CULPEPER,CULPEPER,20752,CULPEPER,47
22932,VA,51,36.3,CROZET,CROZET,20560,ALBEMARLE,3
23830,VA,51,36.2,CARSON,CARSON,13224,DINWIDDIE,53
22641,VA,51,36.2,STRASBURG,STRASBURG,76000,SHENANDOAH,171
23968,VA,51,36.1,SKIPWITH,SKIPWITH,72880,MECKLENBURG,117
22935,VA,51,36.1,DYKE,DYKE,24176,GREENE,79
22735,VA,51,35.7,REVA,REVA,,MADISON,113
23885,VA,51,35.7,SUTHERLAND,SUTHERLAND,76960,DINWIDDIE,53
20137,VA,51,35.7,BROAD RUN,BROAD RUN,10008,FAUQUIER,61
20198,VA,51,35.4,THE PLAINS,THE PLAINS,78192,FAUQUIER,61
24609,VA,51,35.3,CEDAR BLUFF,CEDAR BLUFF,13784,TAZEWELL,185
22644,VA,51,35.2,MAURERTOWN,MAURERTOWN,50200,SHENANDOAH,171
23922,VA,51,35.2,BURKEVILLE,BURKEVILLE,11560,NOTTOWAY,135
23974,VA,51,35.1,VICTORIA,VICTORIA,81024,LUNENBURG,111
24593,VA,51,34.6,SPOUT SPRING,SPOUT SPRING,74496,APPOMATTOX,11
24473,VA,51,34.6,ROCKBRIDGE BATHS,ROCKBRIDGE BATHS,,ROCKBRIDGE,163
23878,VA,51,34.2,SEDLEY,SEDLEY,71040,SOUTHAMPTON,175
24458,VA,51,33.9,MC DOWELL,MC DOWELL,,HIGHLAND,91
23930,VA,51,33.8,CREWE,CREWE,20160,NOTTOWAY,135
24602,VA,51,33.7,BANDY,BANDY,4280,TAZEWELL,185
22720,VA,51,33.6,GOLDVEIN,GOLDVEIN,31776,FAUQUIER,61
23086,VA,51,33.5,KING WILLIAM,KING WILLIAM,42792,KING WILLIAM,101
22742,VA,51,33.5,SUMERDUCK,SUMERDUCK,76544,FAUQUIER,61
22620,VA,51,33.5,BOYCE,BOYCE,8984,CLARKE,43
24347,VA,51,33.4,HIWASSEE,HIWASSEE,37544,PULASKI,155
24435,VA,51,33.3,FAIRFIELD,FAIRFIELD,26656,ROCKBRIDGE,163
23866,VA,51,33.2,IVOR,IVOR,40232,SOUTHAMPTON,175
22602,VA,51,33.2,WINCHESTER,WINCHESTER,,FREDERICK,69
23416,VA,51,33.1,OAK HALL,OAK HALL,58184,ACCOMACK,1
24228,VA,51,33,CLINTWOOD,CLINTWOOD,17552,DICKENSON,51
24520,VA,51,32.9,ALTON,ALTON,1560,HALIFAX,83
24579,VA,51,32.8,NATURAL BRIDGE STATION,NATURAL BRIDGE STATION,55080,ROCKBRIDGE,163
24574,VA,51,32.8,MONROE,MONROE,52600,AMHERST,9
24322,VA,51,32.5,CRIPPLE CREEK,CRIPPLE CREEK,20256,WYTHE,197
23438,VA,51,32.4,SUFFOLK,SUFFOLK,76432,SUFFOLK CITY,800
23942,VA,51,32.4,GREEN BAY,GREEN BAY,32576,PRINCE EDWARD,147
24282,VA,51,32.3,SAINT CHARLES,SAINT CHARLES,69792,LEE,105
23457,VA,51,32.1,VIRGINIA BEACH,VIRGINIA BEACH,82000,VIRGINIA BEACH CITY,810
22959,VA,51,31.9,NORTH GARDEN,NORTH GARDEN,57368,ALBEMARLE,3
24433,VA,51,31.8,DOE HILL,DOE HILL,22800,HIGHLAND,91
23410,VA,51,31.7,MELFA,MELFA,50984,ACCOMACK,1
22627,VA,51,31.6,FLINT HILL,FLINT HILL,28496,RAPPAHANNOCK,157
23841,VA,51,31.6,DINWIDDIE,DINWIDDIE,22576,DINWIDDIE,53
24432,VA,51,31.6,DEERFIELD,DEERFIELD,21872,AUGUSTA,15
22714,VA,51,31.2,BRANDY STATION,BRANDY STATION,9352,CULPEPER,47
24554,VA,51,30.3,GLADYS,GLADYS,31104,CAMPBELL,31
23944,VA,51,29.9,KENBRIDGE,KENBRIDGE,41832,LUNENBURG,111
22640,VA,51,29.4,HUNTLY,HUNTLY,39128,RAPPAHANNOCK,157
24465,VA,51,29.4,MONTEREY,MONTEREY,52680,HIGHLAND,91
24150,VA,51,29.3,RIPPLEMEAD,RIPPLEMEAD,67304,GILES,71
23691,VA,51,29,YORKTOWN,YORKTOWN,88240,YORK,199
24318,VA,51,28.9,CERES,CERES,14472,BLAND,21
22747,VA,51,28.9,WASHINGTON,WASHINGTON,83248,RAPPAHANNOCK,157
23250,VA,51,28.8,RICHMOND,RICHMOND,,HENRICO,87
22437,VA,51,28.2,CENTER CROSS,CENTER CROSS,14152,ESSEX,57
23323,VA,51,27.5,CHESAPEAKE,CHESAPEAKE,16000,CHESAPEAKE CITY,550
24350,VA,51,27.4,IVANHOE,IVANHOE,40216,WYTHE,197
23827,VA,51,27.3,BOYKINS,BOYKINS,9032,SOUTHAMPTON,175
22663,VA,51,27.3,WHITE POST,WHITE POST,85552,CLARKE,43
24476,VA,51,27.2,STEELES TAVERN,STEELES TAVERN,75264,AUGUSTA,15
24538,VA,51,27.1,CONCORD,CONCORD,18880,CAMPBELL,31
24577,VA,51,27,NATHALIE,NATHALIE,55000,HALIFAX,83
22738,VA,51,26.6,ROCHELLE,ROCHELLE,68272,MADISON,113
24230,VA,51,26.3,COEBURN,COEBURN,17952,WISE,195
22625,VA,51,25.8,CROSS JUNCTION,CROSS JUNCTION,20416,FREDERICK,69
23923,VA,51,25.6,CHARLOTTE COURT HOUSE,CHARLOTTE COURT HOUSE,14952,CHARLOTTE,37
24439,VA,51,25.4,GOSHEN,GOSHEN,31968,ROCKBRIDGE,163
22830,VA,51,25.3,FULKS RUN,FULKS RUN,30048,ROCKINGHAM,165
24581,VA,51,25.3,NORWOOD,NORWOOD,57800,NELSON,125
23888,VA,51,25.1,WAKEFIELD,WAKEFIELD,82384,SUSSEX,183
24325,VA,51,25,DUGSPUR,DUGSPUR,23696,CARROLL,35
24374,VA,51,24.9,SPEEDWELL,SPEEDWELL,74320,WYTHE,197
24279,VA,51,24.8,POUND,POUND,64272,WISE,195
24657,VA,51,24.6,WHITEWOOD,WHITEWOOD,85664,BUCHANAN,27
23868,VA,51,24.6,LAWRENCEVILLE,LAWRENCEVILLE,44520,BRUNSWICK,25
22567,VA,51,24.4,UNIONVILLE,UNIONVILLE,80048,ORANGE,137
24413,VA,51,24,BLUE GRASS,BLUE GRASS,8168,HIGHLAND,91
22713,VA,51,23.7,BOSTON,BOSTON,8680,CULPEPER,47
23882,VA,51,23.5,STONY CREEK,STONY CREEK,75840,SUSSEX,183
23934,VA,51,23.4,CULLEN,CULLEN,20704,CHARLOTTE,37
24351,VA,51,23.2,LAMBSBURG,LAMBSBURG,43672,CARROLL,35
24375,VA,51,23.2,SUGAR GROVE,SUGAR GROVE,76448,SMYTH,173
20115,VA,51,22.9,MARSHALL,MARSHALL,49656,FAUQUIER,61
23847,VA,51,22.9,EMPORIA,EMPORIA,,GREENSVILLE,81
23840,VA,51,22.8,DEWITT,DEWITT,22368,DINWIDDIE,53
22820,VA,51,22.4,CRIDERS,CRIDERS,20192,ROCKINGHAM,165
24460,VA,51,22.1,MILLBORO,MILLBORO,51848,BATH,17
24422,VA,51,22,CLIFTON FORGE,CLIFTON FORGE,17440,ALLEGHANY,5
24260,VA,51,22,HONAKER,HONAKER,38280,RUSSELL,167
24445,VA,51,21.9,HOT SPRINGS,HOT SPRINGS,38632,BATH,17
22976,VA,51,21.9,TYRO,TYRO,79936,NELSON,125
24622,VA,51,21.3,JEWELL RIDGE,JEWELL RIDGE,41016,TAZEWELL,185
24442,VA,51,21,HEAD WATERS,HEAD WATERS,,HIGHLAND,91
24562,VA,51,20.9,HOWARDSVILLE,HOWARDSVILLE,,BUCKINGHAM,29
22811,VA,51,20.8,BERGTON,BERGTON,6808,ROCKINGHAM,165
22637,VA,51,20.5,GORE,GORE,31952,FREDERICK,69
23065,VA,51,20.1,GUM SPRING,GUM SPRING,,GOOCHLAND,75
23843,VA,51,20,DOLPHIN,DOLPHIN,22864,BRUNSWICK,25
24566,VA,51,19.9,KEELING,KEELING,41512,PITTSYLVANIA,143
24216,VA,51,19,APPALACHIA,APPALACHIA,2040,WISE,195
24085,VA,51,18.7,EAGLE ROCK,EAGLE ROCK,24208,BOTETOURT,23
23024,VA,51,18.6,BUMPASS,BUMPASS,11256,LOUISA,109
24237,VA,51,18.1,DANTE,DANTE,21312,RUSSELL,167
22831,VA,51,18.1,HINTON,HINTON,37496,ROCKINGHAM,165
22733,VA,51,17.6,RAPIDAN,RAPIDAN,65696,CULPEPER,47
24620,VA,51,17.3,HURLEY,HURLEY,39192,BUCHANAN,27
24536,VA,51,17.3,COLEMAN FALLS,COLEMAN FALLS,18080,BEDFORD,19
24487,VA,51,17.2,WILLIAMSVILLE,WILLIAMSVILLE,86256,BATH,17
24426,VA,51,16.9,COVINGTON,COVINGTON,19728,COVINGTON CITY,580
24069,VA,51,16.7,CASCADE,CASCADE,13400,PITTSYLVANIA,143
23890,VA,51,16.3,WAVERLY,WAVERLY,83600,SUSSEX,183
22749,VA,51,16.2,WOODVILLE,WOODVILLE,87744,RAPPAHANNOCK,157
22952,VA,51,15.9,LYNDHURST,LYNDHURST,47720,AUGUSTA,15
23358,VA,51,15.8,HACKSNECK,HACKSNECK,33840,ACCOMACK,1
24256,VA,51,15.7,HAYSI,HAYSI,36008,DICKENSON,51
22727,VA,51,15.5,MADISON,MADISON,48488,MADISON,113
23039,VA,51,15.1,CROZIER,CROZIER,20576,GOOCHLAND,75
24226,VA,51,15.1,CLINCHCO,CLINCHCO,17504,DICKENSON,51
24127,VA,51,15,NEW CASTLE,NEW CASTLE,55592,CRAIG,45
24594,VA,51,15,SUTHERLIN,SUTHERLIN,76992,PITTSYLVANIA,143
23824,VA,51,14.6,BLACKSTONE,BLACKSTONE,7832,NOTTOWAY,135
22730,VA,51,14.4,OAKPARK,OAKPARK,58360,MADISON,113
24597,VA,51,14.3,VERNON HILL,VERNON HILL,80848,HALIFAX,83
24578,VA,51,13.9,NATURAL BRIDGE,NATURAL BRIDGE,55048,ROCKBRIDGE,163
23063,VA,51,13.8,GOOCHLAND,GOOCHLAND,31808,GOOCHLAND,75
24066,VA,51,13.8,BUCHANAN,BUCHANAN,10744,BOTETOURT,23
24598,VA,51,13.3,VIRGILINA,VIRGILINA,81312,HALIFAX,83
24528,VA,51,13.3,BROOKNEAL,BROOKNEAL,10296,CAMPBELL,31
23897,VA,51,12.6,YALE,YALE,88048,SUSSEX,183
23833,VA,51,12.6,CHURCH ROAD,CHURCH ROAD,,DINWIDDIE,53
23181,VA,51,12.5,WEST POINT,WEST POINT,84960,KING WILLIAM,101
22718,VA,51,12.3,ELKWOOD,ELKWOOD,25424,CULPEPER,47
20184,VA,51,12.3,UPPERVILLE,UPPERVILLE,80224,FAUQUIER,61
24484,VA,51,11.9,WARM SPRINGS,WARM SPRINGS,83088,BATH,17
24269,VA,51,11.8,MC CLURE,MC CLURE,,DICKENSON,51
24646,VA,51,11.4,ROWE,ROWE,69232,BUCHANAN,27
23893,VA,51,11,WHITE PLAINS,WHITE PLAINS,85536,BRUNSWICK,25
22740,VA,51,11,SPERRYVILLE,SPERRYVILLE,74384,RAPPAHANNOCK,157
23952,VA,51,11,LUNENBURG,LUNENBURG,47496,LUNENBURG,111
23821,VA,51,11,ALBERTA,ALBERTA,724,BRUNSWICK,25
23844,VA,51,10.6,DREWRYVILLE,DREWRYVILLE,23456,SOUTHAMPTON,175
24378,VA,51,10.4,TROUTDALE,TROUTDALE,,GRAYSON,77
23872,VA,51,10.2,MC KENNEY,MC KENNEY,,DINWIDDIE,53
22948,VA,51,9.7,LOCUST DALE,LOCUST DALE,46376,MADISON,113
24464,VA,51,9.6,MONTEBELLO,MONTEBELLO,52664,NELSON,125
23881,VA,51,9.6,SPRING GROVE,SPRING GROVE,74720,SURRY,181
23867,VA,51,9,JARRATT,JARRATT,40536,GREENSVILLE,81
24526,VA,51,9,BIG ISLAND,BIG ISLAND,7400,BEDFORD,19
22722,VA,51,8.9,HAYWOOD,HAYWOOD,36056,MADISON,113
23828,VA,51,8.9,BRANCHVILLE,BRANCHVILLE,9208,SOUTHAMPTON,175
23426,VA,51,8.8,SANFORD,SANFORD,70352,ACCOMACK,1
22972,VA,51,8.1,SOMERSET,SOMERSET,73472,ORANGE,137
23959,VA,51,8.1,PHENIX,PHENIX,61896,CHARLOTTE,37
23604,VA,51,7.9,FORT EUSTIS,FORT EUSTIS,,NEWPORT NEWS CITY,700
23964,VA,51,7.2,RED OAK,RED OAK,,CHARLOTTE,37
23108,VA,51,7,MASCOT,MASCOT,49944,KING AND QUEEN,97
24565,VA,51,6.5,JAVA,JAVA,40568,PITTSYLVANIA,143
23110,VA,51,6.1,MATTAPONI,MATTAPONI,50152,KING AND QUEEN,97
24589,VA,51,5.5,SCOTTSBURG,SCOTTSBURG,70752,HALIFAX,83
23879,VA,51,4.9,SKIPPERS,SKIPPERS,72864,GREENSVILLE,81
23161,VA,51,4.3,STEVENSVILLE,STEVENSVILLE,75456,KING AND QUEEN,97
22729,VA,51,4.1,MITCHELLS,MITCHELLS,52312,CULPEPER,47
24272,VA,51,3.9,NORA,NORA,56496,DICKENSON,51
23883,VA,51,3.4,SURRY,SURRY,76880,SURRY,181
24483,VA,51,3.3,VESUVIUS,VESUVIUS,80928,ROCKBRIDGE,163
24225,VA,51,3.3,CLEVELAND,CLEVELAND,17296,RUSSELL,167
23156,VA,51,3.2,SHACKLEFORDS,SHACKLEFORDS,71344,KING AND QUEEN,97
23850,VA,51,2.7,FORD,FORD,,DINWIDDIE,53
22725,VA,51,2.7,LEON,LEON,45224,MADISON,113
23962,VA,51,2.7,RANDOLPH,RANDOLPH,65600,CHARLOTTE,37
23967,VA,51,2.6,SAXE,SAXE,70560,CHARLOTTE,37
22716,VA,51,2.5,CASTLETON,CASTLETON,13496,RAPPAHANNOCK,157
24220,VA,51,1.4,BIRCHLEAF,BIRCHLEAF,7576,DICKENSON,51
22741,VA,51,1.3,STEVENSBURG,STEVENSBURG,75424,CULPEPER,47
22719,VA,51,1,ETLAN,ETLAN,26080,MADISON,113
23829,VA,51,0.9,CAPRON,CAPRON,12904,SOUTHAMPTON,175
24217,VA,51,0.8,BEE,BEE,5576,DICKENSON,51
23085,VA,51,0.7,KING AND QUEEN COURT HOUSE,KING AND QUEEN COURT HOUSE,42536,KING AND QUEEN,97
20130,VA,51,0.7,PARIS,PARIS,,CLARKE,43
22639,VA,51,0.6,HUME,HUME,38904,FAUQUIER,61
23889,VA,51,0.6,WARFIELD,WARFIELD,83056,BRUNSWICK,25
22723,VA,51,0.5,HOOD,HOOD,38360,MADISON,113
23839,VA,51,0.2,DENDRON,DENDRON,22160,SURRY,181
24131,VA,51,0.1,PAINT BANK,PAINT BANK,60280,CRAIG,45
23038,VA,51,0.1,COLUMBIA,COLUMBIA,,GOOCHLAND,75
23160,VA,51,0.1,STATE FARM,STATE FARM,,GOOCHLAND,75
23027,VA,51,0,CARTERSVILLE,CARTERSVILLE,13304,CUMBERLAND,49
20144,VA,51,0,DELAPLANE,DELAPLANE,21984,FAUQUIER,61
22736,VA,51,0,RICHARDSVILLE,RICHARDSVILLE,66880,CULPEPER,47
22726,VA,51,0,LIGNUM,LIGNUM,45672,CULPEPER,47
24539,VA,51,0,CRYSTAL HILL,CRYSTAL HILL,20656,HALIFAX,83
22433,VA,51,0,BURR HILL,BURR HILL,11720,ORANGE,137
24607,VA,51,0,BREAKS,BREAKS,9400,DICKENSON,51
24239,VA,51,0,DAVENPORT,DAVENPORT,21520,BUCHANAN,27
23440,VA,51,0,TANGIER,TANGIER,77520,ACCOMACK,1
22743,VA,51,0,SYRIA,SYRIA,77328,MADISON,113
23488,VA,51,0,WITHAMS,WITHAMS,87152,ACCOMACK,1
23891,VA,51,0,SUSSEX CORRECTIONAL FACILITY,WAVERLY,83600,SUSSEX,183
23976,VA,51,0,WYLLIESBURG,WYLLIESBURG,87936,CHARLOTTE,37
23857,VA,51,0,GASBURG,GASBURG,30480,BRUNSWICK,25
22643,VA,51,0,MARKHAM,MARKHAM,49512,FAUQUIER,61
23938,VA,51,0,DUNDAS,DUNDAS,23888,LUNENBURG,111
23887,VA,51,0,VALENTINES,VALENTINES,80368,BRUNSWICK,25
23091,VA,51,0,LITTLE PLYMOUTH,LITTLE PLYMOUTH,46088,KING AND QUEEN,97
23894,VA,51,0,WILSONS,WILSONS,86656,DINWIDDIE,53
23876,VA,51,0,RAWLINGS,RAWLINGS,65904,BRUNSWICK,25
23846,VA,51,0,ELBERON,ELBERON,25216,SURRY,181
24534,VA,51,0,CLOVER,CLOVER,17632,HALIFAX,83