zip,stcountyfp,city,state,countyname,classfp
23301,51001,Accomac,VA,Accomack County,H1
23420,51001,Painter,VA,Accomack County,H1
23417,51001,Onancock,VA,Accomack County,H1
23359,51001,Hallwood,VA,Accomack County,H1
23488,51001,Withams,VA,Accomack County,H1
23308,51001,Bloxom,VA,Accomack County,H1
23356,51001,Greenbackville,VA,Accomack County,H1
23303,51001,Atlantic,VA,Accomack County,H1
23415,51001,New church,VA,Accomack County,H1
23409,51001,Mears,VA,Accomack County,H1
23404,51001,Locustville,VA,Accomack County,H1
23426,51001,Sanford,VA,Accomack County,H1
23414,51001,Nelsonia,VA,Accomack County,H1
23350,51001,Exmore,VA,Accomack County,H1
23410,51001,Melfa,VA,Accomack County,H1
23422,51001,Pungoteague,VA,Accomack County,H1
23421,51001,Parksley,VA,Accomack County,H1
23337,51001,Wallops island,VA,Accomack County,H1
23306,51001,Belle haven,VA,Accomack County,H1
23357,51001,Greenbush,VA,Accomack County,H1
23480,51001,Wachapreague,VA,Accomack County,H1
23427,51001,Saxis,VA,Accomack County,H1
23418,51001,Onley,VA,Accomack County,H1
23395,51001,Horntown,VA,Accomack County,H1
23423,51001,Quinby,VA,Accomack County,H1
23416,51001,Oak hall,VA,Accomack County,H1
23407,51001,Mappsville,VA,Accomack County,H1
23401,51001,Keller,VA,Accomack County,H1
23389,51001,Harborton,VA,Accomack County,H1
23440,51001,Tangier,VA,Accomack County,H1
23336,51001,Chincoteague island,VA,Accomack County,H1
23442,51001,Temperanceville,VA,Accomack County,H1
23302,51001,Assawoman,VA,Accomack County,H1
23358,51001,Hacksneck,VA,Accomack County,H1
23441,51001,Tasley,VA,Accomack County,H1
23341,51001,Craddockville,VA,Accomack County,H1
22911,51003,Charlottesville,VA,Albemarle County,H1
22920,51003,Afton,VA,Albemarle County,H1
22938,51003,Faber,VA,Albemarle County,H1
22932,51003,Crozet,VA,Albemarle County,H1
22935,51003,Dyke,VA,Albemarle County,H1
22942,51003,Gordonsville,VA,Albemarle County,H1
22903,51003,Charlottesville,VA,Albemarle County,H1
22940,51003,Free union,VA,Albemarle County,H1
22943,51003,Greenwood,VA,Albemarle County,H1
22909,51003,Charlottesville,VA,Albemarle County,H1
22901,51003,Charlottesville,VA,Albemarle County,H1
22923,51003,Barboursville,VA,Albemarle County,H1
22947,51003,Keswick,VA,Albemarle County,H1
22904,51003,Charlottesville,VA,Albemarle County,H1
22945,51003,Ivy,VA,Albemarle County,H1
22902,51003,Charlottesville,VA,Albemarle County,H1
22936,51003,Earlysville,VA,Albemarle County,H1
22968,51003,Ruckersville,VA,Albemarle County,H1
22946,51003,Keene,VA,Albemarle County,H1
22908,51003,Charlottesville,VA,Albemarle County,H1
24562,51003,Howardsville,VA,Albemarle County,H1
22959,51003,North garden,VA,Albemarle County,H1
22987,51003,White hall,VA,Albemarle County,H1
22937,51003,Esmont,VA,Albemarle County,H1
22931,51003,Covesville,VA,Albemarle County,H1
22974,51003,Troy,VA,Albemarle County,H1
22969,51003,Schuyler,VA,Albemarle County,H1
24590,51003,Scottsville,VA,Albemarle County,H1
22924,51003,Batesville,VA,Albemarle County,H1
24457,51005,Low moor,VA,Alleghany County,H1
24085,51005,Eagle rock,VA,Alleghany County,H1
24422,51005,Clifton forge,VA,Alleghany County,H1
24127,51005,New castle,VA,Alleghany County,H1
24448,51005,Iron gate,VA,Alleghany County,H1
24474,51005,Selma,VA,Alleghany County,H1
24445,51005,Hot springs,VA,Alleghany County,H1
24426,51005,Covington,VA,Alleghany County,H1
23083,51007,Jetersville,VA,Amelia County,H1
23833,51007,Church road,VA,Amelia County,H1
23966,51007,Rice,VA,Amelia County,H1
23105,51007,Mannboro,VA,Amelia County,H1
23002,51007,Amelia court house,VA,Amelia County,H1
23824,51007,Blackstone,VA,Amelia County,H1
23850,51007,Ford,VA,Amelia County,H1
22967,51009,Roseland,VA,Amherst County,H1
22976,51009,Tyro,VA,Amherst County,H1
24572,51009,Madison heights,VA,Amherst County,H1
24483,51009,Vesuvius,VA,Amherst County,H1
22922,51009,Arrington,VA,Amherst County,H1
24521,51009,Amherst,VA,Amherst County,H1
24574,51009,Monroe,VA,Amherst County,H1
24595,51009,Sweet briar,VA,Amherst County,H1
24533,51009,Clifford,VA,Amherst County,H1
24553,51009,Gladstone,VA,Amherst County,H1
24526,51009,Big island,VA,Amherst County,H1
24504,51011,Lynchburg,VA,Appomattox County,H1
24593,51011,Spout spring,VA,Appomattox County,H1
24538,51011,Concord,VA,Appomattox County,H1
23960,51011,Prospect,VA,Appomattox County,H1
23939,51011,Evergreen,VA,Appomattox County,H1
24522,51011,Appomattox,VA,Appomattox County,H1
23958,51011,Pamplin,VA,Appomattox County,H1
23963,51011,Red house,VA,Appomattox County,H1
24553,51011,Gladstone,VA,Appomattox County,H1
22205,51013,Arlington,VA,Arlington County,H1
22230,51013,Arlington,VA,Arlington County,H1
22203,51013,Arlington,VA,Arlington County,H1
22211,51013,Fort myer,VA,Arlington County,H1
20350,51013,Washington,VA,Arlington County,H1
22217,51013,Arlington,VA,Arlington County,H1
20310,51013,Washington,VA,Arlington County,H1
22225,51013,Arlington,VA,Arlington County,H1
22212,51013,Arlington,VA,Arlington County,H1
22101,51013,Mc lean,VA,Arlington County,H1
22202,51013,Arlington,VA,Arlington County,H1
22204,51013,Arlington,VA,Arlington County,H1
22243,51013,Arlington,VA,Arlington County,H1
22046,51013,Falls church,VA,Arlington County,H1
22201,51013,Arlington,VA,Arlington County,H1
22240,51013,Arlington,VA,Arlington County,H1
20598,51013,Dhs,VA,Arlington County,H1
22213,51013,Arlington,VA,Arlington County,H1
22219,51013,Arlington,VA,Arlington County,H1
22214,51013,Arlington,VA,Arlington County,H1
22226,51013,Arlington,VA,Arlington County,H1
22206,51013,Arlington,VA,Arlington County,H1
22207,51013,Arlington,VA,Arlington County,H1
22216,51013,Arlington,VA,Arlington County,H1
22210,51013,Arlington,VA,Arlington County,H1
22242,51013,Arlington,VA,Arlington County,H1
22244,51013,Arlington,VA,Arlington County,H1
20406,51013,Washington,VA,Arlington County,H1
22209,51013,Arlington,VA,Arlington County,H1
20330,51013,Washington,VA,Arlington County,H1
22215,51013,Arlington,VA,Arlington County,H1
20301,51013,Washington,VA,Arlington County,H1
22227,51013,Arlington,VA,Arlington County,H1
22245,51013,Arlington,VA,Arlington County,H1
22241,51013,Arlington,VA,Arlington County,H1
22920,51015,Afton,VA,Augusta County,H1
22967,51015,Roseland,VA,Augusta County,H1
24477,51015,Stuarts draft,VA,Augusta County,H1
24437,51015,Fort defiance,VA,Augusta County,H1
22843,51015,Mount solon,VA,Augusta County,H1
22841,51015,Mount crawford,VA,Augusta County,H1
24467,51015,Mount sidney,VA,Augusta County,H1
24486,51015,Weyers cave,VA,Augusta County,H1
24482,51015,Verona,VA,Augusta County,H1
24483,51015,Vesuvius,VA,Augusta County,H1
24440,51015,Greenville,VA,Augusta County,H1
24463,51015,Mint spring,VA,Augusta County,H1
22812,51015,Bridgewater,VA,Augusta County,H1
22980,51015,Waynesboro,VA,Augusta County,H1
24441,51015,Grottoes,VA,Augusta County,H1
24479,51015,Swoope,VA,Augusta County,H1
22952,51015,Lyndhurst,VA,Augusta County,H1
24472,51015,Raphine,VA,Augusta County,H1
24411,51015,Augusta springs,VA,Augusta County,H1
24401,51015,Staunton,VA,Augusta County,H1
24459,51015,Middlebrook,VA,Augusta County,H1
24421,51015,Churchville,VA,Augusta County,H1
22939,51015,Fishersville,VA,Augusta County,H1
24485,51015,West augusta,VA,Augusta County,H1
24430,51015,Craigsville,VA,Augusta County,H1
24476,51015,Steeles tavern,VA,Augusta County,H1
24469,51015,New hope,VA,Augusta County,H1
24439,51015,Goshen,VA,Augusta County,H1
24432,51015,Deerfield,VA,Augusta County,H1
24431,51015,Crimora,VA,Augusta County,H1
24460,51017,Millboro,VA,Bath County,H1
24422,51017,Clifton forge,VA,Bath County,H1
24445,51017,Hot springs,VA,Bath County,H1
24412,51017,Bacova,VA,Bath County,H1
24487,51017,Williamsville,VA,Bath County,H1
24484,51017,Warm springs,VA,Bath County,H1
24432,51017,Deerfield,VA,Bath County,H1
24104,51019,Huddleston,VA,Bedford County,H1
24122,51019,Montvale,VA,Bedford County,H1
24139,51019,Pittsville,VA,Bedford County,H1
24503,51019,Lynchburg,VA,Bedford County,H1
24536,51019,Coleman falls,VA,Bedford County,H1
24523,51019,Bedford,VA,Bedford County,H1
24550,51019,Evington,VA,Bedford County,H1
24101,51019,Hardy,VA,Bedford County,H1
24179,51019,Vinton,VA,Bedford County,H1
24502,51019,Lynchburg,VA,Bedford County,H1
24570,51019,Lowry,VA,Bedford County,H1
24064,51019,Blue ridge,VA,Bedford County,H1
24174,51019,Thaxton,VA,Bedford County,H1
24501,51019,Lynchburg,VA,Bedford County,H1
24556,51019,Goode,VA,Bedford County,H1
24095,51019,Goodview,VA,Bedford County,H1
24551,51019,Forest,VA,Bedford County,H1
24571,51019,Lynch station,VA,Bedford County,H1
24121,51019,Moneta,VA,Bedford County,H1
24526,51019,Big island,VA,Bedford County,H1
24084,51021,Dublin,VA,Bland County,H1
24315,51021,Bland,VA,Bland County,H1
24314,51021,Bastian,VA,Bland County,H1
24124,51021,Narrows,VA,Bland County,H1
24134,51021,Pearisburg,VA,Bland County,H1
24366,51021,Rocky gap,VA,Bland County,H1
24318,51021,Ceres,VA,Bland County,H1
24012,51023,Roanoke,VA,Botetourt County,H1
24090,51023,Fincastle,VA,Botetourt County,H1
24175,51023,Troutville,VA,Botetourt County,H1
24579,51023,Natural bridge station,VA,Botetourt County,H1
24066,51023,Buchanan,VA,Botetourt County,H1
24450,51023,Lexington,VA,Botetourt County,H1
24085,51023,Eagle rock,VA,Botetourt County,H1
24422,51023,Clifton forge,VA,Botetourt County,H1
24077,51023,Cloverdale,VA,Botetourt County,H1
24083,51023,Daleville,VA,Botetourt County,H1
24064,51023,Blue ridge,VA,Botetourt County,H1
24019,51023,Roanoke,VA,Botetourt County,H1
24155,51023,Roanoke,VA,Botetourt County,H1
24130,51023,Oriskany,VA,Botetourt County,H1
24438,51023,Glen wilton,VA,Botetourt County,H1
23887,51025,Valentines,VA,Brunswick County,H1
23843,51025,Dolphin,VA,Brunswick County,H1
23845,51025,Ebony,VA,Brunswick County,H1
23873,51025,Meredithville,VA,Brunswick County,H1
23919,51025,Bracey,VA,Brunswick County,H1
23856,51025,Freeman,VA,Brunswick County,H1
23847,51025,Emporia,VA,Brunswick County,H1
23876,51025,Rawlings,VA,Brunswick County,H1
23868,51025,Lawrenceville,VA,Brunswick County,H1
23889,51025,Warfield,VA,Brunswick County,H1
23893,51025,White plains,VA,Brunswick County,H1
23920,51025,Brodnax,VA,Brunswick County,H1
23938,51025,Dundas,VA,Brunswick County,H1
23824,51025,Blackstone,VA,Brunswick County,H1
23950,51025,La crosse,VA,Brunswick County,H1
23857,51025,Gasburg,VA,Brunswick County,H1
23821,51025,Alberta,VA,Brunswick County,H1
24634,51027,Pilgrims knob,VA,Buchanan County,H1
24631,51027,Oakwood,VA,Buchanan County,H1
24603,51027,Big rock,VA,Buchanan County,H1
24256,51027,Haysi,VA,Buchanan County,H1
24620,51027,Hurley,VA,Buchanan County,H1
24622,51027,Jewell ridge,VA,Buchanan County,H1
24656,51027,Vansant,VA,Buchanan County,H1
24657,51027,Whitewood,VA,Buchanan County,H1
24639,51027,Raven,VA,Buchanan County,H1
24628,51027,Maxie,VA,Buchanan County,H1
24658,51027,Wolford,VA,Buchanan County,H1
24614,51027,Grundy,VA,Buchanan County,H1
24260,51027,Honaker,VA,Buchanan County,H1
24217,51027,Bee,VA,Buchanan County,H1
24649,51027,Swords creek,VA,Buchanan County,H1
24646,51027,Rowe,VA,Buchanan County,H1
24239,51027,Davenport,VA,Buchanan County,H1
24624,51027,Keen mountain,VA,Buchanan County,H1
24627,51027,Mavisdale,VA,Buchanan County,H1
23936,51029,Dillwyn,VA,Buckingham County,H1
23921,51029,Buckingham,VA,Buckingham County,H1
24599,51029,Wingina,VA,Buckingham County,H1
23901,51029,Farmville,VA,Buckingham County,H1
23004,51029,Arvonia,VA,Buckingham County,H1
23123,51029,New canton,VA,Buckingham County,H1
23040,51029,Cumberland,VA,Buckingham County,H1
24522,51029,Appomattox,VA,Buckingham County,H1
24562,51029,Howardsville,VA,Buckingham County,H1
24553,51029,Gladstone,VA,Buckingham County,H1
24590,51029,Scottsville,VA,Buckingham County,H1
24504,51031,Lynchburg,VA,Campbell County,H1
24588,51031,Rustburg,VA,Campbell County,H1
24593,51031,Spout spring,VA,Campbell County,H1
24550,51031,Evington,VA,Campbell County,H1
24502,51031,Lynchburg,VA,Campbell County,H1
24538,51031,Concord,VA,Campbell County,H1
24554,51031,Gladys,VA,Campbell County,H1
24522,51031,Appomattox,VA,Campbell County,H1
24501,51031,Lynchburg,VA,Campbell County,H1
24528,51031,Brookneal,VA,Campbell County,H1
24517,51031,Altavista,VA,Campbell County,H1
24576,51031,Naruna,VA,Campbell County,H1
24551,51031,Forest,VA,Campbell County,H1
24569,51031,Long island,VA,Campbell County,H1
24571,51031,Lynch station,VA,Campbell County,H1
23963,51031,Red house,VA,Campbell County,H1
22427,51033,Bowling green,VA,Caroline County,H1
22438,51033,Champlain,VA,Caroline County,H1
22408,51033,Fredericksburg,VA,Caroline County,H1
22514,51033,Milford,VA,Caroline County,H1
22560,51033,Tappahannock,VA,Caroline County,H1
22436,51033,Caret,VA,Caroline County,H1
22535,51033,Port royal,VA,Caroline County,H1
22552,51033,Sparta,VA,Caroline County,H1
22546,51033,Ruther glen,VA,Caroline County,H1
22446,51033,Corbin,VA,Caroline County,H1
22580,51033,Woodford,VA,Caroline County,H1
22501,51033,Ladysmith,VA,Caroline County,H1
23015,51033,Beaverdam,VA,Caroline County,H1
23047,51033,Doswell,VA,Caroline County,H1
22428,51033,Bowling green,VA,Caroline County,H1
23069,51033,Hanover,VA,Caroline County,H1
22538,51033,Rappahannock academy,VA,Caroline County,H1
24330,51035,Fries,VA,Carroll County,H1
24360,51035,Max meadows,VA,Carroll County,H1
24333,51035,Galax,VA,Carroll County,H1
24317,51035,Cana,VA,Carroll County,H1
24328,51035,Fancy gap,VA,Carroll County,H1
24352,51035,Laurel fork,VA,Carroll County,H1
24053,51035,Ararat,VA,Carroll County,H1
24105,51035,Indian valley,VA,Carroll County,H1
24347,51035,Hiwassee,VA,Carroll County,H1
24350,51035,Ivanhoe,VA,Carroll County,H1
24343,51035,Hillsville,VA,Carroll County,H1
24120,51035,Meadows of dan,VA,Carroll County,H1
24325,51035,Dugspur,VA,Carroll County,H1
24312,51035,Austinville,VA,Carroll County,H1
24380,51035,Willis,VA,Carroll County,H1
24381,51035,Woodlawn,VA,Carroll County,H1
24351,51035,Lambsburg,VA,Carroll County,H1
23030,51036,Charles city,VA,Charles City County,H1
23185,51036,Williamsburg,VA,Charles City County,H1
23147,51036,Ruthville,VA,Charles City County,H1
23231,51036,Henrico,VA,Charles City County,H1
23140,51036,Providence forge,VA,Charles City County,H1
23937,51037,Drakes branch,VA,Charlotte County,H1
23959,51037,Phenix,VA,Charlotte County,H1
23967,51037,Saxe,VA,Charlotte County,H1
23962,51037,Randolph,VA,Charlotte County,H1
23947,51037,Keysville,VA,Charlotte County,H1
23934,51037,Cullen,VA,Charlotte County,H1
23924,51037,Chase city,VA,Charlotte County,H1
24522,51037,Appomattox,VA,Charlotte County,H1
24528,51037,Brookneal,VA,Charlotte County,H1
23964,51037,Red oak,VA,Charlotte County,H1
23927,51037,Clarksville,VA,Charlotte County,H1
23976,51037,Wylliesburg,VA,Charlotte County,H1
23923,51037,Charlotte court house,VA,Charlotte County,H1
23958,51037,Pamplin,VA,Charlotte County,H1
23963,51037,Red house,VA,Charlotte County,H1
23224,51041,Richmond,VA,Chesterfield County,H1
23235,51041,Richmond,VA,Chesterfield County,H1
23834,51041,Colonial heights,VA,Chesterfield County,H1
23113,51041,Midlothian,VA,Chesterfield County,H1
23114,51041,Midlothian,VA,Chesterfield County,H1
23112,51041,Midlothian,VA,Chesterfield County,H1
23236,51041,Richmond,VA,Chesterfield County,H1
23803,51041,Petersburg,VA,Chesterfield County,H1
23838,51041,Chesterfield,VA,Chesterfield County,H1
23120,51041,Moseley,VA,Chesterfield County,H1
23832,51041,Chesterfield,VA,Chesterfield County,H1
23234,51041,Richmond,VA,Chesterfield County,H1
23831,51041,Chester,VA,Chesterfield County,H1
23836,51041,Chester,VA,Chesterfield County,H1
23225,51041,Richmond,VA,Chesterfield County,H1
23237,51041,Richmond,VA,Chesterfield County,H1
23297,51041,Richmond,VA,Chesterfield County,H1
22630,51043,Front royal,VA,Clarke County,H1
20135,51043,Bluemont,VA,Clarke County,H1
20130,51043,Paris,VA,Clarke County,H1
22611,51043,Berryville,VA,Clarke County,H1
22620,51043,Boyce,VA,Clarke County,H1
22663,51043,White post,VA,Clarke County,H1
22646,51043,Millwood,VA,Clarke County,H1
24128,51045,Newport,VA,Craig County,H1
24127,51045,New castle,VA,Craig County,H1
24070,51045,Catawba,VA,Craig County,H1
24131,51045,Paint bank,VA,Craig County,H1
24426,51045,Covington,VA,Craig County,H1
20186,51047,Warrenton,VA,Culpeper County,H1
22718,51047,Elkwood,VA,Culpeper County,H1
22726,51047,Lignum,VA,Culpeper County,H1
22714,51047,Brandy station,VA,Culpeper County,H1
20106,51047,Amissville,VA,Culpeper County,H1
22736,51047,Richardsville,VA,Culpeper County,H1
22733,51047,Rapidan,VA,Culpeper County,H1
22729,51047,Mitchells,VA,Culpeper County,H1
22716,51047,Castleton,VA,Culpeper County,H1
22724,51047,Jeffersonton,VA,Culpeper County,H1
22713,51047,Boston,VA,Culpeper County,H1
22701,51047,Culpeper,VA,Culpeper County,H1
22735,51047,Reva,VA,Culpeper County,H1
22734,51047,Remington,VA,Culpeper County,H1
22741,51047,Stevensburg,VA,Culpeper County,H1
22740,51047,Sperryville,VA,Culpeper County,H1
22407,51047,Fredericksburg,VA,Culpeper County,H1
22737,51047,Rixeyville,VA,Culpeper County,H1
23936,51049,Dillwyn,VA,Cumberland County,H1
23027,51049,Cartersville,VA,Cumberland County,H1
23901,51049,Farmville,VA,Cumberland County,H1
23038,51049,Columbia,VA,Cumberland County,H1
23123,51049,New canton,VA,Cumberland County,H1
23040,51049,Cumberland,VA,Cumberland County,H1
23139,51049,Powhatan,VA,Cumberland County,H1
24237,51051,Dante,VA,Dickenson County,H1
24230,51051,Coeburn,VA,Dickenson County,H1
24220,51051,Birchleaf,VA,Dickenson County,H1
24226,51051,Clinchco,VA,Dickenson County,H1
24256,51051,Haysi,VA,Dickenson County,H1
24225,51051,Cleveland,VA,Dickenson County,H1
24283,51051,Saint paul,VA,Dickenson County,H1
24607,51051,Breaks,VA,Dickenson County,H1
24656,51051,Vansant,VA,Dickenson County,H1
24228,51051,Clintwood,VA,Dickenson County,H1
24217,51051,Bee,VA,Dickenson County,H1
24272,51051,Nora,VA,Dickenson County,H1
24269,51051,Mc clure,VA,Dickenson County,H1
23833,51053,Church road,VA,Dinwiddie County,H1
23803,51053,Petersburg,VA,Dinwiddie County,H1
23840,51053,Dewitt,VA,Dinwiddie County,H1
23805,51053,Petersburg,VA,Dinwiddie County,H1
23885,51053,Sutherland,VA,Dinwiddie County,H1
23872,51053,Mc kenney,VA,Dinwiddie County,H1
23824,51053,Blackstone,VA,Dinwiddie County,H1
23882,51053,Stony creek,VA,Dinwiddie County,H1
23894,51053,Wilsons,VA,Dinwiddie County,H1
23850,51053,Ford,VA,Dinwiddie County,H1
23830,51053,Carson,VA,Dinwiddie County,H1
23841,51053,Dinwiddie,VA,Dinwiddie County,H1
22438,51057,Champlain,VA,Essex County,H1
23148,51057,Saint stephens church,VA,Essex County,H1
22454,51057,Dunnsville,VA,Essex County,H1
22509,51057,Loretto,VA,Essex County,H1
22560,51057,Tappahannock,VA,Essex County,H1
22436,51057,Caret,VA,Essex County,H1
23023,51057,Bruington,VA,Essex County,H1
23115,51057,Millers tavern,VA,Essex County,H1
22437,51057,Center cross,VA,Essex County,H1
22476,51057,Hustle,VA,Essex County,H1
22504,51057,Laneview,VA,Essex County,H1
20171,51059,Herndon,VA,Fairfax County,H1
22151,51059,Springfield,VA,Fairfax County,H1
22180,51059,Vienna,VA,Fairfax County,H1
22122,51059,Newington,VA,Fairfax County,H1
22181,51059,Vienna,VA,Fairfax County,H1
22315,51059,Alexandria,VA,Fairfax County,H1
22027,51059,Dunn loring,VA,Fairfax County,H1
22106,51059,Mc lean,VA,Fairfax County,H1
20195,51059,Reston,VA,Fairfax County,H1
22037,51059,Fairfax,VA,Fairfax County,H1
22158,51059,Springfield,VA,Fairfax County,H1
20192,51059,Herndon,VA,Fairfax County,H1
20124,51059,Clifton,VA,Fairfax County,H1
20120,51059,Centreville,VA,Fairfax County,H1
20164,51059,Sterling,VA,Fairfax County,H1
20191,51059,Reston,VA,Fairfax County,H1
22003,51059,Annandale,VA,Fairfax County,H1
22030,51059,Fairfax,VA,Fairfax County,H1
22043,51059,Falls church,VA,Fairfax County,H1
22102,51059,Mc lean,VA,Fairfax County,H1
22308,51059,Alexandria,VA,Fairfax County,H1
22121,51059,Mount vernon,VA,Fairfax County,H1
22035,51059,Fairfax,VA,Fairfax County,H1
22081,51059,Merrifield,VA,Fairfax County,H1
22082,51059,Merrifield,VA,Fairfax County,H1
22044,51059,Falls church,VA,Fairfax County,H1
22183,51059,Vienna,VA,Fairfax County,H1
22312,51059,Alexandria,VA,Fairfax County,H1
22159,51059,Springfield,VA,Fairfax County,H1
22108,51059,Mc lean,VA,Fairfax County,H1
20041,51059,Washington,VA,Fairfax County,H1
22161,51059,Springfield,VA,Fairfax County,H1
20190,51059,Reston,VA,Fairfax County,H1
20194,51059,Reston,VA,Fairfax County,H1
22041,51059,Falls church,VA,Fairfax County,H1
22101,51059,Mc lean,VA,Fairfax County,H1
22124,51059,Oakton,VA,Fairfax County,H1
22150,51059,Springfield,VA,Fairfax County,H1
22204,51059,Arlington,VA,Fairfax County,H1
22302,51059,Alexandria,VA,Fairfax County,H1
22304,51059,Alexandria,VA,Fairfax County,H1
22067,51059,Greenway,VA,Fairfax County,H1
20152,51059,Chantilly,VA,Fairfax County,H1
20170,51059,Herndon,VA,Fairfax County,H1
20165,51059,Sterling,VA,Fairfax County,H1
22046,51059,Falls church,VA,Fairfax County,H1
22066,51059,Great falls,VA,Fairfax County,H1
22152,51059,Springfield,VA,Fairfax County,H1
22079,51059,Lorton,VA,Fairfax County,H1
22116,51059,Merrifield,VA,Fairfax County,H1
22160,51059,Springfield,VA,Fairfax County,H1
20070,51059,Washington,VA,Fairfax County,H1
20206,51059,Washington,VA,Fairfax County,H1
20598,51059,Dhs,VA,Fairfax County,H1
20122,51059,Centreville,VA,Fairfax County,H1
22009,51059,Burke,VA,Fairfax County,H1
22039,51059,Fairfax station,VA,Fairfax County,H1
22303,51059,Alexandria,VA,Fairfax County,H1
22306,51059,Alexandria,VA,Fairfax County,H1
22213,51059,Arlington,VA,Fairfax County,H1
22103,51059,West mclean,VA,Fairfax County,H1
22185,51059,Vienna,VA,Fairfax County,H1
20121,51059,Centreville,VA,Fairfax County,H1
20153,51059,Chantilly,VA,Fairfax County,H1
22015,51059,Burke,VA,Fairfax County,H1
22031,51059,Fairfax,VA,Fairfax County,H1
22042,51059,Falls church,VA,Fairfax County,H1
22153,51059,Springfield,VA,Fairfax County,H1
22060,51059,Fort belvoir,VA,Fairfax County,H1
22206,51059,Arlington,VA,Fairfax County,H1
22207,51059,Arlington,VA,Fairfax County,H1
22310,51059,Alexandria,VA,Fairfax County,H1
22199,51059,Lorton,VA,Fairfax County,H1
22107,51059,Mc lean,VA,Fairfax County,H1
20151,51059,Chantilly,VA,Fairfax County,H1
22033,51059,Fairfax,VA,Fairfax County,H1
22032,51059,Fairfax,VA,Fairfax County,H1
22182,51059,Vienna,VA,Fairfax County,H1
22307,51059,Alexandria,VA,Fairfax County,H1
22311,51059,Alexandria,VA,Fairfax County,H1
22309,51059,Alexandria,VA,Fairfax County,H1
20172,51059,Herndon,VA,Fairfax County,H1
22109,51059,Mc lean,VA,Fairfax County,H1
20069,51059,Washington,VA,Fairfax County,H1
22406,51061,Fredericksburg,VA,Fauquier County,H1
20128,51061,Orlean,VA,Fauquier County,H1
20139,51061,Casanova,VA,Fauquier County,H1
20115,51061,Marshall,VA,Fauquier County,H1
20186,51061,Warrenton,VA,Fauquier County,H1
20181,51061,Nokesville,VA,Fauquier County,H1
22639,51061,Hume,VA,Fauquier County,H1
20106,51061,Amissville,VA,Fauquier County,H1
22720,51061,Goldvein,VA,Fauquier County,H1
22556,51061,Stafford,VA,Fauquier County,H1
20144,51061,Delaplane,VA,Fauquier County,H1
20137,51061,Broad run,VA,Fauquier County,H1
22642,51061,Linden,VA,Fauquier County,H1
20138,51061,Calverton,VA,Fauquier County,H1
20130,51061,Paris,VA,Fauquier County,H1
20169,51061,Haymarket,VA,Fauquier County,H1
22643,51061,Markham,VA,Fauquier County,H1
22712,51061,Bealeton,VA,Fauquier County,H1
22734,51061,Remington,VA,Fauquier County,H1
22728,51061,Midland,VA,Fauquier County,H1
20198,51061,The plains,VA,Fauquier County,H1
20184,51061,Upperville,VA,Fauquier County,H1
20188,51061,Warrenton,VA,Fauquier County,H1
20140,51061,Rectortown,VA,Fauquier County,H1
20117,51061,Middleburg,VA,Fauquier County,H1
20187,51061,Warrenton,VA,Fauquier County,H1
22742,51061,Sumerduck,VA,Fauquier County,H1
20119,51061,Catlett,VA,Fauquier County,H1
24091,51063,Floyd,VA,Floyd County,H1
24149,51063,Riner,VA,Floyd County,H1
24352,51063,Laurel fork,VA,Floyd County,H1
24059,51063,Bent mountain,VA,Floyd County,H1
24079,51063,Copper hill,VA,Floyd County,H1
24105,51063,Indian valley,VA,Floyd County,H1
24141,51063,Radford,VA,Floyd County,H1
24162,51063,Shawsville,VA,Floyd County,H1
24120,51063,Meadows of dan,VA,Floyd County,H1
24138,51063,Pilot,VA,Floyd County,H1
24380,51063,Willis,VA,Floyd County,H1
24072,51063,Check,VA,Floyd County,H1
22963,51065,Palmyra,VA,Fluvanna County,H1
23055,51065,Fork union,VA,Fluvanna County,H1
23093,51065,Louisa,VA,Fluvanna County,H1
22947,51065,Keswick,VA,Fluvanna County,H1
23038,51065,Columbia,VA,Fluvanna County,H1
23084,51065,Kents store,VA,Fluvanna County,H1
22974,51065,Troy,VA,Fluvanna County,H1
23022,51065,Bremo bluff,VA,Fluvanna County,H1
24590,51065,Scottsville,VA,Fluvanna County,H1
24014,51067,Roanoke,VA,Franklin County,H1
24146,51067,Redwood,VA,Franklin County,H1
24055,51067,Bassett,VA,Franklin County,H1
24065,51067,Boones mill,VA,Franklin County,H1
24091,51067,Floyd,VA,Franklin County,H1
24092,51067,Glade hill,VA,Franklin County,H1
24112,51067,Martinsville,VA,Franklin County,H1
24059,51067,Bent mountain,VA,Franklin County,H1
24079,51067,Copper hill,VA,Franklin County,H1
24088,51067,Ferrum,VA,Franklin County,H1
24101,51067,Hardy,VA,Franklin County,H1
24102,51067,Henry,VA,Franklin County,H1
24151,51067,Rocky mount,VA,Franklin County,H1
24067,51067,Callaway,VA,Franklin County,H1
24137,51067,Penhook,VA,Franklin County,H1
24184,51067,Wirtz,VA,Franklin County,H1
24121,51067,Moneta,VA,Franklin County,H1
24176,51067,Union hall,VA,Franklin County,H1
22601,51069,Winchester,VA,Frederick County,H1
22630,51069,Front royal,VA,Frederick County,H1
22645,51069,Middletown,VA,Frederick County,H1
22624,51069,Clear brook,VA,Frederick County,H1
22602,51069,Winchester,VA,Frederick County,H1
22622,51069,Brucetown,VA,Frederick County,H1
22637,51069,Gore,VA,Frederick County,H1
22656,51069,Stephenson,VA,Frederick County,H1
22655,51069,Stephens city,VA,Frederick County,H1
22654,51069,Star tannery,VA,Frederick County,H1
22625,51069,Cross junction,VA,Frederick County,H1
22603,51069,Winchester,VA,Frederick County,H1
22663,51069,White post,VA,Frederick County,H1
24315,51071,Bland,VA,Giles County,H1
24147,51071,Rich creek,VA,Giles County,H1
24128,51071,Newport,VA,Giles County,H1
24150,51071,Ripplemead,VA,Giles County,H1
24136,51071,Pembroke,VA,Giles County,H1
24124,51071,Narrows,VA,Giles County,H1
24134,51071,Pearisburg,VA,Giles County,H1
24086,51071,Eggleston,VA,Giles County,H1
24167,51071,Staffordsville,VA,Giles County,H1
24093,51071,Glen lyn,VA,Giles County,H1
23001,51073,Achilles,VA,Gloucester County,H1
23154,51073,Schley,VA,Gloucester County,H1
23155,51073,Severn,VA,Gloucester County,H1
23072,51073,Hayes,VA,Gloucester County,H1
23183,51073,White marsh,VA,Gloucester County,H1
23003,51073,Ark,VA,Gloucester County,H1
23018,51073,Bena,VA,Gloucester County,H1
23128,51073,North,VA,Gloucester County,H1
23131,51073,Ordinary,VA,Gloucester County,H1
23184,51073,Wicomico,VA,Gloucester County,H1
23061,51073,Gloucester,VA,Gloucester County,H1
23050,51073,Dutton,VA,Gloucester County,H1
23062,51073,Gloucester point,VA,Gloucester County,H1
23149,51073,Saluda,VA,Gloucester County,H1
23190,51073,Woods cross roads,VA,Gloucester County,H1
23178,51073,Ware neck,VA,Gloucester County,H1
23065,51075,Gum spring,VA,Goochland County,H1
23093,51075,Louisa,VA,Goochland County,H1
23059,51075,Glen allen,VA,Goochland County,H1
23117,51075,Mineral,VA,Goochland County,H1
23102,51075,Maidens,VA,Goochland County,H1
23067,51075,Hadensville,VA,Goochland County,H1
23233,51075,Henrico,VA,Goochland County,H1
23039,51075,Crozier,VA,Goochland County,H1
23129,51075,Oilville,VA,Goochland County,H1
23160,51075,State farm,VA,Goochland County,H1
23063,51075,Goochland,VA,Goochland County,H1
23038,51075,Columbia,VA,Goochland County,H1
23103,51075,Manakin sabot,VA,Goochland County,H1
23153,51075,Sandy hook,VA,Goochland County,H1
23146,51075,Rockville,VA,Goochland County,H1
23238,51075,Henrico,VA,Goochland County,H1
23084,51075,Kents store,VA,Goochland County,H1
24330,51077,Fries,VA,Grayson County,H1
24333,51077,Galax,VA,Grayson County,H1
24326,51077,Elk creek,VA,Grayson County,H1
24348,51077,Independence,VA,Grayson County,H1
24363,51077,Mouth of wilson,VA,Grayson County,H1
24350,51077,Ivanhoe,VA,Grayson County,H1
24430,51077,Craigsville,VA,Grayson County,H1
24292,51077,Whitetop,VA,Grayson County,H1
24378,51077,Troutdale,VA,Grayson County,H1
22935,51079,Dyke,VA,Greene County,H1
22940,51079,Free union,VA,Greene County,H1
22965,51079,Quinque,VA,Greene County,H1
22923,51079,Barboursville,VA,Greene County,H1
22936,51079,Earlysville,VA,Greene County,H1
22968,51079,Ruckersville,VA,Greene County,H1
22973,51079,Stanardsville,VA,Greene County,H1
23887,51081,Valentines,VA,Greensville County,H1
23867,51081,Jarratt,VA,Greensville County,H1
23856,51081,Freeman,VA,Greensville County,H1
23847,51081,Emporia,VA,Greensville County,H1
23870,51081,Jarratt,VA,Greensville County,H1
23879,51081,Skippers,VA,Greensville County,H1
24534,51083,Clover,VA,Halifax County,H1
24565,51083,Java,VA,Halifax County,H1
24594,51083,Sutherlin,VA,Halifax County,H1
24577,51083,Nathalie,VA,Halifax County,H1
24558,51083,Halifax,VA,Halifax County,H1
24520,51083,Alton,VA,Halifax County,H1
24539,51083,Crystal hill,VA,Halifax County,H1
23962,51083,Randolph,VA,Halifax County,H1
24597,51083,Vernon hill,VA,Halifax County,H1
24598,51083,Virgilina,VA,Halifax County,H1
24529,51083,Buffalo junction,VA,Halifax County,H1
24589,51083,Scottsburg,VA,Halifax County,H1
24557,51083,Gretna,VA,Halifax County,H1
24569,51083,Long island,VA,Halifax County,H1
24592,51083,South boston,VA,Halifax County,H1
24535,51083,Cluster springs,VA,Halifax County,H1
23059,51085,Glen allen,VA,Hanover County,H1
23116,51085,Mechanicsville,VA,Hanover County,H1
23102,51085,Maidens,VA,Hanover County,H1
23192,51085,Montpelier,VA,Hanover County,H1
23129,51085,Oilville,VA,Hanover County,H1
23162,51085,Studley,VA,Hanover County,H1
22546,51085,Ruther glen,VA,Hanover County,H1
23005,51085,Ashland,VA,Hanover County,H1
23124,51085,New kent,VA,Hanover County,H1
23015,51085,Beaverdam,VA,Hanover County,H1
23047,51085,Doswell,VA,Hanover County,H1
23111,51085,Mechanicsville,VA,Hanover County,H1
23146,51085,Rockville,VA,Hanover County,H1
23024,51085,Bumpass,VA,Hanover County,H1
23069,51085,Hanover,VA,Hanover County,H1
23030,51087,Charles city,VA,Henrico County,H1
23222,51087,Richmond,VA,Henrico County,H1
23229,51087,Henrico,VA,Henrico County,H1
23059,51087,Glen allen,VA,Henrico County,H1
23060,51087,Glen allen,VA,Henrico County,H1
23231,51087,Henrico,VA,Henrico County,H1
23294,51087,Henrico,VA,Henrico County,H1
23058,51087,Glen allen,VA,Henrico County,H1
23250,51087,Richmond,VA,Henrico County,H1
23150,51087,Sandston,VA,Henrico County,H1
23233,51087,Henrico,VA,Henrico County,H1
23255,51087,Henrico,VA,Henrico County,H1
23227,51087,Richmond,VA,Henrico County,H1
23242,51087,Henrico,VA,Henrico County,H1
23223,51087,Richmond,VA,Henrico County,H1
23273,51087,Henrico,VA,Henrico County,H1
23075,51087,Henrico,VA,Henrico County,H1
23226,51087,Richmond,VA,Henrico County,H1
23228,51087,Henrico,VA,Henrico County,H1
23230,51087,Richmond,VA,Henrico County,H1
23238,51087,Henrico,VA,Henrico County,H1
24133,51089,Patrick springs,VA,Henry County,H1
24055,51089,Bassett,VA,Henry County,H1
24078,51089,Collinsville,VA,Henry County,H1
24112,51089,Martinsville,VA,Henry County,H1
24054,51089,Axton,VA,Henry County,H1
24165,51089,Spencer,VA,Henry County,H1
24168,51089,Stanleytown,VA,Henry County,H1
24102,51089,Henry,VA,Henry County,H1
24148,51089,Ridgeway,VA,Henry County,H1
24530,51089,Callands,VA,Henry County,H1
24089,51089,Fieldale,VA,Henry County,H1
24413,51091,Blue grass,VA,Highland County,H1
24442,51091,Head waters,VA,Highland County,H1
24465,51091,Monterey,VA,Highland County,H1
24433,51091,Doe hill,VA,Highland County,H1
24487,51091,Williamsville,VA,Highland County,H1
24468,51091,Mustoe,VA,Highland County,H1
24458,51091,Mc dowell,VA,Highland County,H1
24484,51091,Warm springs,VA,Highland County,H1
23314,51093,Carrollton,VA,Isle of Wight County,H1
23432,51093,Suffolk,VA,Isle of Wight County,H1
23424,51093,Rescue,VA,Isle of Wight County,H1
23397,51093,Isle of wight,VA,Isle of Wight County,H1
23487,51093,Windsor,VA,Isle of Wight County,H1
23851,51093,Franklin,VA,Isle of Wight County,H1
23898,51093,Zuni,VA,Isle of Wight County,H1
23304,51093,Battery park,VA,Isle of Wight County,H1
23315,51093,Carrsville,VA,Isle of Wight County,H1
23430,51093,Smithfield,VA,Isle of Wight County,H1
23431,51093,Smithfield,VA,Isle of Wight County,H1
23866,51093,Ivor,VA,Isle of Wight County,H1
23185,51095,Williamsburg,VA,James City County,H1
23081,51095,Jamestown,VA,James City County,H1
23188,51095,Williamsburg,VA,James City County,H1
23089,51095,Lanexa,VA,James City County,H1
23168,51095,Toano,VA,James City County,H1
23127,51095,Norge,VA,James City County,H1
23156,51097,Shacklefords,VA,King and Queen County,H1
23148,51097,Saint stephens church,VA,King and Queen County,H1
22514,51097,Milford,VA,King and Queen County,H1
22560,51097,Tappahannock,VA,King and Queen County,H1
23023,51097,Bruington,VA,King and Queen County,H1
23126,51097,Newtown,VA,King and Queen County,H1
22437,51097,Center cross,VA,King and Queen County,H1
23091,51097,Little plymouth,VA,King and Queen County,H1
23181,51097,West point,VA,King and Queen County,H1
23108,51097,Mascot,VA,King and Queen County,H1
23177,51097,Walkerton,VA,King and Queen County,H1
23110,51097,Mattaponi,VA,King and Queen County,H1
23149,51097,Saluda,VA,King and Queen County,H1
23085,51097,King and queen court house,VA,King and Queen County,H1
23161,51097,Stevensville,VA,King and Queen County,H1
22451,51099,Dogue,VA,King George County,H1
22448,51099,Dahlgren,VA,King George County,H1
22443,51099,Colonial beach,VA,King George County,H1
22485,51099,King george,VA,King George County,H1
22544,51099,Rollins fork,VA,King George County,H1
22481,51099,Jersey,VA,King George County,H1
22547,51099,Sealston,VA,King George County,H1
22526,51099,Ninde,VA,King George County,H1
23086,51101,King william,VA,King William County,H1
23009,51101,Aylett,VA,King William County,H1
23181,51101,West point,VA,King William County,H1
23106,51101,Manquin,VA,King William County,H1
23069,51101,Hanover,VA,King William County,H1
23177,51101,Walkerton,VA,King William County,H1
22523,51103,Morattico,VA,Lancaster County,H1
22578,51103,White stone,VA,Lancaster County,H1
22576,51103,Weems,VA,Lancaster County,H1
22482,51103,Kilmarnock,VA,Lancaster County,H1
22503,51103,Lancaster,VA,Lancaster County,H1
22480,51103,Irvington,VA,Lancaster County,H1
22528,51103,Nuttsville,VA,Lancaster County,H1
22473,51103,Heathsville,VA,Lancaster County,H1
22517,51103,Mollusk,VA,Lancaster County,H1
22513,51103,Merry point,VA,Lancaster County,H1
22507,51103,Lively,VA,Lancaster County,H1
24219,51105,Big stone gap,VA,Lee County,H1
24221,51105,Blackwater,VA,Lee County,H1
24243,51105,Dryden,VA,Lee County,H1
24248,51105,Ewing,VA,Lee County,H1
24265,51105,Keokee,VA,Lee County,H1
24281,51105,Rose hill,VA,Lee County,H1
24277,51105,Pennington gap,VA,Lee County,H1
24282,51105,Saint charles,VA,Lee County,H1
24218,51105,Ben hur,VA,Lee County,H1
24263,51105,Jonesville,VA,Lee County,H1
24244,51105,Duffield,VA,Lee County,H1
20160,51107,Lincoln,VA,Loudoun County,H1
20135,51107,Bluemont,VA,Loudoun County,H1
20141,51107,Round hill,VA,Loudoun County,H1
20120,51107,Centreville,VA,Loudoun County,H1
20164,51107,Sterling,VA,Loudoun County,H1
20166,51107,Sterling,VA,Loudoun County,H1
20129,51107,Paeonian springs,VA,Loudoun County,H1
20101,51107,Dulles,VA,Loudoun County,H1
20132,51107,Purcellville,VA,Loudoun County,H1
20167,51107,Sterling,VA,Loudoun County,H1
20149,51107,Ashburn,VA,Loudoun County,H1
20189,51107,Dulles,VA,Loudoun County,H1
20175,51107,Leesburg,VA,Loudoun County,H1
20159,51107,Hamilton,VA,Loudoun County,H1
20152,51107,Chantilly,VA,Loudoun County,H1
20147,51107,Ashburn,VA,Loudoun County,H1
20165,51107,Sterling,VA,Loudoun County,H1
20177,51107,Leesburg,VA,Loudoun County,H1
20178,51107,Leesburg,VA,Loudoun County,H1
22066,51107,Great falls,VA,Loudoun County,H1
20158,51107,Hamilton,VA,Loudoun County,H1
20598,51107,Dhs,VA,Loudoun County,H1
20148,51107,Ashburn,VA,Loudoun County,H1
20130,51107,Paris,VA,Loudoun County,H1
20184,51107,Upperville,VA,Loudoun County,H1
20197,51107,Waterford,VA,Loudoun County,H1
20104,51107,Dulles,VA,Loudoun County,H1
20103,51107,Dulles,VA,Loudoun County,H1
20117,51107,Middleburg,VA,Loudoun County,H1
20176,51107,Leesburg,VA,Loudoun County,H1
20146,51107,Ashburn,VA,Loudoun County,H1
20105,51107,Aldie,VA,Loudoun County,H1
20151,51107,Chantilly,VA,Loudoun County,H1
20180,51107,Lovettsville,VA,Loudoun County,H1
20131,51107,Philomont,VA,Loudoun County,H1
23065,51109,Gum spring,VA,Louisa County,H1
23093,51109,Louisa,VA,Louisa County,H1
23117,51109,Mineral,VA,Louisa County,H1
23102,51109,Maidens,VA,Louisa County,H1
22942,51109,Gordonsville,VA,Louisa County,H1
23192,51109,Montpelier,VA,Louisa County,H1
22947,51109,Keswick,VA,Louisa County,H1
23015,51109,Beaverdam,VA,Louisa County,H1
23084,51109,Kents store,VA,Louisa County,H1
23170,51109,Trevilians,VA,Louisa County,H1
22974,51109,Troy,VA,Louisa County,H1
23024,51109,Bumpass,VA,Louisa County,H1
23944,51111,Kenbridge,VA,Lunenburg County,H1
23952,51111,Lunenburg,VA,Lunenburg County,H1
23937,51111,Drakes branch,VA,Lunenburg County,H1
23974,51111,Victoria,VA,Lunenburg County,H1
23947,51111,Keysville,VA,Lunenburg County,H1
23920,51111,Brodnax,VA,Lunenburg County,H1
23970,51111,South hill,VA,Lunenburg County,H1
23942,51111,Green bay,VA,Lunenburg County,H1
23938,51111,Dundas,VA,Lunenburg County,H1
23824,51111,Blackstone,VA,Lunenburg County,H1
23924,51111,Chase city,VA,Lunenburg County,H1
23954,51111,Meherrin,VA,Lunenburg County,H1
23923,51111,Charlotte court house,VA,Lunenburg County,H1
22709,51113,Aroda,VA,Madison County,H1
22732,51113,Radiant,VA,Madison County,H1
22948,51113,Locust dale,VA,Madison County,H1
22989,51113,Woodberry forest,VA,Madison County,H1
22715,51113,Brightwood,VA,Madison County,H1
22723,51113,Hood,VA,Madison County,H1
22972,51113,Somerset,VA,Madison County,H1
22748,51113,Wolftown,VA,Madison County,H1
22733,51113,Rapidan,VA,Madison County,H1
22743,51113,Syria,VA,Madison County,H1
22722,51113,Haywood,VA,Madison County,H1
22701,51113,Culpeper,VA,Madison County,H1
22735,51113,Reva,VA,Madison County,H1
22731,51113,Pratts,VA,Madison County,H1
22719,51113,Etlan,VA,Madison County,H1
22740,51113,Sperryville,VA,Madison County,H1
22725,51113,Leon,VA,Madison County,H1
22738,51113,Rochelle,VA,Madison County,H1
22711,51113,Banco,VA,Madison County,H1
22727,51113,Madison,VA,Madison County,H1
22730,51113,Oakpark,VA,Madison County,H1
22960,51113,Orange,VA,Madison County,H1
22973,51113,Stanardsville,VA,Madison County,H1
23068,51115,Hallieford,VA,Mathews County,H1
23066,51115,Gwynn,VA,Mathews County,H1
23109,51115,Mathews,VA,Mathews County,H1
23130,51115,Onemo,VA,Mathews County,H1
23035,51115,Cobbs creek,VA,Mathews County,H1
23125,51115,New point,VA,Mathews County,H1
23138,51115,Port haywood,VA,Mathews County,H1
23045,51115,Diggs,VA,Mathews County,H1
23025,51115,Cardinal,VA,Mathews County,H1
23076,51115,Hudgins,VA,Mathews County,H1
23128,51115,North,VA,Mathews County,H1
23021,51115,Bohannon,VA,Mathews County,H1
23056,51115,Foster,VA,Mathews County,H1
23050,51115,Dutton,VA,Mathews County,H1
23163,51115,Susan,VA,Mathews County,H1
23119,51115,Moon,VA,Mathews County,H1
23064,51115,Grimstead,VA,Mathews County,H1
23919,51117,Bracey,VA,Mecklenburg County,H1
23968,51117,Skipwith,VA,Mecklenburg County,H1
24598,51117,Virgilina,VA,Mecklenburg County,H1
23920,51117,Brodnax,VA,Mecklenburg County,H1
23970,51117,South hill,VA,Mecklenburg County,H1
24580,51117,Nelson,VA,Mecklenburg County,H1
23917,51117,Boydton,VA,Mecklenburg County,H1
23924,51117,Chase city,VA,Mecklenburg County,H1
24529,51117,Buffalo junction,VA,Mecklenburg County,H1
23950,51117,La crosse,VA,Mecklenburg County,H1
23964,51117,Red oak,VA,Mecklenburg County,H1
23927,51117,Clarksville,VA,Mecklenburg County,H1
23941,51117,Fort mitchell,VA,Mecklenburg County,H1
23915,51117,Baskerville,VA,Mecklenburg County,H1
23071,51119,Hartfield,VA,Middlesex County,H1
23169,51119,Topping,VA,Middlesex County,H1
23070,51119,Hardyville,VA,Middlesex County,H1
23175,51119,Urbanna,VA,Middlesex County,H1
23176,51119,Wake,VA,Middlesex County,H1
23079,51119,Jamaica,VA,Middlesex County,H1
23031,51119,Christchurch,VA,Middlesex County,H1
23092,51119,Locust hill,VA,Middlesex County,H1
23032,51119,Church view,VA,Middlesex County,H1
23180,51119,Water view,VA,Middlesex County,H1
22504,51119,Laneview,VA,Middlesex County,H1
23043,51119,Deltaville,VA,Middlesex County,H1
23149,51119,Saluda,VA,Middlesex County,H1
24068,51121,Christiansburg,VA,Montgomery County,H1
24128,51121,Newport,VA,Montgomery County,H1
24061,51121,Blacksburg,VA,Montgomery County,H1
24063,51121,Blacksburg,VA,Montgomery County,H1
24149,51121,Riner,VA,Montgomery County,H1
24059,51121,Bent mountain,VA,Montgomery County,H1
24347,51121,Hiwassee,VA,Montgomery County,H1
24111,51121,Mc coy,VA,Montgomery County,H1
24087,51121,Elliston,VA,Montgomery County,H1
24141,51121,Radford,VA,Montgomery County,H1
24162,51121,Shawsville,VA,Montgomery County,H1
24073,51121,Christiansburg,VA,Montgomery County,H1
24070,51121,Catawba,VA,Montgomery County,H1
24062,51121,Blacksburg,VA,Montgomery County,H1
24138,51121,Pilot,VA,Montgomery County,H1
24060,51121,Blacksburg,VA,Montgomery County,H1
22920,51125,Afton,VA,Nelson County,H1
22938,51125,Faber,VA,Nelson County,H1
22967,51125,Roseland,VA,Nelson County,H1
22964,51125,Piney river,VA,Nelson County,H1
24599,51125,Wingina,VA,Nelson County,H1
22976,51125,Tyro,VA,Nelson County,H1
24483,51125,Vesuvius,VA,Nelson County,H1
22922,51125,Arrington,VA,Nelson County,H1
22949,51125,Lovingston,VA,Nelson County,H1
22952,51125,Lyndhurst,VA,Nelson County,H1
24521,51125,Amherst,VA,Nelson County,H1
22971,51125,Shipman,VA,Nelson County,H1
24562,51125,Howardsville,VA,Nelson County,H1
24464,51125,Montebello,VA,Nelson County,H1
22958,51125,Nellysford,VA,Nelson County,H1
24581,51125,Norwood,VA,Nelson County,H1
22937,51125,Esmont,VA,Nelson County,H1
22969,51125,Schuyler,VA,Nelson County,H1
24553,51125,Gladstone,VA,Nelson County,H1
23140,51127,Providence forge,VA,New Kent County,H1
23141,51127,Quinton,VA,New Kent County,H1
23124,51127,New kent,VA,New Kent County,H1
23011,51127,Barhamsville,VA,New Kent County,H1
23089,51127,Lanexa,VA,New Kent County,H1
23111,51127,Mechanicsville,VA,New Kent County,H1
23181,51127,West point,VA,New Kent County,H1
23307,51131,Birdsnest,VA,Northampton County,H1
23347,51131,Eastville,VA,Northampton County,H1
23316,51131,Cheriton,VA,Northampton County,H1
23354,51131,Franktown,VA,Northampton County,H1
23350,51131,Exmore,VA,Northampton County,H1
23413,51131,Nassawadox,VA,Northampton County,H1
23429,51131,Seaview,VA,Northampton County,H1
23443,51131,Townsend,VA,Northampton County,H1
23408,51131,Marionville,VA,Northampton County,H1
23313,51131,Capeville,VA,Northampton County,H1
23405,51131,Machipongo,VA,Northampton County,H1
23310,51131,Cape charles,VA,Northampton County,H1
23398,51131,Jamesville,VA,Northampton County,H1
23486,51131,Willis wharf,VA,Northampton County,H1
22460,51133,Farnham,VA,Northumberland County,H1
22435,51133,Callao,VA,Northumberland County,H1
22482,51133,Kilmarnock,VA,Northumberland County,H1
22503,51133,Lancaster,VA,Northumberland County,H1
22511,51133,Lottsburg,VA,Northumberland County,H1
22432,51133,Burgess,VA,Northumberland County,H1
22530,51133,Ophelia,VA,Northumberland County,H1
22579,51133,Wicomico church,VA,Northumberland County,H1
22473,51133,Heathsville,VA,Northumberland County,H1
22539,51133,Reedville,VA,Northumberland County,H1
23083,51135,Jetersville,VA,Nottoway County,H1
23922,51135,Burkeville,VA,Nottoway County,H1
23966,51135,Rice,VA,Nottoway County,H1
23002,51135,Amelia court house,VA,Nottoway County,H1
23955,51135,Nottoway,VA,Nottoway County,H1
23824,51135,Blackstone,VA,Nottoway County,H1
23894,51135,Wilsons,VA,Nottoway County,H1
23930,51135,Crewe,VA,Nottoway County,H1
23093,51137,Louisa,VA,Orange County,H1
22957,51137,Montpelier station,VA,Orange County,H1
22567,51137,Unionville,VA,Orange County,H1
22551,51137,Spotsylvania,VA,Orange County,H1
22942,51137,Gordonsville,VA,Orange County,H1
22972,51137,Somerset,VA,Orange County,H1
22733,51137,Rapidan,VA,Orange County,H1
22508,51137,Locust grove,VA,Orange County,H1
22923,51137,Barboursville,VA,Orange County,H1
22701,51137,Culpeper,VA,Orange County,H1
22968,51137,Ruckersville,VA,Orange County,H1
22433,51137,Burr hill,VA,Orange County,H1
22542,51137,Rhoadesville,VA,Orange County,H1
22960,51137,Orange,VA,Orange County,H1
22827,51139,Elkton,VA,Page County,H1
22851,51139,Stanley,VA,Page County,H1
22849,51139,Shenandoah,VA,Page County,H1
22743,51139,Syria,VA,Page County,H1
22835,51139,Luray,VA,Page County,H1
22650,51139,Rileyville,VA,Page County,H1
24133,51141,Patrick springs,VA,Patrick County,H1
24055,51141,Bassett,VA,Patrick County,H1
24091,51141,Floyd,VA,Patrick County,H1
24317,51141,Cana,VA,Patrick County,H1
24328,51141,Fancy gap,VA,Patrick County,H1
24185,51141,Woolwine,VA,Patrick County,H1
24053,51141,Ararat,VA,Patrick County,H1
24088,51141,Ferrum,VA,Patrick County,H1
24165,51141,Spencer,VA,Patrick County,H1
24343,51141,Hillsville,VA,Patrick County,H1
24120,51141,Meadows of dan,VA,Patrick County,H1
24171,51141,Stuart,VA,Patrick County,H1
24177,51141,Vesta,VA,Patrick County,H1
24076,51141,Claudville,VA,Patrick County,H1
24082,51141,Critz,VA,Patrick County,H1
24380,51141,Willis,VA,Patrick County,H1
24069,51143,Cascade,VA,Pittsylvania County,H1
24566,51143,Keeling,VA,Pittsylvania County,H1
24565,51143,Java,VA,Pittsylvania County,H1
24594,51143,Sutherlin,VA,Pittsylvania County,H1
24139,51143,Pittsville,VA,Pittsylvania County,H1
24540,51143,Danville,VA,Pittsylvania County,H1
24577,51143,Nathalie,VA,Pittsylvania County,H1
24586,51143,Ringgold,VA,Pittsylvania County,H1
24054,51143,Axton,VA,Pittsylvania County,H1
24527,51143,Blairs,VA,Pittsylvania County,H1
24597,51143,Vernon hill,VA,Pittsylvania County,H1
24563,51143,Hurt,VA,Pittsylvania County,H1
24161,51143,Sandy level,VA,Pittsylvania County,H1
24137,51143,Penhook,VA,Pittsylvania County,H1
24530,51143,Callands,VA,Pittsylvania County,H1
24557,51143,Gretna,VA,Pittsylvania County,H1
24569,51143,Long island,VA,Pittsylvania County,H1
24592,51143,South boston,VA,Pittsylvania County,H1
24531,51143,Chatham,VA,Pittsylvania County,H1
24541,51143,Danville,VA,Pittsylvania County,H1
24549,51143,Dry fork,VA,Pittsylvania County,H1
23113,51145,Midlothian,VA,Powhatan County,H1
23112,51145,Midlothian,VA,Powhatan County,H1
23160,51145,State farm,VA,Powhatan County,H1
23120,51145,Moseley,VA,Powhatan County,H1
23139,51145,Powhatan,VA,Powhatan County,H1
23922,51147,Burkeville,VA,Prince Edward County,H1
23966,51147,Rice,VA,Prince Edward County,H1
23901,51147,Farmville,VA,Prince Edward County,H1
23947,51147,Keysville,VA,Prince Edward County,H1
23960,51147,Prospect,VA,Prince Edward County,H1
23909,51147,Farmville,VA,Prince Edward County,H1
23942,51147,Green bay,VA,Prince Edward County,H1
23934,51147,Cullen,VA,Prince Edward County,H1
23954,51147,Meherrin,VA,Prince Edward County,H1
23943,51147,Hampden sydney,VA,Prince Edward County,H1
23923,51147,Charlotte court house,VA,Prince Edward County,H1
23958,51147,Pamplin,VA,Prince Edward County,H1
23803,51149,Petersburg,VA,Prince George County,H1
23842,51149,Disputanta,VA,Prince George County,H1
23805,51149,Petersburg,VA,Prince George County,H1
23860,51149,Hopewell,VA,Prince George County,H1
23875,51149,Prince george,VA,Prince George County,H1
23881,51149,Spring grove,VA,Prince George County,H1
23801,51149,Fort lee,VA,Prince George County,H1
23830,51149,Carson,VA,Prince George County,H1
20155,51153,Gainesville,VA,Prince William County,H1
22193,51153,Woodbridge,VA,Prince William County,H1
20109,51153,Manassas,VA,Prince William County,H1
20168,51153,Haymarket,VA,Prince William County,H1
20181,51153,Nokesville,VA,Prince William County,H1
22026,51153,Dumfries,VA,Prince William County,H1
22194,51153,Woodbridge,VA,Prince William County,H1
22192,51153,Woodbridge,VA,Prince William County,H1
20182,51153,Nokesville,VA,Prince William County,H1
20111,51153,Manassas,VA,Prince William County,H1
20110,51153,Manassas,VA,Prince William County,H1
20137,51153,Broad run,VA,Prince William County,H1
22195,51153,Woodbridge,VA,Prince William County,H1
20112,51153,Manassas,VA,Prince William County,H1
20169,51153,Haymarket,VA,Prince William County,H1
22025,51153,Dumfries,VA,Prince William County,H1
22125,51153,Occoquan,VA,Prince William County,H1
22172,51153,Triangle,VA,Prince William County,H1
22191,51153,Woodbridge,VA,Prince William County,H1
20119,51153,Catlett,VA,Prince William County,H1
20136,51153,Bristow,VA,Prince William County,H1
20156,51153,Gainesville,VA,Prince William County,H1
22134,51153,Quantico,VA,Prince William County,H1
20143,51153,Catharpin,VA,Prince William County,H1
24084,51155,Dublin,VA,Pulaski County,H1
24324,51155,Draper,VA,Pulaski County,H1
24126,51155,Newbern,VA,Pulaski County,H1
24301,51155,Pulaski,VA,Pulaski County,H1
24347,51155,Hiwassee,VA,Pulaski County,H1
24141,51155,Radford,VA,Pulaski County,H1
24313,51155,Barren springs,VA,Pulaski County,H1
24058,51155,Belspring,VA,Pulaski County,H1
22630,51157,Front royal,VA,Rappahannock County,H1
22640,51157,Huntly,VA,Rappahannock County,H1
22747,51157,Washington,VA,Rappahannock County,H1
20106,51157,Amissville,VA,Rappahannock County,H1
22716,51157,Castleton,VA,Rappahannock County,H1
22713,51157,Boston,VA,Rappahannock County,H1
22623,51157,Chester gap,VA,Rappahannock County,H1
22740,51157,Sperryville,VA,Rappahannock County,H1
22627,51157,Flint hill,VA,Rappahannock County,H1
22749,51157,Woodville,VA,Rappahannock County,H1
22460,51159,Farnham,VA,Richmond County,H1
22572,51159,Warsaw,VA,Richmond County,H1
22548,51159,Sharps,VA,Richmond County,H1
22472,51159,Haynesville,VA,Richmond County,H1
22435,51159,Callao,VA,Richmond County,H1
22503,51159,Lancaster,VA,Richmond County,H1
22473,51159,Heathsville,VA,Richmond County,H1
22520,51159,Montross,VA,Richmond County,H1
24014,51161,Roanoke,VA,Roanoke County,H1
24012,51161,Roanoke,VA,Roanoke County,H1
24175,51161,Troutville,VA,Roanoke County,H1
24065,51161,Boones mill,VA,Roanoke County,H1
24153,51161,Salem,VA,Roanoke County,H1
24059,51161,Bent mountain,VA,Roanoke County,H1
24079,51161,Copper hill,VA,Roanoke County,H1
24101,51161,Hardy,VA,Roanoke County,H1
24179,51161,Vinton,VA,Roanoke County,H1
24020,51161,Roanoke,VA,Roanoke County,H1
24087,51161,Elliston,VA,Roanoke County,H1
24019,51161,Roanoke,VA,Roanoke County,H1
24070,51161,Catawba,VA,Roanoke County,H1
24018,51161,Roanoke,VA,Roanoke County,H1
24015,51161,Roanoke,VA,Roanoke County,H1
24579,51163,Natural bridge station,VA,Rockbridge County,H1
24416,51163,Buena vista,VA,Rockbridge County,H1
24066,51163,Buchanan,VA,Rockbridge County,H1
24578,51163,Natural bridge,VA,Rockbridge County,H1
24435,51163,Fairfield,VA,Rockbridge County,H1
24450,51163,Lexington,VA,Rockbridge County,H1
24483,51163,Vesuvius,VA,Rockbridge County,H1
24472,51163,Raphine,VA,Rockbridge County,H1
24459,51163,Middlebrook,VA,Rockbridge County,H1
24555,51163,Glasgow,VA,Rockbridge County,H1
24473,51163,Rockbridge baths,VA,Rockbridge County,H1
24476,51163,Steeles tavern,VA,Rockbridge County,H1
24415,51163,Brownsburg,VA,Rockbridge County,H1
24439,51163,Goshen,VA,Rockbridge County,H1
22801,51165,Harrisonburg,VA,Rockingham County,H1
22827,51165,Elkton,VA,Rockingham County,H1
22840,51165,Mc gaheysville,VA,Rockingham County,H1
22831,51165,Hinton,VA,Rockingham County,H1
24471,51165,Port republic,VA,Rockingham County,H1
22846,51165,Penn laird,VA,Rockingham County,H1
22848,51165,Pleasant valley,VA,Rockingham County,H1
22833,51165,Lacey spring,VA,Rockingham County,H1
22821,51165,Dayton,VA,Rockingham County,H1
22850,51165,Singers glen,VA,Rockingham County,H1
22849,51165,Shenandoah,VA,Rockingham County,H1
22811,51165,Bergton,VA,Rockingham County,H1
22802,51165,Harrisonburg,VA,Rockingham County,H1
22841,51165,Mount crawford,VA,Rockingham County,H1
24486,51165,Weyers cave,VA,Rockingham County,H1
22812,51165,Bridgewater,VA,Rockingham County,H1
24441,51165,Grottoes,VA,Rockingham County,H1
22832,51165,Keezletown,VA,Rockingham County,H1
22815,51165,Broadway,VA,Rockingham County,H1
22844,51165,New market,VA,Rockingham County,H1
22820,51165,Criders,VA,Rockingham County,H1
22834,51165,Linville,VA,Rockingham County,H1
22830,51165,Fulks run,VA,Rockingham County,H1
22853,51165,Timberville,VA,Rockingham County,H1
24237,51167,Dante,VA,Russell County,H1
24266,51167,Lebanon,VA,Russell County,H1
24225,51167,Cleveland,VA,Russell County,H1
24283,51167,Saint paul,VA,Russell County,H1
24609,51167,Cedar bluff,VA,Russell County,H1
24639,51167,Raven,VA,Russell County,H1
24224,51167,Castlewood,VA,Russell County,H1
24280,51167,Rosedale,VA,Russell County,H1
24271,51167,Nickelsville,VA,Russell County,H1
24260,51167,Honaker,VA,Russell County,H1
24649,51167,Swords creek,VA,Russell County,H1
24646,51167,Rowe,VA,Russell County,H1
24221,51169,Blackwater,VA,Scott County,H1
24230,51169,Coeburn,VA,Scott County,H1
24245,51169,Dungannon,VA,Scott County,H1
24250,51169,Fort blackmore,VA,Scott County,H1
24258,51169,Hiltons,VA,Scott County,H1
24290,51169,Weber city,VA,Scott County,H1
24202,51169,Bristol,VA,Scott County,H1
24251,51169,Gate city,VA,Scott County,H1
24271,51169,Nickelsville,VA,Scott County,H1
24244,51169,Duffield,VA,Scott County,H1
22645,51171,Middletown,VA,Shenandoah County,H1
22657,51171,Strasburg,VA,Shenandoah County,H1
22626,51171,Fishers hill,VA,Shenandoah County,H1
22842,51171,Mount jackson,VA,Shenandoah County,H1
22644,51171,Maurertown,VA,Shenandoah County,H1
22652,51171,Fort valley,VA,Shenandoah County,H1
22810,51171,Basye,VA,Shenandoah County,H1
22845,51171,Orkney springs,VA,Shenandoah County,H1
22664,51171,Woodstock,VA,Shenandoah County,H1
22847,51171,Quicksburg,VA,Shenandoah County,H1
22824,51171,Edinburg,VA,Shenandoah County,H1
22654,51171,Star tannery,VA,Shenandoah County,H1
22815,51171,Broadway,VA,Shenandoah County,H1
22844,51171,New market,VA,Shenandoah County,H1
22660,51171,Toms brook,VA,Shenandoah County,H1
22835,51171,Luray,VA,Shenandoah County,H1
22853,51171,Timberville,VA,Shenandoah County,H1
22641,51171,Strasburg,VA,Shenandoah County,H1
24311,51173,Atkins,VA,Smyth County,H1
24316,51173,Broadford,VA,Smyth County,H1
24375,51173,Sugar grove,VA,Smyth County,H1
24651,51173,Tazewell,VA,Smyth County,H1
24340,51173,Glade spring,VA,Smyth County,H1
24354,51173,Marion,VA,Smyth County,H1
24318,51173,Ceres,VA,Smyth County,H1
24370,51173,Saltville,VA,Smyth County,H1
24368,51173,Rural retreat,VA,Smyth County,H1
24378,51173,Troutdale,VA,Smyth County,H1
24236,51173,Damascus,VA,Smyth County,H1
24319,51173,Chilhowie,VA,Smyth County,H1
24374,51173,Speedwell,VA,Smyth County,H1
23867,51175,Jarratt,VA,Southampton County,H1
23878,51175,Sedley,VA,Southampton County,H1
23847,51175,Emporia,VA,Southampton County,H1
23851,51175,Franklin,VA,Southampton County,H1
23898,51175,Zuni,VA,Southampton County,H1
23837,51175,Courtland,VA,Southampton County,H1
23844,51175,Drewryville,VA,Southampton County,H1
23827,51175,Boykins,VA,Southampton County,H1
23829,51175,Capron,VA,Southampton County,H1
23828,51175,Branchville,VA,Southampton County,H1
23866,51175,Ivor,VA,Southampton County,H1
23874,51175,Newsoms,VA,Southampton County,H1
23888,51175,Wakefield,VA,Southampton County,H1
22408,51177,Fredericksburg,VA,Spotsylvania County,H1
22553,51177,Spotsylvania,VA,Spotsylvania County,H1
22534,51177,Partlow,VA,Spotsylvania County,H1
23117,51177,Mineral,VA,Spotsylvania County,H1
22567,51177,Unionville,VA,Spotsylvania County,H1
22551,51177,Spotsylvania,VA,Spotsylvania County,H1
22546,51177,Ruther glen,VA,Spotsylvania County,H1
22508,51177,Locust grove,VA,Spotsylvania County,H1
22580,51177,Woodford,VA,Spotsylvania County,H1
22404,51177,Fredericksburg,VA,Spotsylvania County,H1
23015,51177,Beaverdam,VA,Spotsylvania County,H1
22401,51177,Fredericksburg,VA,Spotsylvania County,H1
22407,51177,Fredericksburg,VA,Spotsylvania County,H1
22960,51177,Orange,VA,Spotsylvania County,H1
23024,51177,Bumpass,VA,Spotsylvania County,H1
22565,51177,Thornburg,VA,Spotsylvania County,H1
22406,51179,Fredericksburg,VA,Stafford County,H1
22405,51179,Fredericksburg,VA,Stafford County,H1
22554,51179,Stafford,VA,Stafford County,H1
22545,51179,Ruby,VA,Stafford County,H1
22412,51179,Fredericksburg,VA,Stafford County,H1
22555,51179,Stafford,VA,Stafford County,H1
22135,51179,Quantico,VA,Stafford County,H1
22556,51179,Stafford,VA,Stafford County,H1
22403,51179,Fredericksburg,VA,Stafford County,H1
22430,51179,Brooke,VA,Stafford County,H1
22471,51179,Hartwood,VA,Stafford County,H1
22728,51179,Midland,VA,Stafford County,H1
22463,51179,Garrisonville,VA,Stafford County,H1
22134,51179,Quantico,VA,Stafford County,H1
23846,51181,Elberon,VA,Surry County,H1
23890,51181,Waverly,VA,Surry County,H1
23899,51181,Claremont,VA,Surry County,H1
23842,51181,Disputanta,VA,Surry County,H1
23883,51181,Surry,VA,Surry County,H1
23839,51181,Dendron,VA,Surry County,H1
23430,51181,Smithfield,VA,Surry County,H1
23881,51181,Spring grove,VA,Surry County,H1
23866,51181,Ivor,VA,Surry County,H1
23888,51181,Wakefield,VA,Surry County,H1
23867,51183,Jarratt,VA,Sussex County,H1
23878,51183,Sedley,VA,Sussex County,H1
23890,51183,Waverly,VA,Sussex County,H1
23847,51183,Emporia,VA,Sussex County,H1
23842,51183,Disputanta,VA,Sussex County,H1
23891,51183,Waverly,VA,Sussex County,H1
23897,51183,Yale,VA,Sussex County,H1
23837,51183,Courtland,VA,Sussex County,H1
23829,51183,Capron,VA,Sussex County,H1
23882,51183,Stony creek,VA,Sussex County,H1
23830,51183,Carson,VA,Sussex County,H1
23888,51183,Wakefield,VA,Sussex County,H1
23884,51183,Sussex,VA,Sussex County,H1
24630,51185,North tazewell,VA,Tazewell County,H1
24316,51185,Broadford,VA,Tazewell County,H1
24604,51185,Bishop,VA,Tazewell County,H1
24314,51185,Bastian,VA,Tazewell County,H1
24651,51185,Tazewell,VA,Tazewell County,H1
24602,51185,Bandy,VA,Tazewell County,H1
24622,51185,Jewell ridge,VA,Tazewell County,H1
24612,51185,Doran,VA,Tazewell County,H1
24647,51185,Shortt gap,VA,Tazewell County,H1
24377,51185,Tannersville,VA,Tazewell County,H1
24609,51185,Cedar bluff,VA,Tazewell County,H1
24606,51185,Boissevain,VA,Tazewell County,H1
24640,51185,Red ash,VA,Tazewell County,H1
24641,51185,Richlands,VA,Tazewell County,H1
24619,51185,Horsepen,VA,Tazewell County,H1
24639,51185,Raven,VA,Tazewell County,H1
24635,51185,Pocahontas,VA,Tazewell County,H1
24608,51185,Burkes garden,VA,Tazewell County,H1
24605,51185,Bluefield,VA,Tazewell County,H1
24637,51185,Pounding mill,VA,Tazewell County,H1
24601,51185,Amonate,VA,Tazewell County,H1
24613,51185,Falls mills,VA,Tazewell County,H1
22630,51187,Front royal,VA,Warren County,H1
22645,51187,Middletown,VA,Warren County,H1
22649,51187,Middletown,VA,Warren County,H1
22657,51187,Strasburg,VA,Warren County,H1
22623,51187,Chester gap,VA,Warren County,H1
22642,51187,Linden,VA,Warren County,H1
22610,51187,Bentonville,VA,Warren County,H1
22655,51187,Stephens city,VA,Warren County,H1
22663,51187,White post,VA,Warren County,H1
24212,51191,Abingdon,VA,Washington County,H1
24361,51191,Meadowview,VA,Washington County,H1
24327,51191,Emory,VA,Washington County,H1
24340,51191,Glade spring,VA,Washington County,H1
24258,51191,Hiltons,VA,Washington County,H1
24370,51191,Saltville,VA,Washington County,H1
24211,51191,Abingdon,VA,Washington County,H1
24270,51191,Mendota,VA,Washington County,H1
24202,51191,Bristol,VA,Washington County,H1
24210,51191,Abingdon,VA,Washington County,H1
24292,51191,Whitetop,VA,Washington County,H1
24236,51191,Damascus,VA,Washington County,H1
24319,51191,Chilhowie,VA,Washington County,H1
22572,51193,Warsaw,VA,Westmoreland County,H1
22529,51193,Oldhams,VA,Westmoreland County,H1
22435,51193,Callao,VA,Westmoreland County,H1
22442,51193,Coles point,VA,Westmoreland County,H1
22581,51193,Zacata,VA,Westmoreland County,H1
22524,51193,Mount holly,VA,Westmoreland County,H1
22558,51193,Stratford,VA,Westmoreland County,H1
22443,51193,Colonial beach,VA,Westmoreland County,H1
22469,51193,Hague,VA,Westmoreland County,H1
22485,51193,King george,VA,Westmoreland County,H1
22488,51193,Kinsale,VA,Westmoreland County,H1
22577,51193,Sandy point,VA,Westmoreland County,H1
22520,51193,Montross,VA,Westmoreland County,H1
24219,51195,Big stone gap,VA,Wise County,H1
24230,51195,Coeburn,VA,Wise County,H1
24283,51195,Saint paul,VA,Wise County,H1
24293,51195,Wise,VA,Wise County,H1
24246,51195,East stone gap,VA,Wise County,H1
24273,51195,Norton,VA,Wise County,H1
24279,51195,Pound,VA,Wise County,H1
24215,51195,Andover,VA,Wise County,H1
24216,51195,Appalachia,VA,Wise County,H1
24324,51197,Draper,VA,Wythe County,H1
24360,51197,Max meadows,VA,Wythe County,H1
24322,51197,Cripple creek,VA,Wythe County,H1
24350,51197,Ivanhoe,VA,Wythe County,H1
24343,51197,Hillsville,VA,Wythe County,H1
24368,51197,Rural retreat,VA,Wythe County,H1
24313,51197,Barren springs,VA,Wythe County,H1
24312,51197,Austinville,VA,Wythe County,H1
24382,51197,Wytheville,VA,Wythe County,H1
24323,51197,Crockett,VA,Wythe County,H1
24374,51197,Speedwell,VA,Wythe County,H1
23185,51199,Williamsburg,VA,York County,H1
23602,51199,Newport news,VA,York County,H1
23692,51199,Yorktown,VA,York County,H1
23696,51199,Seaford,VA,York County,H1
23188,51199,Williamsburg,VA,York County,H1
23691,51199,Yorktown,VA,York County,H1
23693,51199,Yorktown,VA,York County,H1
23603,51199,Newport news,VA,York County,H1
23690,51199,Yorktown,VA,York County,H1
23665,51199,Hampton,VA,York County,H1
23694,51199,Lackey,VA,York County,H1
23090,51199,Lightfoot,VA,York County,H1
22305,51510,Alexandria,VA,Alexandria city,C7
22350,51510,Alexandria,VA,Alexandria city,C7
22320,51510,Alexandria,VA,Alexandria city,C7
22312,51510,Alexandria,VA,Alexandria city,C7
22332,51510,Alexandria,VA,Alexandria city,C7
22333,51510,Alexandria,VA,Alexandria city,C7
22302,51510,Alexandria,VA,Alexandria city,C7
22304,51510,Alexandria,VA,Alexandria city,C7
22314,51510,Alexandria,VA,Alexandria city,C7
22313,51510,Alexandria,VA,Alexandria city,C7
20598,51510,Dhs,VA,Alexandria city,C7
22301,51510,Alexandria,VA,Alexandria city,C7
22331,51510,Alexandria,VA,Alexandria city,C7
22206,51510,Arlington,VA,Alexandria city,C7
22311,51510,Alexandria,VA,Alexandria city,C7
24203,51520,Bristol,VA,Bristol city,C7
24201,51520,Bristol,VA,Bristol city,C7
24202,51520,Bristol,VA,Bristol city,C7
24209,51520,Bristol,VA,Bristol city,C7
24416,51530,Buena vista,VA,Buena Vista city,C7
22903,51540,Charlottesville,VA,Charlottesville city,C7
22901,51540,Charlottesville,VA,Charlottesville city,C7
22902,51540,Charlottesville,VA,Charlottesville city,C7
22906,51540,Charlottesville,VA,Charlottesville city,C7
22908,51540,Charlottesville,VA,Charlottesville city,C7
22905,51540,Charlottesville,VA,Charlottesville city,C7
23323,51550,Chesapeake,VA,Chesapeake city,C7
23326,51550,Chesapeake,VA,Chesapeake city,C7
23322,51550,Chesapeake,VA,Chesapeake city,C7
23320,51550,Chesapeake,VA,Chesapeake city,C7
23321,51550,Chesapeake,VA,Chesapeake city,C7
23324,51550,Chesapeake,VA,Chesapeake city,C7
23703,51550,Portsmouth,VA,Chesapeake city,C7
23328,51550,Chesapeake,VA,Chesapeake city,C7
23325,51550,Chesapeake,VA,Chesapeake city,C7
23435,51550,Suffolk,VA,Chesapeake city,C7
23702,51550,Portsmouth,VA,Chesapeake city,C7
23327,51550,Chesapeake,VA,Chesapeake city,C7
23464,51550,Virginia beach,VA,Chesapeake city,C7
23834,51570,Colonial heights,VA,Colonial Heights city,C7
24426,51580,Covington,VA,Covington city,C7
24540,51590,Danville,VA,Danville city,C7
24541,51590,Danville,VA,Danville city,C7
23847,51595,Emporia,VA,Emporia city,C7
22030,51600,Fairfax,VA,Fairfax city,C7
22038,51600,Fairfax,VA,Fairfax city,C7
22031,51600,Fairfax,VA,Fairfax city,C7
22032,51600,Fairfax,VA,Fairfax city,C7
22205,51610,Arlington,VA,Falls Church city,C7
22044,51610,Falls church,VA,Falls Church city,C7
22046,51610,Falls church,VA,Falls Church city,C7
22213,51610,Arlington,VA,Falls Church city,C7
22042,51610,Falls church,VA,Falls Church city,C7
22040,51610,Falls church,VA,Falls Church city,C7
23851,51620,Franklin,VA,Franklin city,C7
22408,51630,Fredericksburg,VA,Fredericksburg city,C7
22402,51630,Fredericksburg,VA,Fredericksburg city,C7
22404,51630,Fredericksburg,VA,Fredericksburg city,C7
22401,51630,Fredericksburg,VA,Fredericksburg city,C7
22407,51630,Fredericksburg,VA,Fredericksburg city,C7
24333,51640,Galax,VA,Galax city,C7
23607,51650,Newport news,VA,Hampton city,C7
23670,51650,Hampton,VA,Hampton city,C7
23663,51650,Hampton,VA,Hampton city,C7
23669,51650,Hampton,VA,Hampton city,C7
23662,51650,Poquoson,VA,Hampton city,C7
23651,51650,Fort monroe,VA,Hampton city,C7
23666,51650,Hampton,VA,Hampton city,C7
23668,51650,Hampton,VA,Hampton city,C7
23630,51650,Hampton,VA,Hampton city,C7
23661,51650,Hampton,VA,Hampton city,C7
23665,51650,Hampton,VA,Hampton city,C7
23605,51650,Newport news,VA,Hampton city,C7
23681,51650,Hampton,VA,Hampton city,C7
23664,51650,Hampton,VA,Hampton city,C7
23667,51650,Hampton,VA,Hampton city,C7
22801,51660,Harrisonburg,VA,Harrisonburg city,C7
22802,51660,Harrisonburg,VA,Harrisonburg city,C7
22803,51660,Harrisonburg,VA,Harrisonburg city,C7
22807,51660,Harrisonburg,VA,Harrisonburg city,C7
23860,51670,Hopewell,VA,Hopewell city,C7
24450,51678,Lexington,VA,Lexington city,C7
24515,51680,Lynchburg,VA,Lynchburg city,C7
24504,51680,Lynchburg,VA,Lynchburg city,C7
24503,51680,Lynchburg,VA,Lynchburg city,C7
24506,51680,Lynchburg,VA,Lynchburg city,C7
24513,51680,Lynchburg,VA,Lynchburg city,C7
24502,51680,Lynchburg,VA,Lynchburg city,C7
24514,51680,Lynchburg,VA,Lynchburg city,C7
24501,51680,Lynchburg,VA,Lynchburg city,C7
24551,51680,Forest,VA,Lynchburg city,C7
20110,51683,Manassas,VA,Manassas city,C7
20108,51683,Manassas,VA,Manassas city,C7
20111,51685,Manassas,VA,Manassas Park city,C7
20110,51685,Manassas,VA,Manassas Park city,C7
20113,51685,Manassas,VA,Manassas Park city,C7
24112,51690,Martinsville,VA,Martinsville city,C7
23606,51700,Newport news,VA,Newport News city,C7
23601,51700,Newport news,VA,Newport News city,C7
23602,51700,Newport news,VA,Newport News city,C7
23607,51700,Newport news,VA,Newport News city,C7
23609,51700,Newport news,VA,Newport News city,C7
23670,51700,Hampton,VA,Newport News city,C7
23604,51700,Fort eustis,VA,Newport News city,C7
23612,51700,Newport news,VA,Newport News city,C7
23608,51700,Newport news,VA,Newport News city,C7
23666,51700,Hampton,VA,Newport News city,C7
23630,51700,Hampton,VA,Newport News city,C7
23603,51700,Newport news,VA,Newport News city,C7
23690,51700,Yorktown,VA,Newport News city,C7
23605,51700,Newport news,VA,Newport News city,C7
23628,51700,Newport news,VA,Newport News city,C7
23505,51710,Norfolk,VA,Norfolk city,C7
23510,51710,Norfolk,VA,Norfolk city,C7
23551,51710,Norfolk,VA,Norfolk city,C7
23503,51710,Norfolk,VA,Norfolk city,C7
23509,51710,Norfolk,VA,Norfolk city,C7
23513,51710,Norfolk,VA,Norfolk city,C7
23529,51710,Norfolk,VA,Norfolk city,C7
23462,51710,Virginia beach,VA,Norfolk city,C7
23518,51710,Norfolk,VA,Norfolk city,C7
23523,51710,Norfolk,VA,Norfolk city,C7
23502,51710,Norfolk,VA,Norfolk city,C7
23511,51710,Norfolk,VA,Norfolk city,C7
23517,51710,Norfolk,VA,Norfolk city,C7
23514,51710,Norfolk,VA,Norfolk city,C7
23504,51710,Norfolk,VA,Norfolk city,C7
23515,51710,Norfolk,VA,Norfolk city,C7
23507,51710,Norfolk,VA,Norfolk city,C7
23501,51710,Norfolk,VA,Norfolk city,C7
23541,51710,Norfolk,VA,Norfolk city,C7
23508,51710,Norfolk,VA,Norfolk city,C7
24273,51720,Norton,VA,Norton city,C7
23803,51730,Petersburg,VA,Petersburg city,C7
23805,51730,Petersburg,VA,Petersburg city,C7
23875,51730,Prince george,VA,Petersburg city,C7
23801,51730,Fort lee,VA,Petersburg city,C7
23804,51730,Petersburg,VA,Petersburg city,C7
23662,51735,Poquoson,VA,Poquoson city,C7
23708,51740,Portsmouth,VA,Portsmouth city,C7
23705,51740,Portsmouth,VA,Portsmouth city,C7
23709,51740,Portsmouth,VA,Portsmouth city,C7
23321,51740,Chesapeake,VA,Portsmouth city,C7
23704,51740,Portsmouth,VA,Portsmouth city,C7
23703,51740,Portsmouth,VA,Portsmouth city,C7
23701,51740,Portsmouth,VA,Portsmouth city,C7
23707,51740,Portsmouth,VA,Portsmouth city,C7
23702,51740,Portsmouth,VA,Portsmouth city,C7
24129,51750,New river,VA,Radford city,C7
24141,51750,Radford,VA,Radford city,C7
24073,51750,Christiansburg,VA,Radford city,C7
24142,51750,Radford,VA,Radford city,C7
24132,51750,Parrott,VA,Radford city,C7
23222,51760,Richmond,VA,Richmond city,C7
23221,51760,Richmond,VA,Richmond city,C7
23224,51760,Richmond,VA,Richmond city,C7
23235,51760,Richmond,VA,Richmond city,C7
23218,51760,Richmond,VA,Richmond city,C7
23249,51760,Richmond,VA,Richmond city,C7
23113,51760,Midlothian,VA,Richmond city,C7
23219,51760,Richmond,VA,Richmond city,C7
23231,51760,Henrico,VA,Richmond city,C7
23293,51760,Richmond,VA,Richmond city,C7
23269,51760,Richmond,VA,Richmond city,C7
23220,51760,Richmond,VA,Richmond city,C7
23284,51760,Richmond,VA,Richmond city,C7
23298,51760,Richmond,VA,Richmond city,C7
23241,51760,Richmond,VA,Richmond city,C7
23227,51760,Richmond,VA,Richmond city,C7
23260,51760,Richmond,VA,Richmond city,C7
23223,51760,Richmond,VA,Richmond city,C7
23261,51760,Richmond,VA,Richmond city,C7
23173,51760,Richmond,VA,Richmond city,C7
23226,51760,Richmond,VA,Richmond city,C7
23286,51760,Richmond,VA,Richmond city,C7
23228,51760,Henrico,VA,Richmond city,C7
23230,51760,Richmond,VA,Richmond city,C7
23234,51760,Richmond,VA,Richmond city,C7
23232,51760,Richmond,VA,Richmond city,C7
23225,51760,Richmond,VA,Richmond city,C7
24014,51770,Roanoke,VA,Roanoke city,C7
24012,51770,Roanoke,VA,Roanoke city,C7
24026,51770,Roanoke,VA,Roanoke city,C7
24035,51770,Roanoke,VA,Roanoke city,C7
24036,51770,Roanoke,VA,Roanoke city,C7
24030,51770,Roanoke,VA,Roanoke city,C7
24001,51770,Roanoke,VA,Roanoke city,C7
24042,51770,Roanoke,VA,Roanoke city,C7
24011,51770,Roanoke,VA,Roanoke city,C7
24022,51770,Roanoke,VA,Roanoke city,C7
24153,51770,Salem,VA,Roanoke city,C7
24010,51770,Roanoke,VA,Roanoke city,C7
24031,51770,Roanoke,VA,Roanoke city,C7
24009,51770,Roanoke,VA,Roanoke city,C7
24028,51770,Roanoke,VA,Roanoke city,C7
24034,51770,Roanoke,VA,Roanoke city,C7
24179,51770,Vinton,VA,Roanoke city,C7
24027,51770,Roanoke,VA,Roanoke city,C7
24023,51770,Roanoke,VA,Roanoke city,C7
24013,51770,Roanoke,VA,Roanoke city,C7
24006,51770,Roanoke,VA,Roanoke city,C7
24007,51770,Roanoke,VA,Roanoke city,C7
24037,51770,Roanoke,VA,Roanoke city,C7
24016,51770,Roanoke,VA,Roanoke city,C7
24017,51770,Roanoke,VA,Roanoke city,C7
24032,51770,Roanoke,VA,Roanoke city,C7
24008,51770,Roanoke,VA,Roanoke city,C7
24003,51770,Roanoke,VA,Roanoke city,C7
24019,51770,Roanoke,VA,Roanoke city,C7
24005,51770,Roanoke,VA,Roanoke city,C7
24004,51770,Roanoke,VA,Roanoke city,C7
24025,51770,Roanoke,VA,Roanoke city,C7
24024,51770,Roanoke,VA,Roanoke city,C7
24018,51770,Roanoke,VA,Roanoke city,C7
24015,51770,Roanoke,VA,Roanoke city,C7
24038,51770,Roanoke,VA,Roanoke city,C7
24002,51770,Roanoke,VA,Roanoke city,C7
24033,51770,Roanoke,VA,Roanoke city,C7
24029,51770,Roanoke,VA,Roanoke city,C7
24153,51775,Salem,VA,Salem city,C7
24017,51775,Roanoke,VA,Salem city,C7
24019,51775,Roanoke,VA,Salem city,C7
24018,51775,Roanoke,VA,Salem city,C7
24402,51790,Staunton,VA,Staunton city,C7
24482,51790,Verona,VA,Staunton city,C7
24401,51790,Staunton,VA,Staunton city,C7
23432,51800,Suffolk,VA,Suffolk city,C7
23439,51800,Suffolk,VA,Suffolk city,C7
23434,51800,Suffolk,VA,Suffolk city,C7
23438,51800,Suffolk,VA,Suffolk city,C7
23321,51800,Chesapeake,VA,Suffolk city,C7
23487,51800,Windsor,VA,Suffolk city,C7
23437,51800,Suffolk,VA,Suffolk city,C7
23430,51800,Smithfield,VA,Suffolk city,C7
23436,51800,Suffolk,VA,Suffolk city,C7
23435,51800,Suffolk,VA,Suffolk city,C7
23433,51800,Suffolk,VA,Suffolk city,C7
23453,51810,Virginia beach,VA,Virginia Beach city,C7
23459,51810,Virginia beach,VA,Virginia Beach city,C7
23479,51810,Virginia beach,VA,Virginia Beach city,C7
23322,51810,Chesapeake,VA,Virginia Beach city,C7
23320,51810,Chesapeake,VA,Virginia Beach city,C7
23456,51810,Virginia beach,VA,Virginia Beach city,C7
23471,51810,Virginia beach,VA,Virginia Beach city,C7
23454,51810,Virginia beach,VA,Virginia Beach city,C7
23450,51810,Virginia beach,VA,Virginia Beach city,C7
23452,51810,Virginia beach,VA,Virginia Beach city,C7
23462,51810,Virginia beach,VA,Virginia Beach city,C7
23466,51810,Virginia beach,VA,Virginia Beach city,C7
23460,51810,Virginia beach,VA,Virginia Beach city,C7
23461,51810,Virginia beach,VA,Virginia Beach city,C7
23325,51810,Chesapeake,VA,Virginia Beach city,C7
23502,51810,Norfolk,VA,Virginia Beach city,C7
23463,51810,Virginia beach,VA,Virginia Beach city,C7
23455,51810,Virginia beach,VA,Virginia Beach city,C7
23467,51810,Virginia beach,VA,Virginia Beach city,C7
23451,51810,Virginia beach,VA,Virginia Beach city,C7
23464,51810,Virginia beach,VA,Virginia Beach city,C7
23457,51810,Virginia beach,VA,Virginia Beach city,C7
22980,51820,Waynesboro,VA,Waynesboro city,C7
22952,51820,Lyndhurst,VA,Waynesboro city,C7
23185,51830,Williamsburg,VA,Williamsburg city,C7
23188,51830,Williamsburg,VA,Williamsburg city,C7
23186,51830,Williamsburg,VA,Williamsburg city,C7
23187,51830,Williamsburg,VA,Williamsburg city,C7
22601,51840,Winchester,VA,Winchester city,C7
22602,51840,Winchester,VA,Winchester city,C7
22604,51840,Winchester,VA,Winchester city,C7
