Zip Code,Name,State,Latitude,Longitute,Locality
20101,Dulles,VA,38.9886,-77.4507,Loudoun
20102,Dulles,VA,38.9886,-77.4507,Loudoun
20103,Dulles,VA,38.9886,-77.4507,Loudoun
20104,Dulles,VA,38.9886,-77.4507,Loudoun
20105,Aldie,VA,38.975556,-77.641667,Loudoun
20106,Amissville,VA,38.671389,-77.995833,Culpeper
20107,Arcola,VA,38.951667,-77.534444,Loudoun
20108,Manassas,VA,38.7518,-77.4728,Manassas City
20109,Manassas,VA,38.841111,-77.538056,Prince William
20110,Manassas,VA,38.7509,-77.48,Manassas City
20111,Manassas,VA,38.783889,-77.47,Prince William
20112,Manassas,VA,38.6811,-77.4324,Prince William
20113,Manassas,VA,38.7776,-77.5197,Manassas Park City
20115,Marshall,VA,38.8237,-77.897,Fauquier
20116,Marshall,VA,38.8256,-77.8947,Fauquier
20117,Middleburg,VA,38.9871,-77.7465,Loudoun
20118,Middleburg,VA,39.0039,-77.7226,Loudoun
20119,Catlett,VA,38.653611,-77.640833,Fauquier
20120,Centreville,VA,38.851667,-77.445,Fairfax
20121,Centreville,VA,38.8261,-77.4418,Fairfax
20122,Centreville,VA,38.8422,-77.4715,Fairfax
20124,Clifton,VA,38.78,-77.386944,Fairfax
20128,Orlean,VA,38.749722,-77.962222,Fauquier
20129,Paeonian Springs,VA,39.149167,-77.619444,Loudoun
20130,Paris,VA,39.004444,-77.951667,Clarke
20131,Philomont,VA,39.056111,-77.740556,Loudoun
20132,Purcellville,VA,39.1545,-77.7186,Loudoun
20134,Purcellville,VA,39.1393,-77.7138,Loudoun
20135,Bluemont,VA,39.111111,-77.834167,Clarke
20136,Bristow,VA,38.722778,-77.536389,Prince William
20137,Broad Run,VA,38.823611,-77.713333,Fauquier
20138,Calverton,VA,38.631944,-77.670833,Fauquier
20139,Casanova,VA,38.6575,-77.717222,Fauquier
20140,Rectortown,VA,38.921111,-77.861667,Fauquier
20141,Round Hill,VA,39.1282,-77.7775,Loudoun
20142,Round Hill,VA,39.1031,-77.7923,Loudoun
20143,Catharpin,VA,38.854167,-77.572222,Prince William
20144,Delaplane,VA,38.915,-77.920556,Fauquier
20146,Ashburn,VA,39.0322,-77.4985,Loudoun
20147,Ashburn,VA,39.0413,-77.4855,Loudoun
20148,Ashburn,VA,38.981944,-77.538889,Loudoun
20149,Ashburn,VA,39.0322,-77.4985,Loudoun
20151,Chantilly,VA,38.8865,-77.4393,Fairfax
20152,Chantilly,VA,38.9067,-77.5102,Loudoun
20153,Chantilly,VA,38.8857,-77.4403,Fairfax
20155,Gainesville,VA,38.7997,-77.618,Prince William
20156,Gainesville,VA,38.8004,-77.636,Prince William
20158,Hamilton,VA,39.1399,-77.6608,Loudoun
20159,Hamilton,VA,39.1376,-77.6636,Loudoun
20160,Lincoln,VA,39.115278,-77.695278,Loudoun
20163,Sterling,VA,39.0061,-77.4288,Loudoun
20164,Sterling,VA,39.0133,-77.3948,Loudoun
20165,Sterling,VA,39.0441,-77.3882,Loudoun
20166,Sterling,VA,38.9982,-77.4339,Loudoun
20167,Sterling,VA,39.0061,-77.4288,Loudoun
20168,Haymarket,VA,38.8128,-77.6362,Prince William
20169,Haymarket,VA,38.8517,-77.6418,Prince William
20170,Herndon,VA,38.9764,-77.3839,Fairfax
20171,Herndon,VA,38.935556,-77.380278,Fairfax
20172,Herndon,VA,38.9335,-77.3477,Fairfax
20175,Leesburg,VA,39.0867,-77.5775,Loudoun
20176,Leesburg,VA,39.1275,-77.5267,Loudoun
20177,Leesburg,VA,39.128,-77.5686,Loudoun
20178,Leesburg,VA,39.128,-77.5686,Loudoun
20180,Lovettsville,VA,39.2725,-77.636944,Loudoun
20181,Nokesville,VA,38.6953,-77.5755,Prince William
20182,Nokesville,VA,38.6841,-77.5616,Prince William
20184,Upperville,VA,39.0008,-77.8719,Fauquier
20185,Upperville,VA,38.9932,-77.8803,Fauquier
20186,Warrenton,VA,38.7063,-77.8159,Fauquier
20187,Warrenton,VA,38.767222,-77.728611,Fauquier
20188,Warrenton,VA,38.7129,-77.7945,Fauquier
20189,Dulles,VA,38.8951,-77.0369,Loudoun
20190,Reston,VA,38.96,-77.3456,Fairfax
20191,Reston,VA,38.9379,-77.352,Fairfax
20192,Herndon,VA,38.9496,-77.366,Fairfax
20193,Reston,VA,38.959167,-77.336944,Fairfax
20194,Reston,VA,38.9785,-77.347,Fairfax
20195,Reston,VA,38.9335,-77.3477,Fairfax
20196,Reston,VA,38.9253,-77.3971,Fairfax
20197,Waterford,VA,39.186667,-77.610278,Loudoun
20198,The Plains,VA,38.861944,-77.774167,Fauquier
20199,Dulles,VA,39.0011,-77.4562,Loudoun
22003,Annandale,VA,38.830699,-77.214245,Fairfax
22009,Burke,VA,38.7946,-77.2733,Fairfax
22015,Burke,VA,38.789408,-77.28175,Fairfax
22025,Dumfries,VA,38.911293,-77.930176,Prince William
22026,Dumfries,VA,38.602344,-77.338704,Prince William
22027,Dunn Loring,VA,38.895368,-77.221351,Fairfax
22030,Fairfax,VA,38.845826,-77.324151,Fairfax City
22031,Fairfax,VA,38.860353,-77.264937,Fairfax
22032,Fairfax,VA,38.817729,-77.292527,Fairfax
22033,Fairfax,VA,38.877627,-77.388451,Fairfax
22034,Fairfax,VA,38.8595,-77.2659,Fairfax
22035,Fairfax,VA,38.854,-77.3577,Fairfax
22036,Fairfax,VA,38.86,-77.2593,Fairfax
22037,Fairfax,VA,38.8594,-77.2269,Fairfax
22038,Fairfax,VA,38.8482,-77.3065,Fairfax City
22039,Fairfax Station,VA,38.760205,-77.306388,Fairfax
22040,Falls Church,VA,38.8838,-77.1741,Falls Church City
22041,Falls Church,VA,38.848506,-77.136928,Fairfax
22042,Falls Church,VA,38.866272,-77.192271,Fairfax
22043,Falls Church,VA,38.901226,-77.20005,Fairfax
22044,Falls Church,VA,38.863544,-77.150819,Fairfax
22046,Falls Church,VA,38.88559,-77.180231,Falls Church City
22047,Falls Church,VA,38.869,-77.2241,Fairfax
22060,Fort Belvoir,VA,38.694699,-77.143315,Fairfax
22066,Great Falls,VA,39.003893,-77.308287,Fairfax
22067,Greenway,VA,38.9702,-77.2339,Fairfax
22079,Lorton,VA,38.704716,-77.218004,Fairfax
22081,Merrifield,VA,38.8741,-77.2272,Fairfax
22082,Merrifield,VA,38.8741,-77.2272,Fairfax
22092,Herndon,VA,38.9694,-77.3863,Fairfax
22093,Ashburn,VA,39.0436,-77.4877,Loudoun
22095,Herndon,VA,38.9694,-77.3863,Fairfax
22096,Reston,VA,38.925278,-77.396944,Fairfax
22101,Mc Lean,VA,38.932624,-77.170628,Fairfax
22102,Mc Lean,VA,38.936318,-77.221934,Fairfax
22103,West Mclean,VA,38.9287,-77.2397,Fairfax
22106,Mc Lean,VA,38.9372,-77.1786,Fairfax
22107,Mc Lean,VA,38.9327,-77.1828,Fairfax
22108,Mc Lean,VA,38.9327,-77.1828,Fairfax
22109,Mc Lean,VA,38.9327,-77.1825,Fairfax
22116,Merrifield,VA,38.8741,-77.2272,Fairfax
22118,Merrifield,VA,38.8741,-77.2272,Fairfax
22119,Merrifield,VA,38.8741,-77.2272,Fairfax
22120,Merrifield,VA,38.8741,-77.2272,Fairfax
22121,Mount Vernon,VA,38.707778,-77.086389,Fairfax
22122,Newington,VA,38.738333,-77.185278,Fairfax
22124,Oakton,VA,38.885187,-77.323345,Fairfax
22125,Occoquan,VA,38.683611,-77.260556,Prince William
22134,Quantico,VA,38.531039,-77.335819,Prince William
22135,Quantico,VA,38.522222,-77.293889,Stafford
22150,Springfield,VA,38.779718,-77.186582,Fairfax
22151,Springfield,VA,38.803323,-77.213908,Fairfax
22152,Springfield,VA,38.776488,-77.233243,Fairfax
22153,Springfield,VA,38.744859,-77.237026,Fairfax
22156,Springfield,VA,38.7891,-77.1875,Fairfax
22158,Springfield,VA,38.7891,-77.1875,Fairfax
22159,Springfield,VA,38.7891,-77.1875,Fairfax
22160,Springfield,VA,38.8111,-77.2182,Fairfax
22161,Springfield,VA,38.7891,-77.1875,Fairfax
22172,Triangle,VA,38.550894,-77.322877,Prince William
22180,Vienna,VA,38.893527,-77.253219,Fairfax
22181,Vienna,VA,38.897695,-77.288048,Fairfax
22182,Vienna,VA,38.928005,-77.264876,Fairfax
22183,Vienna,VA,38.9013,-77.2685,Fairfax
22184,Vienna,VA,38.9013,-77.2685,Fairfax
22185,Vienna,VA,38.880833,-77.301111,Fairfax
22191,Woodbridge,VA,38.635573,-77.268264,Prince William
22192,Woodbridge,VA,38.68328,-77.305221,Prince William
22193,Woodbridge,VA,38.647188,-77.343238,Prince William
22194,Woodbridge,VA,38.6316,-77.2679,Prince William
22195,Woodbridge,VA,38.6329,-77.2694,Prince William
22199,Lorton,VA,38.704167,-77.228056,Fairfax
22201,Arlington,VA,38.887103,-77.093197,Arlington
22202,Arlington,VA,38.856547,-77.059228,Arlington
22203,Arlington,VA,38.873799,-77.114191,Arlington
22204,Arlington,VA,38.858962,-77.099688,Arlington
22205,Arlington,VA,38.883557,-77.139488,Arlington
22206,Arlington,VA,38.841508,-77.09046,Arlington
22207,Arlington,VA,38.903321,-77.126287,Arlington
22209,Arlington,VA,38.8926,-77.07531,Arlington
22210,Arlington,VA,38.8856,-77.0998,Arlington
22211,Ft Myer,VA,38.8795,-77.080258,Arlington
22212,Arlington,VA,38.8809,-76.8545,Arlington
22213,Arlington,VA,38.895375,-77.163295,Arlington
22214,Arlington,VA,38.8795,-77.0802,Arlington
22215,Arlington,VA,38.8793,-77.1131,Arlington
22216,Arlington,VA,38.8916,-77.0839,Arlington
22217,Arlington,VA,38.8856,-77.0998,Arlington
22218,Arlington,VA,38.8856,-77.0998,Arlington
22219,Arlington,VA,38.8944,-77.07,Arlington
22222,Arlington,VA,38.8582,-77.0533,Arlington
22223,Arlington,VA,38.8867,-77.0936,Arlington
22225,Arlington,VA,38.8566,-77.0584,Arlington
22226,Arlington,VA,38.8856,-77.0998,Arlington
22227,Arlington,VA,38.8582,-77.0533,Arlington
22229,Arlington,VA,38.8944,-77.07,Arlington
22230,Arlington,VA,38.873,-77.1042,Arlington
22234,Arlington,VA,38.8944,-77.07,Arlington
22240,Arlington,VA,38.88,-77.1153,Arlington
22241,Arlington,VA,38.8582,-77.0533,Arlington
22242,Arlington,VA,38.8582,-77.0533,Arlington
22243,Arlington,VA,38.8582,-77.0533,Arlington
22244,Arlington,VA,38.8582,-77.0533,Arlington
22245,Arlington,VA,38.8582,-77.0533,Arlington
22246,Arlington,VA,38.8575,-77.0531,Arlington
22301,Alexandria,VA,38.820042,-77.058901,Alexandria City
22302,Alexandria,VA,38.83354,-77.092412,Alexandria City
22303,Alexandria,VA,38.791143,-77.076608,Fairfax
22304,Alexandria,VA,38.814871,-77.120989,Alexandria City
22305,Alexandria,VA,38.837184,-77.064039,Alexandria City
22306,Alexandria,VA,38.755769,-77.085389,Fairfax
22307,Alexandria,VA,38.77056,-77.062511,Fairfax
22308,Alexandria,VA,38.729122,-77.060639,Fairfax
22309,Alexandria,VA,38.727855,-77.108139,Fairfax
22310,Alexandria,VA,38.769132,-77.131707,Fairfax
22311,Alexandria,VA,38.832039,-77.119962,Alexandria City
22312,Alexandria,VA,38.819099,-77.148438,Fairfax
22313,Alexandria,VA,38.8047,-77.0472,Alexandria City
22314,Alexandria,VA,38.806018,-77.052867,Alexandria City
22315,Alexandria,VA,38.756667,-77.145556,Fairfax
22320,Alexandria,VA,38.8047,-77.0472,Alexandria City
22321,Alexandria,VA,38.8062,-77.0528,Fairfax
22331,Alexandria,VA,38.8047,-77.0472,Alexandria City
22332,Alexandria,VA,38.8047,-77.0472,Alexandria City
22333,Alexandria,VA,38.8047,-77.0472,Alexandria City
22334,Alexandria,VA,38.8047,-77.0472,Alexandria City
22336,Alexandria,VA,38.8047,-77.0472,Alexandria City
22401,Fredericksburg,VA,38.299538,-77.477152,Fredericksburg City
22402,Fredericksburg,VA,38.2985,-77.4582,Fredericksburg City
22403,Fredericksburg,VA,38.3242,-77.4685,Stafford
22404,Fredericksburg,VA,38.2985,-77.4582,Fredericksburg City
22405,Fredericksburg,VA,38.314557,-77.404537,Stafford
22406,Fredericksburg,VA,38.379627,-77.534892,Stafford
22407,Fredericksburg,VA,38.268803,-77.547584,Spotsylvania
22408,Fredericksburg,VA,38.248141,-77.468068,Spotsylvania
22412,Fredericksburg,VA,38.3971,-77.5516,Stafford
22427,Bowling Green,VA,38.013651,-77.180242,Caroline
22428,Bowling Green,VA,38.049444,-77.346944,Caroline
22430,Brooke,VA,38.3875,-77.38,Stafford
22432,Burgess,VA,37.868682,-76.354164,Northumberland
22433,Burr Hill,VA,38.365841,-77.876166,Orange
22435,Callao,VA,37.977268,-76.573245,Northumberland
22436,Caret,VA,37.971255,-76.915254,Essex
22437,Center Cross,VA,37.792875,-76.754837,Essex
22438,Champlain,VA,38.021422,-76.971942,Essex
22442,Coles Point,VA,38.143611,-76.635833,Westmoreland
22443,Colonial Beach,VA,38.229076,-76.981158,Westmoreland
22446,Corbin,VA,38.199444,-77.389167,Caroline
22448,Dahlgren,VA,38.337485,-77.042905,King George
22451,Dogue,VA,38.231944,-77.216111,King George
22454,Dunnsville,VA,37.840429,-76.837022,Essex
22456,Edwardsville,VA,37.906389,-76.365556,Northumberland
22460,Farnham,VA,37.873972,-76.605011,Richmond
22463,Garrisonville,VA,38.4825,-77.426944,Stafford
22469,Hague,VA,38.057289,-76.661574,Westmoreland
22471,Hartwood,VA,38.402222,-77.565556,Stafford
22472,Haynesville,VA,37.95,-76.662778,Richmond
22473,Heathsville,VA,37.907187,-76.41783,Northumberland
22476,Hustle,VA,38.022219,-77.036426,Essex
22480,Irvington,VA,37.664516,-76.416016,Lancaster
22481,Jersey,VA,38.211389,-77.139722,King George
22482,Kilmarnock,VA,37.716222,-76.381986,Lancaster
22485,King George,VA,38.281142,-77.126023,King George
22488,Kinsale,VA,38.050472,-76.585525,Westmoreland
22501,Ladysmith,VA,38.0175,-77.515556,Caroline
22503,Lancaster,VA,37.750091,-76.5102,Lancaster
22504,Laneview,VA,37.768138,-76.711732,Essex
22507,Lively,VA,37.7775,-76.513889,Lancaster
22508,Locust Grove,VA,38.335202,-77.770874,Orange
22509,Loretto,VA,38.062055,-76.966888,Essex
22511,Lottsburg,VA,37.979228,-76.501763,Northumberland
22513,Merry Point,VA,37.733611,-76.482778,Lancaster
22514,Milford,VA,38.005834,-77.318498,Caroline
22517,Mollusk,VA,37.73,-76.538333,Lancaster
22520,Montross,VA,38.110483,-76.782806,Westmoreland
22523,Morattico,VA,37.789167,-76.629444,Lancaster
22524,Mount Holly,VA,38.091111,-76.718333,Westmoreland
22526,Ninde,VA,38.271111,-77.056389,King George
22528,Nuttsville,VA,37.793333,-76.551111,Lancaster
22529,Oldhams,VA,38.0025,-76.669167,Westmoreland
22530,Ophelia,VA,37.91,-76.283889,Northumberland
22534,Partlow,VA,38.064146,-77.658574,Spotsylvania
22535,Port Royal,VA,38.162088,-77.183657,Caroline
22538,Rappahannock Academy,VA,38.201817,-77.287437,Caroline
22539,Reedville,VA,37.856964,-76.282864,Northumberland
22542,Rhoadesville,VA,38.286324,-77.923044,Orange
22544,Rollins Fork,VA,38.184722,-77.0625,King George
22545,Ruby,VA,38.504167,-77.515833,Stafford
22546,Ruther Glen,VA,37.945059,-77.47135,Caroline
22547,Sealston,VA,38.261389,-77.332222,King George
22548,Sharps,VA,37.823889,-76.701111,Richmond
22552,Sparta,VA,37.991667,-77.230556,Caroline
22553,Spotsylvania,VA,38.19953,-77.648688,Spotsylvania
22554,Stafford,VA,38.458629,-77.430618,Stafford
22555,Stafford,VA,38.4219,-77.4086,Stafford
22556,Stafford,VA,38.4855,-77.4834,Stafford
22558,Stratford,VA,38.120556,-76.811111,Westmoreland
22560,Tappahannock,VA,37.914551,-76.912455,Essex
22565,Thornburg,VA,38.133333,-77.521944,Spotsylvania
22567,Unionville,VA,38.238302,-77.919299,Orange
22570,Village,VA,37.948889,-76.604444,Richmond
22572,Warsaw,VA,37.949992,-76.736517,Richmond
22576,Weems,VA,37.684678,-76.431323,Lancaster
22577,Sandy Point,VA,38.060556,-76.533611,Westmoreland
22578,White Stone,VA,37.647458,-76.368626,Lancaster
22579,Wicomico Church,VA,37.779027,-76.356522,Northumberland
22580,Woodford,VA,38.084664,-77.439879,Caroline
22581,Zacata,VA,38.12,-76.7825,Westmoreland
22601,Winchester,VA,39.185803,-78.182697,Winchester City
22602,Winchester,VA,39.1581,-78.2313,Frederick
22603,Winchester,VA,39.2425,-78.1923,Frederick
22604,Winchester,VA,39.1853,-78.1532,Winchester City
22610,Bentonville,VA,38.827272,-78.279111,Warren
22611,Berryville,VA,39.153178,-77.968759,Clarke
22620,Boyce,VA,39.069797,-78.020302,Clarke
22622,Brucetown,VA,39.254444,-78.066944,Frederick
22623,Chester Gap,VA,38.853333,-78.135278,Rappahannock
22624,Clear Brook,VA,39.265461,-78.098788,Frederick
22625,Cross Junction,VA,39.3762,-78.299724,Frederick
22626,Fishers Hill,VA,38.980556,-78.405,Shenandoah
22627,Flint Hill,VA,38.733653,-78.075558,Rappahannock
22630,Front Royal,VA,38.926783,-78.179617,Warren
22637,Gore,VA,39.288685,-78.341687,Frederick
22639,Hume,VA,38.827318,-77.994892,Fauquier
22640,Huntly,VA,38.813333,-78.130104,Rappahannock
22641,Strasburg,VA,39.056242,-78.359511,Shenandoah
22642,Linden,VA,38.881181,-78.047847,Warren
22643,Markham,VA,38.930001,-77.994252,Fauquier
22644,Maurertown,VA,38.944052,-78.465815,Shenandoah
22645,Middletown,VA,39.036676,-78.281455,Frederick
22646,Millwood,VA,39.069444,-78.038056,Clarke
22649,Middletown,VA,39.000946,-78.249152,Warren
22650,Rileyville,VA,38.756374,-78.387326,Page
22652,Fort Valley,VA,38.827683,-78.439989,Shenandoah
22654,Star Tannery,VA,39.090803,-78.434306,Frederick
22655,Stephens City,VA,39.083415,-78.190677,Frederick
22656,Stephenson,VA,39.197285,-78.094105,Frederick
22657,Strasburg,VA,38.988417,-78.33862,Shenandoah
22660,Toms Brook,VA,38.97016,-78.403757,Shenandoah
22663,White Post,VA,39.057956,-78.11046,Clarke
22664,Woodstock,VA,38.887024,-78.521704,Shenandoah
22701,Culpeper,VA,38.48115,-78.00406,Culpeper
22709,Aroda,VA,38.325626,-78.236615,Madison
22711,Banco,VA,38.451111,-78.281944,Madison
22712,Bealeton,VA,38.569667,-77.800436,Fauquier
22713,Boston,VA,38.538241,-78.142285,Culpeper
22714,Brandy Station,VA,38.511003,-77.903745,Culpeper
22715,Brightwood,VA,38.411365,-78.169801,Madison
22716,Castleton,VA,38.603235,-78.120801,Rappahannock
22718,Elkwood,VA,38.465229,-77.817031,Culpeper
22719,Etlan,VA,38.509458,-78.263793,Madison
22720,Goldvein,VA,38.488641,-77.639488,Fauquier
22721,Graves Mill,VA,38.4225,-78.367778,Madison
22722,Haywood,VA,38.46861,-78.179759,Madison
22723,Hood,VA,38.354722,-78.383056,Madison
22724,Jeffersonton,VA,38.625578,-77.906943,Culpeper
22725,Leon,VA,38.45724,-78.154579,Madison
22726,Lignum,VA,38.395625,-77.829957,Culpeper
22727,Madison,VA,38.384495,-78.296458,Madison
22728,Midland,VA,38.567061,-77.712709,Fauquier
22729,Mitchells,VA,38.374429,-78.010546,Culpeper
22730,Oakpark,VA,38.366667,-78.160278,Madison
22731,Pratts,VA,38.349207,-78.272212,Madison
22732,Radiant,VA,38.322706,-78.179799,Madison
22733,Rapidan,VA,38.339217,-78.047607,Culpeper
22734,Remington,VA,38.535091,-77.761365,Fauquier
22735,Reva,VA,38.460446,-78.157195,Madison
22736,Richardsville,VA,38.392388,-77.719519,Culpeper
22737,Rixeyville,VA,38.585168,-78.028229,Culpeper
22738,Rochelle,VA,38.274342,-78.265358,Madison
22739,Somerville,VA,38.521667,-77.609722,Fauquier
22740,Sperryville,VA,38.620252,-78.246571,Rappahannock
22741,Stevensburg,VA,38.444135,-77.88423,Culpeper
22742,Sumerduck,VA,38.467355,-77.70436,Fauquier
22743,Syria,VA,38.497229,-78.322939,Madison
22746,Viewtown,VA,38.645704,-78.025769,Culpeper
22747,Washington,VA,38.707838,-78.1566,Rappahannock
22748,Wolftown,VA,38.355556,-78.347778,Madison
22749,Woodville,VA,38.648176,-78.173855,Rappahannock
22801,Harrisonburg,VA,38.448864,-78.871438,Harrisonburg City
22802,Harrisonburg,VA,38.478,-78.8612,Harrisonburg City
22803,Harrisonburg,VA,38.5056,-78.9398,Harrisonburg City
22807,Harrisonburg,VA,38.4341,-78.8674,Harrisonburg City
22810,Basye,VA,38.795806,-78.767363,Shenandoah
22811,Bergton,VA,38.792509,-78.966752,Rockingham
22812,Bridgewater,VA,38.385866,-78.993684,Rockingham
22815,Broadway,VA,38.608336,-78.787494,Rockingham
22820,Criders,VA,38.749656,-78.997357,Rockingham
22821,Dayton,VA,38.433864,-78.993731,Rockingham
22824,Edinburg,VA,38.843206,-78.60033,Shenandoah
22827,Elkton,VA,38.40252,-78.632143,Rockingham
22830,Fulks Run,VA,38.633871,-78.935799,Rockingham
22831,Hinton,VA,38.483378,-79.010084,Rockingham
22832,Keezletown,VA,38.439588,-78.776998,Rockingham
22833,Lacey Spring,VA,38.541111,-78.766667,Rockingham
22834,Linville,VA,38.555733,-78.896102,Rockingham
22835,Luray,VA,38.654839,-78.459559,Page
22840,Mc Gaheysville,VA,38.371228,-78.741128,Rockingham
22841,Mount Crawford,VA,38.345656,-78.895679,Rockingham
22842,Mount Jackson,VA,38.768819,-78.676655,Shenandoah
22843,Mount Solon,VA,38.332755,-79.102832,Augusta
22844,New Market,VA,38.660555,-78.671433,Shenandoah
22845,Orkney Springs,VA,38.793708,-78.811106,Shenandoah
22846,Penn Laird,VA,38.369729,-78.797903,Rockingham
22847,Quicksburg,VA,38.714443,-78.698866,Shenandoah
22848,Pleasant Valley,VA,38.384722,-78.8975,Rockingham
22849,Shenandoah,VA,38.501034,-78.608975,Page
22850,Singers Glen,VA,38.5525,-78.913611,Rockingham
22851,Stanley,VA,38.566036,-78.509263,Page
22853,Timberville,VA,38.647606,-78.771702,Rockingham
22901,Charlottesville,VA,38.054752,-78.490869,Albemarle
22902,Charlottesville,VA,37.9962,-78.4782,Charlottesville City
22903,Charlottesville,VA,38.032728,-78.505758,Charlottesville City
22904,Charlottesville,VA,38.0337,-78.5153,Charlottesville City
22905,Charlottesville,VA,38.0519,-78.501,Charlottesville City
22906,Charlottesville,VA,38.0883,-78.4701,Charlottesville City
22907,Charlottesville,VA,38.0575,-78.4922,Charlottesville City
22908,Charlottesville,VA,38.0291,-78.4769,Charlottesville City
22909,Charlottesville,VA,38.0444,-78.4726,Albemarle
22910,Charlottesville,VA,38.0291,-78.4769,Charlottesville City
22911,Charlottesville,VA,38.0943,-78.4232,Albemarle
22920,Afton,VA,37.962624,-78.841046,Nelson
22922,Arrington,VA,37.687713,-78.918473,Nelson
22923,Barboursville,VA,38.199648,-78.312716,Orange
22924,Batesville,VA,37.995556,-78.7225,Albemarle
22931,Covesville,VA,37.907974,-78.712741,Albemarle
22932,Crozet,VA,38.081288,-78.704405,Albemarle
22935,Dyke,VA,38.253276,-78.554612,Greene
22936,Earlysville,VA,38.157761,-78.491945,Albemarle
22937,Esmont,VA,37.812543,-78.610646,Albemarle
22938,Faber,VA,37.847545,-78.756495,Nelson
22939,Fishersville,VA,38.097361,-78.969579,Augusta
22940,Free Union,VA,38.206217,-78.595906,Albemarle
22942,Gordonsville,VA,38.107261,-78.195195,Orange
22943,Greenwood,VA,38.041545,-78.783282,Albemarle
22945,Ivy,VA,38.056389,-78.596944,Albemarle
22946,Keene,VA,37.931273,-78.561386,Albemarle
22947,Keswick,VA,38.001265,-78.340429,Albemarle
22948,Locust Dale,VA,38.334043,-78.101576,Madison
22949,Lovingston,VA,37.792405,-78.868433,Nelson
22952,Lyndhurst,VA,37.997903,-78.951506,Augusta
22957,Montpelier Station,VA,38.228056,-78.176667,Orange
22958,Nellysford,VA,37.860398,-78.893972,Nelson
22959,North Garden,VA,37.961992,-78.695414,Albemarle
22960,Orange,VA,38.233937,-78.091224,Orange
22963,Palmyra,VA,37.881807,-78.297983,Fluvanna
22964,Piney River,VA,37.715785,-79.020571,Nelson
22965,Quinque,VA,38.25,-78.398056,Greene
22967,Roseland,VA,37.807697,-78.971173,Nelson
22968,Ruckersville,VA,38.233871,-78.391033,Greene
22969,Schuyler,VA,37.797584,-78.692475,Nelson
22971,Shipman,VA,37.747974,-78.824608,Nelson
22972,Somerset,VA,38.204657,-78.25042,Orange
22973,Stanardsville,VA,38.302556,-78.470755,Greene
22974,Troy,VA,37.9636,-78.253494,Fluvanna
22976,Tyro,VA,37.821389,-79.005,Nelson
22980,Waynesboro,VA,38.077412,-78.903461,Waynesboro City
22987,White Hall,VA,38.117778,-78.661667,Albemarle
22989,Woodberry Forest,VA,38.213889,-78.053611,Madison
23001,Achilles,VA,37.28,-76.440556,Gloucester
23002,Amelia Court House,VA,37.35017,-77.955177,Amelia
23003,Ark,VA,37.438333,-76.576111,Gloucester
23004,Arvonia,VA,37.671355,-78.38888,Buckingham
23005,Ashland,VA,37.73948,-77.478373,Hanover
23009,Aylett,VA,37.822113,-77.188473,King William
23011,Barhamsville,VA,37.461662,-76.832097,New Kent
23014,Beaumont,VA,37.761111,-78.026111,Goochland
23015,Beaverdam,VA,37.903767,-77.630829,Hanover
23018,Bena,VA,37.270833,-76.455833,Gloucester
23021,Bohannon,VA,37.390457,-76.36136,Mathews
23022,Bremo Bluff,VA,37.745256,-78.267158,Fluvanna
23023,Bruington,VA,37.780112,-76.940199,King And Queen
23024,Bumpass,VA,37.898381,-77.796614,Louisa
23025,Cardinal,VA,37.427339,-76.393959,Mathews
23027,Cartersville,VA,37.641314,-78.128699,Cumberland
23030,Charles City,VA,37.366271,-77.108183,Charles City
23031,Christchurch,VA,37.604722,-76.534722,Middlesex
23032,Church View,VA,37.674956,-76.66287,Middlesex
23035,Cobbs Creek,VA,37.499167,-76.367778,Mathews
23038,Columbia,VA,37.714707,-78.179403,Goochland
23039,Crozier,VA,37.671764,-77.793958,Goochland
23040,Cumberland,VA,37.501861,-78.258149,Cumberland
23043,Deltaville,VA,37.554852,-76.346781,Middlesex
23045,Diggs,VA,37.436273,-76.287172,Mathews
23047,Doswell,VA,37.841682,-77.512521,Hanover
23050,Dutton,VA,37.486897,-76.435782,Gloucester
23055,Fork Union,VA,37.771526,-78.235498,Fluvanna
23056,Foster,VA,37.452778,-76.385278,Mathews
23058,Glen Allen,VA,37.6658,-77.5066,Henrico
23059,Glen Allen,VA,37.686,-77.5507,Henrico
23060,Glen Allen,VA,37.662848,-77.534016,Henrico
23061,Gloucester,VA,37.41922,-76.553312,Gloucester
23062,Gloucester Point,VA,37.258534,-76.49586,Gloucester
23063,Goochland,VA,37.768789,-78.011216,Goochland
23064,Grimstead,VA,37.500278,-76.301667,Mathews
23065,Gum Spring,VA,37.818374,-77.907049,Goochland
23066,Gwynn,VA,37.500594,-76.29042,Mathews
23067,Hadensville,VA,37.825278,-77.999722,Goochland
23068,Hallieford,VA,37.493611,-76.340556,Mathews
23069,Hanover,VA,37.770116,-77.321572,Hanover
23070,Hardyville,VA,37.547821,-76.418937,Middlesex
23071,Hartfield,VA,37.559437,-76.476949,Middlesex
23072,Hayes,VA,37.291577,-76.490457,Gloucester
23075,Highland Springs,VA,37.543723,-77.32261,Henrico
23076,Hudgins,VA,37.470833,-76.326111,Mathews
23079,Jamaica,VA,37.729997,-76.688962,Middlesex
23081,Jamestown,VA,37.208,-76.7744,James City
23083,Jetersville,VA,37.31757,-78.104011,Amelia
23084,Kents Store,VA,37.89425,-78.120776,Fluvanna
23085,King And Queen Court House,VA,37.717644,-76.863059,King And Queen
23086,King William,VA,37.720194,-77.099837,King William
23089,Lanexa,VA,37.419391,-76.902684,New Kent
23090,Lightfoot,VA,37.340556,-76.754722,York
23091,Little Plymouth,VA,37.664218,-76.825456,King And Queen
23092,Locust Hill,VA,37.598328,-76.501857,Middlesex
23093,Louisa,VA,38.01317,-78.034666,Louisa
23101,Macon,VA,37.521667,-77.962222,Powhatan
23102,Maidens,VA,37.703193,-77.871032,Goochland
23103,Manakin Sabot,VA,37.638036,-77.707699,Goochland
23105,Mannboro,VA,37.251389,-77.823611,Amelia
23106,Manquin,VA,37.718441,-77.186016,King William
23107,Maryus,VA,37.279444,-76.403056,Gloucester
23108,Mascot,VA,37.60683,-76.738324,King And Queen
23109,Mathews,VA,37.438349,-76.354416,Mathews
23110,Mattaponi,VA,37.641698,-76.78398,King And Queen
23111,Mechanicsville,VA,37.628146,-77.339464,Hanover
23112,Midlothian,VA,37.431027,-77.654458,Chesterfield
23113,Midlothian,VA,37.510893,-77.642864,Chesterfield
23114,Midlothian,VA,37.411851,-76.367526,Chesterfield
23115,Millers Tavern,VA,37.828056,-76.945278,Essex
23116,Mechanicsville,VA,37.608611,-77.373611,Hanover
23117,Mineral,VA,37.998609,-77.878069,Louisa
23119,Moon,VA,37.449276,-76.306472,Mathews
23120,Moseley,VA,37.426026,-77.758458,Chesterfield
23123,New Canton,VA,37.664499,-78.311231,Buckingham
23124,New Kent,VA,37.553013,-77.074242,New Kent
23125,New Point,VA,37.349291,-76.283465,Mathews
23126,Newtown,VA,37.878236,-77.113825,King And Queen
23127,Norge,VA,37.368611,-76.770833,James City
23128,North,VA,37.477066,-76.370661,Mathews
23129,Oilville,VA,37.708879,-77.769955,Goochland
23130,Onemo,VA,37.398517,-76.294056,Mathews
23131,Ordinary,VA,37.315278,-76.513611,Gloucester
23138,Port Haywood,VA,37.374252,-76.304463,Mathews
23139,Powhatan,VA,37.556442,-77.879761,Powhatan
23140,Providence Forge,VA,37.425907,-77.071117,New Kent
23141,Quinton,VA,37.518466,-77.148607,New Kent
23146,Rockville,VA,37.733729,-77.699994,Hanover
23147,Ruthville,VA,37.367222,-77.041389,Charles City
23148,Saint Stephens Church,VA,37.905052,-77.084206,King And Queen
23149,Saluda,VA,37.594944,-76.592082,Middlesex
23150,Sandston,VA,37.515658,-77.27578,Henrico
23153,Sandy Hook,VA,37.751892,-77.904553,Goochland
23154,Schley,VA,37.389444,-76.455278,Gloucester
23155,Severn,VA,37.294167,-76.415833,Gloucester
23156,Shacklefords,VA,37.569811,-76.726901,King And Queen
23160,State Farm,VA,37.645278,-77.828333,Goochland
23161,Stevensville,VA,37.714577,-76.935228,King And Queen
23162,Studley,VA,37.675556,-77.291111,Hanover
23163,Susan,VA,37.361945,-76.318617,Mathews
23168,Toano,VA,37.39013,-76.825263,James City
23169,Topping,VA,37.597824,-76.454876,Middlesex
23170,Trevilians,VA,38.051389,-78.073056,Louisa
23173,University Of Richmond,VA,37.5737,-77.5407,Richmond City
23175,Urbanna,VA,37.655003,-76.612611,Middlesex
23176,Wake,VA,37.568077,-76.432327,Middlesex
23177,Walkerton,VA,37.755437,-77.018475,King And Queen
23178,Ware Neck,VA,37.4025,-76.458889,Gloucester
23180,Water View,VA,37.710486,-76.62268,Middlesex
23181,West Point,VA,37.555604,-76.82373,King William
23183,White Marsh,VA,37.342222,-76.521667,Gloucester
23184,Wicomico,VA,37.290833,-76.509722,Gloucester
23185,Williamsburg,VA,37.262698,-76.701686,James City
23186,Williamsburg,VA,37.2732,-76.7194,Williamsburg City
23187,Williamsburg,VA,37.2705,-76.7077,Williamsburg City
23188,Williamsburg,VA,37.317768,-76.763424,James City
23190,Woods Cross Roads,VA,37.436389,-76.545833,Gloucester
23192,Montpelier,VA,37.817729,-77.692441,Hanover
23218,Richmond,VA,37.5594,-77.4472,Richmond City
23219,Richmond,VA,37.546265,-77.437798,Richmond City
23220,Richmond,VA,37.549808,-77.458798,Richmond City
23221,Richmond,VA,37.558301,-77.4845,Richmond City
23222,Richmond,VA,37.574802,-77.426725,Richmond City
23223,Richmond,VA,37.547721,-77.394772,Richmond City
23224,Richmond,VA,37.495512,-77.471014,Richmond City
23225,Richmond,VA,37.515842,-77.504709,Richmond City
23226,Richmond,VA,37.582473,-77.519657,Henrico
23227,Richmond,VA,37.604181,-77.446309,Henrico
23228,Richmond,VA,37.623503,-77.493308,Henrico
23229,Richmond,VA,37.596351,-77.566202,Henrico
23230,Richmond,VA,37.588376,-77.496828,Henrico
23231,Richmond,VA,37.491529,-77.368002,Henrico
23232,Richmond,VA,37.5594,-77.4472,Richmond City
23233,Richmond,VA,37.619354,-77.614933,Henrico
23234,Richmond,VA,37.453158,-77.469798,Chesterfield
23235,Richmond,VA,37.512034,-77.565103,Chesterfield
23236,Richmond,VA,37.478165,-77.585413,Chesterfield
23237,Richmond,VA,37.401145,-77.461471,Chesterfield
23238,Richmond,VA,37.605,-77.6209,Henrico
23240,Richmond,VA,37.5536,-77.4605,Richmond City
23241,Richmond,VA,37.5441,-77.4406,Richmond City
23242,Richmond,VA,37.6171,-77.6149,Henrico
23249,Richmond,VA,37.4967,-77.4672,Richmond City
23250,Richmond,VA,37.502778,-77.337222,Henrico
23255,Richmond,VA,37.6074,-77.5672,Henrico
23260,Richmond,VA,37.5594,-77.4472,Richmond City
23261,Richmond,VA,37.5594,-77.4472,Richmond City
23269,Richmond,VA,37.5594,-77.4472,Richmond City
23273,Richmond,VA,37.5536,-77.4605,Richmond City
23274,Richmond,VA,37.5536,-77.4605,Richmond City
23276,Richmond,VA,37.5536,-77.4605,Richmond City
23278,Richmond,VA,37.5536,-77.4605,Richmond City
23279,Richmond,VA,37.5536,-77.4605,Richmond City
23282,Richmond,VA,37.5536,-77.4605,Richmond City
23284,Richmond,VA,37.5484,-77.454,Richmond City
23285,Richmond,VA,37.5594,-77.4472,Richmond City
23286,Richmond,VA,37.5594,-77.4472,Richmond City
23288,Richmond,VA,37.5992,-77.5456,Henrico
23289,Richmond,VA,37.5439,-77.4489,Richmond City
23290,Richmond,VA,37.5536,-77.4605,Richmond City
23291,Richmond,VA,37.5536,-77.4605,Richmond City
23292,Richmond,VA,37.5536,-77.4605,Richmond City
23293,Richmond,VA,37.5428,-77.4396,Richmond City
23294,Richmond,VA,37.632923,-77.545125,Henrico
23295,Richmond,VA,37.5537,-77.4609,Richmond City
23297,Richmond,VA,37.4019,-77.4597,Chesterfield
23298,Richmond,VA,37.5419,-77.4288,Richmond City
23301,Accomac,VA,37.71588,-75.680272,Accomack
23302,Assawoman,VA,37.86629,-75.52966,Accomack
23303,Atlantic,VA,37.900556,-75.508056,Accomack
23304,Battery Park,VA,36.996389,-76.574444,Isle Of Wight
23306,Belle Haven,VA,37.56448,-75.869443,Accomack
23307,Birdsnest,VA,37.432077,-75.904347,Northampton
23308,Bloxom,VA,37.827264,-75.615568,Accomack
23310,Cape Charles,VA,37.279874,-75.972129,Northampton
23313,Capeville,VA,37.202778,-75.9575,Northampton
23314,Carrollton,VA,36.954994,-76.542963,Isle Of Wight
23315,Carrsville,VA,36.74544,-76.83648,Isle Of Wight
23316,Cheriton,VA,37.289444,-75.971667,Northampton
23320,Chesapeake,VA,36.735246,-76.23843,Chesapeake City
23321,Chesapeake,VA,36.827964,-76.411012,Chesapeake City
23322,Chesapeake,VA,36.634008,-76.213064,Chesapeake City
23323,Chesapeake,VA,36.763424,-76.339743,Chesapeake City
23324,Chesapeake,VA,36.805568,-76.266557,Chesapeake City
23325,Chesapeake,VA,36.813963,-76.240555,Chesapeake City
23326,Chesapeake,VA,36.7662,-76.252,Chesapeake City
23327,Chesapeake,VA,36.7662,-76.252,Chesapeake City
23328,Chesapeake,VA,36.7296,-76.2268,Chesapeake City
23336,Chincoteague Island,VA,37.927682,-75.371369,Accomack
23337,Wallops Island,VA,37.827338,-75.506503,Accomack
23341,Craddockville,VA,37.581667,-75.869167,Accomack
23345,Davis Wharf,VA,37.552778,-75.878333,Accomack
23347,Eastville,VA,37.3525,-75.946111,Northampton
23350,Exmore,VA,37.511689,-75.852624,Northampton
23354,Franktown,VA,37.462009,-75.888971,Northampton
23356,Greenbackville,VA,38.006404,-75.402899,Accomack
23357,Greenbush,VA,37.768121,-75.6664,Accomack
23358,Hacksneck,VA,37.643056,-75.870833,Accomack
23359,Hallwood,VA,37.853644,-75.561334,Accomack
23389,Harborton,VA,37.661667,-75.830833,Accomack
23395,Horntown,VA,37.969916,-75.471608,Accomack
23396,Oak Hall,VA,37.933232,-75.56236,Accomack
23397,Isle Of Wight,VA,36.9075,-76.708056,Isle Of Wight
23398,Jamesville,VA,37.515,-75.930833,Northampton
23399,Jenkins Bridge,VA,37.919219,-75.631943,Accomack
23401,Keller,VA,37.619167,-75.764167,Accomack
23404,Locustville,VA,37.6534,-75.673508,Accomack
23405,Machipongo,VA,37.401429,-75.908241,Northampton
23407,Mappsville,VA,37.835419,-75.569886,Accomack
23408,Marionville,VA,37.4525,-75.855,Northampton
23409,Mears,VA,37.869189,-75.635443,Accomack
23410,Melfa,VA,37.6407,-75.745355,Accomack
23412,Modest Town,VA,37.812778,-75.565278,Accomack
23413,Nassawadox,VA,37.474722,-75.858611,Northampton
23414,Nelsonia,VA,37.819722,-75.5875,Accomack
23415,New Church,VA,37.952527,-75.511188,Accomack
23416,Oak Hall,VA,37.953686,-75.606483,Accomack
23417,Onancock,VA,37.710237,-75.752798,Accomack
23418,Onley,VA,37.670422,-75.6992,Accomack
23419,Oyster,VA,37.286389,-75.922778,Northampton
23420,Painter,VA,37.582821,-75.806612,Accomack
23421,Parksley,VA,37.774404,-75.638634,Accomack
23422,Pungoteague,VA,37.630278,-75.813889,Accomack
23423,Quinby,VA,37.553611,-75.734167,Accomack
23424,Rescue,VA,36.995833,-76.560833,Isle Of Wight
23426,Sanford,VA,37.92433,-75.695704,Accomack
23427,Saxis,VA,37.923889,-75.722222,Accomack
23429,Seaview,VA,37.261667,-75.946111,Northampton
23430,Smithfield,VA,36.981057,-76.63682,Isle Of Wight
23431,Smithfield,VA,36.982222,-76.631389,Isle Of Wight
23432,Suffolk,VA,36.866823,-76.559811,Suffolk City
23433,Suffolk,VA,36.909027,-76.49286,Suffolk City
23434,Suffolk,VA,36.730433,-76.593147,Suffolk City
23435,Suffolk,VA,36.854427,-76.466397,Suffolk City
23436,Suffolk,VA,36.892625,-76.514157,Suffolk City
23437,Suffolk,VA,36.652611,-76.792043,Suffolk City
23438,Suffolk,VA,36.591311,-76.687097,Suffolk City
23439,Suffolk,VA,36.728056,-76.583889,Suffolk City
23440,Tangier,VA,37.824485,-75.993003,Accomack
23441,Tasley,VA,37.710278,-75.700833,Accomack
23442,Temperanceville,VA,37.895421,-75.55283,Accomack
23443,Townsend,VA,37.184444,-75.958611,Northampton
23450,Virginia Beach,VA,36.8527,-75.9783,Virginia Beach City
23451,Virginia Beach,VA,36.858451,-76.001928,Virginia Beach City
23452,Virginia Beach,VA,36.83481,-76.096142,Virginia Beach City
23453,Virginia Beach,VA,36.7891,-76.0852,Virginia Beach City
23454,Virginia Beach,VA,36.828187,-76.023723,Virginia Beach City
23455,Virginia Beach,VA,36.888121,-76.144552,Virginia Beach City
23456,Virginia Beach,VA,36.779851,-76.089162,Virginia Beach City
23457,Virginia Beach,VA,36.624793,-76.037816,Virginia Beach City
23458,Virginia Beach,VA,36.8525,-75.9767,Virginia Beach City
23459,Virginia Beach,VA,36.9216,-76.017122,Virginia Beach City
23460,Virginia Beach,VA,36.8133,-76.0288,Virginia Beach City
23461,Virginia Beach,VA,36.7779,-75.9608,Virginia Beach City
23462,Virginia Beach,VA,36.839193,-76.152184,Virginia Beach City
23463,Virginia Beach,VA,36.7996,-76.1902,Virginia Beach City
23464,Virginia Beach,VA,36.797772,-76.175909,Virginia Beach City
23465,Virginia Beach,VA,36.8018,-76.1735,Virginia Beach City
23466,Virginia Beach,VA,36.8527,-75.9783,Virginia Beach City
23467,Virginia Beach,VA,36.8018,-76.1735,Virginia Beach City
23471,Virginia Beach,VA,36.8952,-76.1416,Virginia Beach City
23479,Virginia Beach,VA,36.8527,-75.9783,Virginia Beach City
23480,Wachapreague,VA,37.604167,-75.69,Accomack
23482,Wardtown,VA,37.534722,-75.877222,Northampton
23483,Wattsville,VA,37.933889,-75.5,Accomack
23486,Willis Wharf,VA,37.515556,-75.806944,Northampton
23487,Windsor,VA,36.836881,-76.732372,Isle Of Wight
23488,Withams,VA,37.945556,-75.5775,Accomack
23501,Norfolk,VA,36.8466,-76.2855,Norfolk City
23502,Norfolk,VA,36.854648,-76.214253,Norfolk City
23503,Norfolk,VA,36.944196,-76.252008,Norfolk City
23504,Norfolk,VA,36.858554,-76.268628,Norfolk City
23505,Norfolk,VA,36.91675,-76.28748,Norfolk City
23506,Norfolk,VA,36.8466,-76.2855,Norfolk City
23507,Norfolk,VA,36.864506,-76.300385,Norfolk City
23508,Norfolk,VA,36.885922,-76.300356,Norfolk City
23509,Norfolk,VA,36.878743,-76.260361,Norfolk City
23510,Norfolk,VA,36.852929,-76.287784,Norfolk City
23511,Norfolk,VA,36.951164,-76.309206,Norfolk City
23512,Norfolk,VA,36.9214,-76.3161,Norfolk City
23513,Norfolk,VA,36.891395,-76.239578,Norfolk City
23514,Norfolk,VA,36.8469,-76.2904,Norfolk City
23515,Norfolk,VA,36.9471,-76.3005,Norfolk City
23517,Norfolk,VA,36.869547,-76.294519,Norfolk City
23518,Norfolk,VA,36.920246,-76.216027,Norfolk City
23519,Norfolk,VA,36.9222,-76.1884,Norfolk City
23520,Norfolk,VA,36.8466,-76.2855,Norfolk City
23521,Norfolk,VA,36.916923,-76.163715,Norfolk City
23523,Norfolk,VA,36.82942,-76.270125,Norfolk City
23529,Norfolk,VA,36.8871,-76.3053,Norfolk City
23541,Norfolk,VA,36.8466,-76.2855,Norfolk City
23551,Norfolk,VA,36.9246,-76.3027,Norfolk City
23601,Newport News,VA,37.057951,-76.460722,Newport News City
23602,Newport News,VA,37.131684,-76.532125,Newport News City
23603,Newport News,VA,37.198887,-76.582059,Newport News City
23604,Fort Eustis,VA,37.122112,-76.589727,Newport News City
23605,Newport News,VA,37.015583,-76.433158,Newport News City
23606,Newport News,VA,37.076777,-76.496724,Newport News City
23607,Newport News,VA,36.986352,-76.416469,Newport News City
23608,Newport News,VA,37.1523,-76.5424,Newport News City
23609,Newport News,VA,36.9786,-76.4283,Newport News City
23612,Newport News,VA,37.0679,-76.4959,Newport News City
23628,Newport News,VA,36.9786,-76.4283,Newport News City
23630,Hampton,VA,37.0065,-76.413,Hampton City
23651,Fort Monroe,VA,37.029671,-76.296896,Hampton City
23661,Hampton,VA,37.007432,-76.380085,Hampton City
23662,Poquoson,VA,37.131252,-76.380702,Poquoson City
23663,Hampton,VA,37.03181,-76.319875,Hampton City
23664,Hampton,VA,37.056611,-76.296639,Hampton City
23665,Hampton,VA,37.100565,-76.409939,York
23666,Hampton,VA,37.046241,-76.409617,Hampton City
23667,Hampton,VA,37.0297,-76.3455,Hampton City
23668,Hampton,VA,37.0207,-76.3323,Hampton City
23669,Hampton,VA,37.043559,-76.342573,Hampton City
23670,Hampton,VA,37.0059,-76.4122,Hampton City
23681,Hampton,VA,37.1009,-76.3932,Hampton City
23690,Yorktown,VA,37.228657,-76.542346,York
23691,Yorktown,VA,37.238611,-76.51,York
23692,Yorktown,VA,37.170859,-76.459648,York
23693,Yorktown,VA,37.122586,-76.450743,York
23694,Lackey,VA,37.230833,-76.553056,York
23696,Seaford,VA,37.188468,-76.428992,York
23701,Portsmouth,VA,36.808902,-76.36714,Portsmouth City
23702,Portsmouth,VA,36.803534,-76.326979,Portsmouth City
23703,Portsmouth,VA,36.869501,-76.386872,Portsmouth City
23704,Portsmouth,VA,36.829821,-76.314604,Portsmouth City
23705,Portsmouth,VA,36.8352,-76.2986,Portsmouth City
23707,Portsmouth,VA,36.836234,-76.344011,Portsmouth City
23708,Portsmouth,VA,36.8458,-76.3085,Portsmouth City
23709,Portsmouth,VA,36.813883,-76.305188,Portsmouth City
23801,Fort Lee,VA,37.244738,-77.33405,Prince George
23803,Petersburg,VA,37.220001,-77.432594,Petersburg City
23804,Petersburg,VA,37.2284,-77.4027,Petersburg City
23805,Petersburg,VA,37.181937,-77.385385,Petersburg City
23806,Petersburg,VA,37.2345,-77.4198,Petersburg City
23821,Alberta,VA,36.880609,-77.905518,Brunswick
23822,Ammon,VA,37.150833,-77.744444,Dinwiddie
23824,Blackstone,VA,37.091578,-77.985063,Nottoway
23825,Blackstone,VA,37.0795,-77.9981,Nottoway
23827,Boykins,VA,36.595061,-77.197519,Southampton
23828,Branchville,VA,36.578701,-77.270441,Southampton
23829,Capron,VA,36.724332,-77.239363,Southampton
23830,Carson,VA,37.039311,-77.435093,Dinwiddie
23831,Chester,VA,37.342934,-77.41557,Chesterfield
23832,Chesterfield,VA,37.392327,-77.566799,Chesterfield
23833,Church Road,VA,37.194964,-77.664588,Dinwiddie
23834,Colonial Heights,VA,37.269968,-77.403829,Colonial Heights City
23836,Chester,VA,37.356667,-77.441944,Chesterfield
23837,Courtland,VA,36.722516,-77.078272,Southampton
23838,Chesterfield,VA,37.376944,-77.506111,Chesterfield
23839,Dendron,VA,37.098076,-76.896642,Surry
23840,Dewitt,VA,37.053522,-77.642558,Dinwiddie
23841,Dinwiddie,VA,37.083283,-77.558539,Dinwiddie
23842,Disputanta,VA,37.148268,-77.273172,Prince George
23843,Dolphin,VA,36.831774,-77.788719,Brunswick
23844,Drewryville,VA,36.685433,-77.359098,Southampton
23845,Ebony,VA,36.584993,-77.999431,Brunswick
23846,Elberon,VA,37.070133,-76.833723,Surry
23847,Emporia,VA,36.685689,-77.562953,Greensville
23850,Ford,VA,37.139672,-77.737189,Dinwiddie
23851,Franklin,VA,36.678625,-76.939108,Franklin City
23856,Freeman,VA,36.789342,-77.720772,Brunswick
23857,Gasburg,VA,36.576552,-77.902927,Brunswick
23860,Hopewell,VA,37.287576,-77.295013,Hopewell City
23866,Ivor,VA,36.907099,-76.886146,Southampton
23867,Jarratt,VA,36.819129,-77.483162,Greensville
23868,Lawrenceville,VA,36.744874,-77.838437,Brunswick
23870,Jarratt,VA,36.814167,-77.468611,Greensville
23872,Mc Kenney,VA,36.998609,-77.739556,Dinwiddie
23873,Meredithville,VA,36.806667,-77.956944,Brunswick
23874,Newsoms,VA,36.614814,-77.106949,Southampton
23875,Prince George,VA,37.233339,-77.274706,Prince George
23876,Rawlings,VA,36.953043,-77.82372,Brunswick
23878,Sedley,VA,36.790752,-77.012531,Southampton
23879,Skippers,VA,36.579685,-77.543663,Greensville
23881,Spring Grove,VA,37.190098,-76.992337,Surry
23882,Stony Creek,VA,36.936132,-77.444276,Sussex
23883,Surry,VA,37.126024,-76.76514,Surry
23884,Sussex,VA,36.915,-77.279444,Sussex
23885,Sutherland,VA,37.190149,-77.565463,Dinwiddie
23887,Valentines,VA,36.565024,-77.838405,Brunswick
23888,Wakefield,VA,36.975734,-76.97898,Sussex
23889,Warfield,VA,36.901122,-77.767317,Brunswick
23890,Waverly,VA,37.025032,-77.105453,Sussex
23891,Waverly,VA,37.035833,-77.095556,Sussex
23893,White Plains,VA,36.633549,-77.959245,Brunswick
23894,Wilsons,VA,37.115678,-77.835193,Dinwiddie
23897,Yale,VA,36.837279,-77.286986,Sussex
23898,Zuni,VA,36.843666,-76.810967,Isle Of Wight
23899,Claremont,VA,37.227778,-76.964444,Surry
23901,Farmville,VA,37.302692,-78.407592,Prince Edward
23909,Farmville,VA,37.3,-78.3962,Prince Edward
23915,Baskerville,VA,36.723595,-78.279047,Mecklenburg
23917,Boydton,VA,36.654422,-78.375174,Mecklenburg
23919,Bracey,VA,36.576295,-78.105862,Mecklenburg
23920,Brodnax,VA,36.731879,-77.989843,Brunswick
23921,Buckingham,VA,37.583335,-78.598537,Buckingham
23922,Burkeville,VA,37.195203,-78.196084,Nottoway
23923,Charlotte Court House,VA,37.086379,-78.660622,Charlotte
23924,Chase City,VA,36.805305,-78.455268,Mecklenburg
23927,Clarksville,VA,36.631437,-78.535294,Mecklenburg
23930,Crewe,VA,37.165676,-78.105866,Nottoway
23934,Cullen,VA,37.155211,-78.645912,Charlotte
23936,Dillwyn,VA,37.545804,-78.460929,Buckingham
23937,Drakes Branch,VA,36.968767,-78.561542,Charlotte
23938,Dundas,VA,36.90532,-78.010016,Lunenburg
23939,Evergreen,VA,37.318333,-78.766111,Appomattox
23941,Fort Mitchell,VA,36.918056,-78.486389,Lunenburg
23942,Green Bay,VA,37.123417,-78.307195,Prince Edward
23943,Hampden Sydney,VA,37.1708,-78.4684,Prince Edward
23944,Kenbridge,VA,36.932965,-78.124238,Lunenburg
23947,Keysville,VA,37.041086,-78.469912,Charlotte
23950,La Crosse,VA,36.68609,-78.095251,Mecklenburg
23952,Lunenburg,VA,36.922624,-78.290644,Lunenburg
23954,Meherrin,VA,37.101283,-78.387357,Prince Edward
23955,Nottoway,VA,37.128333,-78.078333,Nottoway
23958,Pamplin,VA,37.265333,-78.65166,Appomattox
23959,Phenix,VA,37.092506,-78.791195,Charlotte
23960,Prospect,VA,37.305838,-78.546162,Prince Edward
23962,Randolph,VA,36.963079,-78.699249,Charlotte
23963,Red House,VA,37.191431,-78.814467,Charlotte
23964,Red Oak,VA,36.772403,-78.632057,Charlotte
23966,Rice,VA,37.272132,-78.279262,Prince Edward
23967,Saxe,VA,36.90569,-78.605699,Charlotte
23968,Skipwith,VA,36.731704,-78.530552,Mecklenburg
23970,South Hill,VA,36.712388,-78.153388,Mecklenburg
23974,Victoria,VA,36.983543,-78.237243,Lunenburg
23976,Wylliesburg,VA,36.838968,-78.612655,Charlotte
24001,Roanoke,VA,37.2708,-79.9416,Roanoke City
24002,Roanoke,VA,37.2708,-79.9416,Roanoke City
24003,Roanoke,VA,37.2708,-79.9416,Roanoke City
24004,Roanoke,VA,37.2708,-79.9416,Roanoke City
24005,Roanoke,VA,37.2708,-79.9416,Roanoke City
24006,Roanoke,VA,37.2708,-79.9416,Roanoke City
24007,Roanoke,VA,37.2708,-79.9416,Roanoke City
24008,Roanoke,VA,37.2708,-79.9416,Roanoke City
24009,Roanoke,VA,37.2708,-79.9416,Roanoke City
24010,Roanoke,VA,37.2708,-79.9416,Roanoke City
24011,Roanoke,VA,37.268997,-79.942019,Roanoke City
24012,Roanoke,VA,37.302912,-79.932179,Roanoke City
24013,Roanoke,VA,37.267685,-79.924747,Roanoke City
24014,Roanoke,VA,37.23268,-79.946332,Roanoke City
24015,Roanoke,VA,37.258363,-79.980694,Roanoke City
24016,Roanoke,VA,37.270407,-79.953495,Roanoke City
24017,Roanoke,VA,37.293655,-79.990248,Roanoke City
24018,Roanoke,VA,37.231554,-80.021749,Roanoke
24019,Roanoke,VA,37.33585,-79.956328,Roanoke
24020,Roanoke,VA,37.355278,-79.942222,Roanoke
24022,Roanoke,VA,37.2708,-79.9416,Roanoke City
24023,Roanoke,VA,37.2698,-79.9537,Roanoke City
24024,Roanoke,VA,37.2708,-79.9416,Roanoke City
24025,Roanoke,VA,37.2708,-79.9416,Roanoke City
24026,Roanoke,VA,37.2708,-79.9416,Roanoke City
24027,Roanoke,VA,37.2708,-79.9416,Roanoke City
24028,Roanoke,VA,37.2708,-79.9416,Roanoke City
24029,Roanoke,VA,37.2708,-79.9416,Roanoke City
24030,Roanoke,VA,37.2708,-79.9416,Roanoke City
24031,Roanoke,VA,37.2708,-79.9416,Roanoke City
24032,Roanoke,VA,37.2708,-79.9416,Roanoke City
24033,Roanoke,VA,37.2708,-79.9416,Roanoke City
24034,Roanoke,VA,37.2708,-79.9416,Roanoke City
24035,Roanoke,VA,37.2708,-79.9416,Roanoke City
24036,Roanoke,VA,37.2708,-79.9416,Roanoke City
24037,Roanoke,VA,37.2708,-79.9416,Roanoke City
24038,Roanoke,VA,37.2708,-79.9416,Roanoke City
24040,Roanoke,VA,37.2708,-79.9416,Roanoke City
24042,Roanoke,VA,37.2695,-79.9386,Roanoke City
24043,Roanoke,VA,37.2708,-79.9416,Roanoke City
24044,Roanoke,VA,37.2708,-79.9416,Roanoke City
24045,Roanoke,VA,37.2708,-79.9416,Roanoke City
24048,Roanoke,VA,37.2708,-79.9416,Roanoke City
24050,Roanoke,VA,37.2725,-79.953,Botetourt
24053,Ararat,VA,36.613946,-80.50934,Patrick
24054,Axton,VA,36.654839,-79.73964,Henry
24055,Bassett,VA,36.753425,-80.005506,Henry
24058,Belspring,VA,37.190833,-80.608333,Pulaski
24059,Bent Mountain,VA,37.206793,-80.145501,Roanoke
24060,Blacksburg,VA,37.228804,-80.427313,Montgomery
24061,Blacksburg,VA,37.2285,-80.4232,Montgomery
24062,Blacksburg,VA,37.2294,-80.4141,Montgomery
24063,Blacksburg,VA,37.2294,-80.4141,Montgomery
24064,Blue Ridge,VA,37.388542,-79.817178,Botetourt
24065,Boones Mill,VA,37.13313,-79.955554,Franklin
24066,Buchanan,VA,37.52844,-79.705287,Botetourt
24067,Callaway,VA,37.028495,-80.049592,Franklin
24068,Christiansburg,VA,37.129722,-80.409167,Montgomery
24069,Cascade,VA,36.592697,-79.657438,Pittsylvania
24070,Catawba,VA,37.369649,-80.128384,Roanoke
24072,Check,VA,37.032642,-80.236747,Floyd
24073,Christiansburg,VA,37.135286,-80.418774,Montgomery
24076,Claudville,VA,36.583899,-80.444179,Patrick
24077,Cloverdale,VA,37.366293,-79.912765,Botetourt
24078,Collinsville,VA,36.72379,-79.914192,Henry
24079,Copper Hill,VA,37.055568,-80.152469,Floyd
24082,Critz,VA,36.621059,-80.129765,Patrick
24083,Daleville,VA,37.41253,-79.921095,Botetourt
24084,Dublin,VA,37.098879,-80.669696,Pulaski
24085,Eagle Rock,VA,37.666727,-79.817215,Botetourt
24086,Eggleston,VA,37.290576,-80.652758,Giles
24087,Elliston,VA,37.212651,-80.249658,Montgomery
24088,Ferrum,VA,36.916834,-80.034923,Franklin
24089,Fieldale,VA,36.706414,-79.965245,Henry
24090,Fincastle,VA,37.491099,-79.851116,Botetourt
24091,Floyd,VA,36.919523,-80.319054,Floyd
24092,Glade Hill,VA,37.016866,-79.776271,Franklin
24093,Glen Lyn,VA,37.366853,-80.863358,Giles
24095,Goodview,VA,37.347167,-79.726284,Bedford
24101,Hardy,VA,37.214473,-79.812661,Franklin
24102,Henry,VA,36.839322,-79.99036,Franklin
24104,Huddleston,VA,37.144155,-79.491017,Bedford
24105,Indian Valley,VA,36.898993,-80.57571,Floyd
24111,Mc Coy,VA,37.236944,-80.596111,Montgomery
24112,Martinsville,VA,36.687067,-79.869136,Martinsville City
24113,Martinsville,VA,36.6803,-79.8537,Martinsville City
24114,Martinsville,VA,36.6803,-79.8537,Martinsville City
24115,Martinsville,VA,36.6803,-79.8537,Martinsville City
24120,Meadows Of Dan,VA,36.72504,-80.402227,Patrick
24121,Moneta,VA,37.178383,-79.652111,Bedford
24122,Montvale,VA,37.40696,-79.717462,Bedford
24124,Narrows,VA,37.319846,-80.85485,Giles
24126,Newbern,VA,37.073333,-80.690833,Pulaski
24127,New Castle,VA,37.487132,-80.17042,Craig
24128,Newport,VA,37.306852,-80.50992,Giles
24129,New River,VA,37.133333,-80.591667,Pulaski
24130,Oriskany,VA,37.616389,-79.983889,Botetourt
24131,Paint Bank,VA,37.574482,-80.254436,Craig
24132,Parrott,VA,37.205,-80.615833,Pulaski
24133,Patrick Springs,VA,36.674435,-80.138769,Patrick
24134,Pearisburg,VA,37.304121,-80.726703,Giles
24136,Pembroke,VA,37.33027,-80.615507,Giles
24137,Penhook,VA,36.920125,-79.664493,Franklin
24138,Pilot,VA,37.056476,-80.322901,Montgomery
24139,Pittsville,VA,36.971578,-79.479413,Pittsylvania
24141,Radford,VA,37.135816,-80.571721,Radford
24142,Radford,VA,37.1387,-80.548,Radford
24143,Radford,VA,37.1406,-80.5581,Radford
24146,Redwood,VA,37.019722,-79.812222,Franklin
24147,Rich Creek,VA,37.385048,-80.822718,Giles
24148,Ridgeway,VA,36.5874,-79.86859,Henry
24149,Riner,VA,37.032209,-80.435309,Montgomery
24150,Ripplemead,VA,37.366455,-80.671728,Giles
24151,Rocky Mount,VA,36.989101,-79.883959,Franklin
24153,Salem,VA,37.2853,-80.069185,Salem
24155,Roanoke,VA,37.2935,-80.0553,Salem
24157,Roanoke,VA,37.2912,-80.0649,Salem
24161,Sandy Level,VA,36.991042,-79.561404,Pittsylvania
24162,Shawsville,VA,37.146619,-80.27153,Montgomery
24165,Spencer,VA,36.59676,-80.037345,Henry
24167,Staffordsville,VA,37.245378,-80.740334,Giles
24168,Stanleytown,VA,36.734759,-79.935482,Henry
24171,Stuart,VA,36.651744,-80.23923,Patrick
24174,Thaxton,VA,37.360008,-79.652187,Bedford
24175,Troutville,VA,37.401855,-79.878636,Botetourt
24176,Union Hall,VA,37.013111,-79.686447,Franklin
24177,Vesta,VA,36.716667,-80.358056,Patrick
24178,Villamont,VA,37.395278,-79.776389,Bedford
24179,Vinton,VA,37.271139,-79.835466,Roanoke
24184,Wirtz,VA,37.081794,-79.757254,Franklin
24185,Woolwine,VA,36.792076,-80.277426,Patrick
24201,Bristol,VA,36.618093,-82.182297,Bristol
24202,Bristol,VA,36.6445,-82.1597,Washington
24203,Bristol,VA,36.5963,-82.1886,Bristol
24209,Bristol,VA,36.5963,-82.1886,Bristol
24210,Abingdon,VA,36.691644,-82.019989,Washington
24211,Abingdon,VA,36.6632,-81.9635,Washington
24212,Abingdon,VA,36.7097,-81.9775,Washington
24215,Andover,VA,36.923611,-82.796667,Wise
24216,Appalachia,VA,36.906001,-82.791394,Wise
24217,Bee,VA,37.101358,-82.185632,Dickenson
24218,Ben Hur,VA,36.732778,-83.082222,Lee
24219,Big Stone Gap,VA,36.858073,-82.762727,Wise
24220,Birchleaf,VA,37.169481,-82.248346,Dickenson
24221,Blackwater,VA,36.639011,-82.98658,Lee
24224,Castlewood,VA,36.876409,-82.287574,Russell
24225,Cleveland,VA,36.950215,-82.131758,Russell
24226,Clinchco,VA,37.140581,-82.342476,Dickenson
24228,Clintwood,VA,37.159206,-82.445339,Dickenson
24230,Coeburn,VA,36.960489,-82.473497,Wise
24236,Damascus,VA,36.640264,-81.777633,Washington
24237,Dante,VA,37.005419,-82.281519,Russell
24239,Davenport,VA,37.068044,-82.122946,Buchanan
24243,Dryden,VA,36.781825,-82.930478,Lee
24244,Duffield,VA,36.704402,-82.80651,Scott
24245,Dungannon,VA,36.82416,-82.496025,Scott
24246,East Stone Gap,VA,36.866667,-82.7425,Wise
24248,Ewing,VA,36.623694,-83.504737,Lee
24250,Fort Blackmore,VA,36.743828,-82.610178,Scott
24251,Gate City,VA,36.646026,-82.611179,Scott
24256,Haysi,VA,37.220552,-82.285306,Dickenson
24258,Hiltons,VA,36.649778,-82.429929,Scott
24260,Honaker,VA,37.027292,-81.996883,Russell
24263,Jonesville,VA,36.689647,-83.13615,Lee
24265,Keokee,VA,36.823931,-82.977161,Lee
24266,Lebanon,VA,36.880895,-82.09563,Russell
24269,Mc Clure,VA,37.081412,-82.380553,Dickenson
24270,Mendota,VA,36.722302,-82.264888,Washington
24271,Nickelsville,VA,36.750221,-82.420172,Scott
24272,Nora,VA,37.018229,-82.350023,Dickenson
24273,Norton,VA,36.937797,-82.624923,Norton City
24277,Pennington Gap,VA,36.750752,-83.022299,Lee
24279,Pound,VA,37.092734,-82.601555,Wise
24280,Rosedale,VA,36.973981,-81.888793,Russell
24281,Rose Hill,VA,36.658257,-83.348565,Lee
24282,Saint Charles,VA,36.831515,-83.051838,Lee
24283,Saint Paul,VA,36.932295,-82.341844,Wise
24290,Weber City,VA,36.620213,-82.545227,Scott
24292,Whitetop,VA,36.610559,-81.583938,Grayson
24293,Wise,VA,36.975,-82.594679,Wise
24301,Pulaski,VA,37.056708,-80.770961,Pulaski
24311,Atkins,VA,36.866532,-81.404791,Smyth
24312,Austinville,VA,36.819461,-80.858322,Wythe
24313,Barren Springs,VA,36.907787,-80.809006,Wythe
24314,Bastian,VA,37.15742,-81.198855,Bland
24315,Bland,VA,37.137644,-81.020064,Bland
24316,Broadford,VA,36.93299,-81.659388,Tazewell
24317,Cana,VA,36.59574,-80.670452,Carroll
24318,Ceres,VA,37.00456,-81.364272,Bland
24319,Chilhowie,VA,36.771912,-81.665103,Smyth
24322,Cripple Creek,VA,36.808612,-81.103928,Wythe
24323,Crockett,VA,36.876755,-81.208883,Wythe
24324,Draper,VA,36.969743,-80.818752,Pulaski
24325,Dugspur,VA,36.814546,-80.612348,Carroll
24326,Elk Creek,VA,36.730579,-81.191488,Grayson
24327,Emory,VA,36.772778,-81.836389,Washington
24328,Fancy Gap,VA,36.663972,-80.69075,Carroll
24330,Fries,VA,36.724683,-81.004157,Grayson
24333,Galax,VA,36.656503,-80.911744,Galax City
24340,Glade Spring,VA,36.7779,-81.767639,Washington
24343,Hillsville,VA,36.744225,-80.71973,Carroll
24347,Hiwassee,VA,36.997815,-80.638173,Pulaski
24348,Independence,VA,36.629444,-81.158202,Grayson
24350,Ivanhoe,VA,36.827225,-80.977911,Wythe
24351,Lambsburg,VA,36.577483,-80.760133,Carroll
24352,Laurel Fork,VA,36.707347,-80.514776,Carroll
24354,Marion,VA,36.827316,-81.534914,Smyth
24360,Max Meadows,VA,36.91708,-80.921391,Wythe
24361,Meadowview,VA,36.761175,-81.851205,Washington
24363,Mouth Of Wilson,VA,36.610379,-81.395452,Grayson
24366,Rocky Gap,VA,37.244242,-81.155236,Bland
24368,Rural Retreat,VA,36.883616,-81.287872,Wythe
24370,Saltville,VA,36.892699,-81.740201,Smyth
24374,Speedwell,VA,36.799843,-81.183404,Wythe
24375,Sugar Grove,VA,36.773633,-81.408443,Smyth
24377,Tannersville,VA,36.976331,-81.628017,Tazewell
24378,Troutdale,VA,36.68546,-81.435004,Grayson
24380,Willis,VA,36.874927,-80.490861,Floyd
24381,Woodlawn,VA,36.787948,-80.882437,Carroll
24382,Wytheville,VA,36.940669,-81.094082,Wythe
24401,Staunton,VA,38.145104,-79.07519,Staunton City
24402,Staunton,VA,38.149444,-79.071944,Staunton City
24411,Augusta Springs,VA,38.101944,-79.318333,Augusta
24412,Bacova,VA,38.053889,-79.843889,Bath
24413,Blue Grass,VA,38.515231,-79.561272,Highland
24415,Brownsburg,VA,37.928333,-79.319444,Rockbridge
24416,Buena Vista,VA,37.739585,-79.352311,Buena Vista City
24421,Churchville,VA,38.234605,-79.179126,Augusta
24422,Clifton Forge,VA,37.820342,-79.805423,Alleghany
24426,Covington,VA,37.784203,-80.003176,Covington City
24430,Craigsville,VA,38.076826,-79.361883,Augusta
24431,Crimora,VA,38.168422,-78.841275,Augusta
24432,Deerfield,VA,38.184231,-79.415186,Augusta
24433,Doe Hill,VA,38.390248,-79.482176,Highland
24435,Fairfield,VA,37.877825,-79.297922,Rockbridge
24437,Fort Defiance,VA,38.210928,-78.932583,Augusta
24438,Glen Wilton,VA,37.752778,-79.819167,Botetourt
24439,Goshen,VA,37.987813,-79.477325,Rockbridge
24440,Greenville,VA,38.001804,-79.135876,Augusta
24441,Grottoes,VA,38.248371,-78.825528,Rockingham
24442,Head Waters,VA,38.294611,-79.435272,Highland
24445,Hot Springs,VA,37.963784,-79.871662,Bath
24448,Iron Gate,VA,37.7975,-79.791389,Alleghany
24450,Lexington,VA,37.788463,-79.458111,Lexington City
24457,Low Moor,VA,37.788611,-79.883889,Alleghany
24458,Mc Dowell,VA,38.326588,-79.498798,Highland
24459,Middlebrook,VA,38.024158,-79.281165,Augusta
24460,Millboro,VA,38.005795,-79.640649,Bath
24463,Mint Spring,VA,38.074444,-79.101111,Augusta
24464,Montebello,VA,37.839931,-79.061079,Nelson
24465,Monterey,VA,38.405821,-79.59407,Highland
24467,Mount Sidney,VA,38.261185,-78.97296,Augusta
24468,Mustoe,VA,38.286216,-79.659137,Highland
24469,New Hope,VA,38.197778,-78.906111,Augusta
24471,Port Republic,VA,38.317167,-78.810388,Rockingham
24472,Raphine,VA,37.937353,-79.221903,Rockbridge
24473,Rockbridge Baths,VA,37.896458,-79.387421,Rockbridge
24474,Selma,VA,37.806389,-79.848333,Alleghany
24476,Steeles Tavern,VA,37.925556,-79.202778,Augusta
24477,Stuarts Draft,VA,38.014423,-79.029821,Augusta
24479,Swoope,VA,38.159117,-79.187281,Augusta
24482,Verona,VA,38.203726,-79.005872,Augusta
24483,Vesuvius,VA,37.83777,-79.213485,Rockbridge
24484,Warm Springs,VA,38.085119,-79.807792,Bath
24485,West Augusta,VA,38.274397,-79.320139,Augusta
24486,Weyers Cave,VA,38.293145,-78.923454,Augusta
24487,Williamsville,VA,38.177907,-79.650607,Bath
24501,Lynchburg,VA,37.386228,-79.171464,Lynchburg City
24502,Lynchburg,VA,37.359635,-79.211783,Lynchburg City
24503,Lynchburg,VA,37.437646,-79.204982,Lynchburg City
24504,Lynchburg,VA,37.390422,-79.12142,Lynchburg City
24505,Lynchburg,VA,37.4146,-79.1434,Lynchburg City
24506,Lynchburg,VA,37.3802,-79.1603,Lynchburg City
24512,Lynchburg,VA,37.4502,-79.2501,Lynchburg City
24513,Lynchburg,VA,37.3802,-79.1603,Lynchburg City
24514,Lynchburg,VA,37.3802,-79.1603,Lynchburg City
24515,Lynchburg,VA,37.3802,-79.1603,Lynchburg City
24517,Altavista,VA,37.122162,-79.291145,Campbell
24520,Alton,VA,36.589352,-79.020237,Halifax
24521,Amherst,VA,37.602677,-79.050572,Amherst
24522,Appomattox,VA,37.352951,-78.822445,Appomattox
24523,Bedford,VA,37.315345,-79.53311,Bedford
24526,Big Island,VA,37.530556,-79.382706,Bedford
24527,Blairs,VA,36.667408,-79.378869,Pittsylvania
24528,Brookneal,VA,37.082663,-78.922679,Campbell
24529,Buffalo Junction,VA,36.61676,-78.609266,Mecklenburg
24530,Callands,VA,36.764748,-79.628779,Pittsylvania
24531,Chatham,VA,36.83099,-79.429659,Pittsylvania
24533,Clifford,VA,37.643333,-79.0225,Amherst
24534,Clover,VA,36.863695,-78.78618,Halifax
24535,Cluster Springs,VA,36.620833,-78.921944,Halifax
24536,Coleman Falls,VA,37.488659,-79.315757,Bedford
24538,Concord,VA,37.336953,-78.980353,Campbell
24539,Crystal Hill,VA,36.873217,-78.970634,Halifax
24540,Danville,VA,36.621789,-79.412441,Danville City
24541,Danville,VA,36.577937,-79.441112,Danville City
24543,Danville,VA,36.5842,-79.3969,Danville City
24544,Danville,VA,36.5842,-79.3969,Danville City
24549,Dry Fork,VA,36.743008,-79.457966,Pittsylvania
24550,Evington,VA,37.261049,-79.231723,Campbell
24551,Forest,VA,37.337878,-79.279116,Bedford
24553,Gladstone,VA,37.547252,-78.850838,Nelson
24554,Gladys,VA,37.138581,-79.104794,Campbell
24555,Glasgow,VA,37.643,-79.45898,Rockbridge
24556,Goode,VA,37.348098,-79.381277,Bedford
24557,Gretna,VA,36.969515,-79.338874,Pittsylvania
24558,Halifax,VA,36.762571,-78.941494,Halifax
24562,Howardsville,VA,37.765891,-78.582355,Buckingham
24563,Hurt,VA,37.079787,-79.299995,Pittsylvania
24565,Java,VA,36.858582,-79.187034,Pittsylvania
24566,Keeling,VA,36.715577,-79.278284,Pittsylvania
24569,Long Island,VA,37.064374,-79.121933,Pittsylvania
24570,Lowry,VA,37.33361,-79.455599,Bedford
24571,Lynch Station,VA,37.152826,-79.329716,Campbell
24572,Madison Heights,VA,37.453102,-79.114089,Amherst
24574,Monroe,VA,37.541366,-79.17034,Amherst
24576,Naruna,VA,37.105833,-79.002778,Campbell
24577,Nathalie,VA,36.944179,-78.989766,Halifax
24578,Natural Bridge,VA,37.660625,-79.533045,Rockbridge
24579,Natural Bridge Station,VA,37.595667,-79.503905,Rockbridge
24580,Nelson,VA,36.558558,-78.670959,Mecklenburg
24581,Norwood,VA,37.643056,-78.809167,Nelson
24586,Ringgold,VA,36.603483,-79.298835,Pittsylvania
24588,Rustburg,VA,37.25454,-79.121507,Campbell
24589,Scottsburg,VA,36.786194,-78.786601,Halifax
24590,Scottsville,VA,37.804937,-78.473981,Albemarle
24592,South Boston,VA,36.696335,-78.918829,Halifax
24593,Spout Spring,VA,37.364345,-78.905887,Appomattox
24594,Sutherlin,VA,36.625831,-79.19495,Pittsylvania
24595,Sweet Briar,VA,37.552778,-79.066667,Amherst
24597,Vernon Hill,VA,36.786684,-79.110874,Halifax
24598,Virgilina,VA,36.606231,-78.760516,Halifax
24599,Wingina,VA,37.641473,-78.755709,Buckingham
24601,Amonate,VA,37.190833,-81.638889,Tazewell
24602,Bandy,VA,37.166112,-81.6508,Tazewell
24603,Big Rock,VA,37.318638,-82.224596,Buchanan
24604,Bishop,VA,37.208611,-81.558333,Tazewell
24605,Bluefield,VA,37.249512,-81.325114,Tazewell
24606,Boissevain,VA,37.281667,-81.380556,Tazewell
24607,Breaks,VA,37.295833,-82.281111,Dickenson
24608,Burkes Garden,VA,37.098056,-81.341111,Tazewell
24609,Cedar Bluff,VA,37.079076,-81.766788,Tazewell
24612,Doran,VA,37.0925,-81.833611,Tazewell
24613,Falls Mills,VA,37.271023,-81.318234,Tazewell
24614,Grundy,VA,37.296678,-82.106077,Buchanan
24619,Horsepen,VA,37.228056,-81.52,Tazewell
24620,Hurley,VA,37.401741,-82.026164,Buchanan
24622,Jewell Ridge,VA,37.222372,-81.810654,Tazewell
24624,Keen Mountain,VA,37.202222,-81.986389,Buchanan
24627,Mavisdale,VA,37.200817,-82.221599,Buchanan
24628,Maxie,VA,37.301111,-82.174444,Buchanan
24630,North Tazewell,VA,37.152447,-81.525256,Tazewell
24631,Oakwood,VA,37.184074,-81.991577,Buchanan
24634,Pilgrims Knob,VA,37.298944,-81.911896,Buchanan
24635,Pocahontas,VA,37.303611,-81.339722,Tazewell
24637,Pounding Mill,VA,37.059584,-81.730052,Tazewell
24639,Raven,VA,37.148056,-81.889557,Buchanan
24640,Red Ash,VA,37.113333,-81.871111,Tazewell
24641,Richlands,VA,37.094051,-81.812286,Tazewell
24646,Rowe,VA,37.127593,-82.027381,Buchanan
24647,Shortt Gap,VA,37.157222,-81.873056,Buchanan
24649,Swords Creek,VA,37.073792,-81.908385,Russell
24651,Tazewell,VA,37.107773,-81.509976,Tazewell
24656,Vansant,VA,37.173811,-82.127715,Buchanan
24657,Whitewood,VA,37.264409,-81.890361,Buchanan
24658,Wolford,VA,37.364444,-81.991389,Buchanan
22551,Spotsylvania,VA,38.200965,-77.589154,Spotsylvania